{"type":"FeatureCollection","name":"area_centolla_S4","crs":{"type":"name","properties":{"name":"urn:ogc:def:crs:OGC:1.3:CRS84"}},"features":[{"type":"Feature","properties":{"FID":0},"geometry":{"type":"MultiPolygon","coordinates":[[[[-66.36775712649448,-54.5],[-66.38064574299995,-54.49426578799995],[-66.38356058199997,-54.491469920999975],[-66.38296571699993,-54.490280189999964],[-66.38403647499996,-54.48700843199998],[-66.40122807999995,-54.48504537599996],[-66.40253678399995,-54.48629459299997],[-66.40925876099993,-54.486354079999956],[-66.41574279299994,-54.48421256499995],[-66.42305963499996,-54.48028645399995],[-66.46042906999998,-54.479824838999946],[-66.47028003899999,-54.47635082599999],[-66.47137459099997,-54.47359065099994],[-66.47042280699998,-54.47292440199993],[-66.47537208499995,-54.472258152999984],[-66.47475342599995,-54.47173467099998],[-66.48165386199997,-54.469545566999955],[-66.48888742399998,-54.46240718399997],[-66.49621616399997,-54.45122371799994],[-66.50216481599995,-54.44584613599994],[-66.52905272599997,-54.43461507999996],[-66.54603456999996,-54.42495558099995],[-66.55222116899995,-54.42052978299995],[-66.55560000399998,-54.41596121799995],[-66.55712285899995,-54.41167818799994],[-66.55674214499999,-54.40982220899997],[-66.55388679199996,-54.409108370999945],[-66.55122179499995,-54.404301858999986],[-66.54384546599994,-54.40363560999998],[-66.54322680599995,-54.403112128999965],[-66.54413100199997,-54.40239828999995],[-66.54988929699994,-54.402969360999975],[-66.55540964699998,-54.40182721999997],[-66.56526061499994,-54.397211065999954],[-66.57401703199997,-54.39202384099997],[-66.58267826999997,-54.38935884399996],[-66.59505146699996,-54.383648137999955],[-66.62460437299995,-54.36680155399995],[-66.63179034499996,-54.36166191799998],[-66.63469328799994,-54.358378261999974],[-66.63445534099998,-54.356807817999936],[-66.64230756299997,-54.35400005399998],[-66.64463943499999,-54.35185853899998],[-66.65120674699995,-54.34928872099994],[-66.66101012599995,-54.343435246999945],[-66.67509653499997,-54.32915848099998],[-66.68085483099998,-54.32202009799994],[-66.68794562499994,-54.31535760699995],[-66.68861187399995,-54.31407269799996],[-66.68756491099998,-54.31116975599997],[-66.68394812999998,-54.307838509999954],[-66.68432884399994,-54.306077708999965],[-66.68818357099997,-54.305934940999975],[-66.69046785299997,-54.30688672599996],[-66.69146722699998,-54.30807645599998],[-66.68723178699997,-54.308599937999986],[-66.68727937599994,-54.30964689999996],[-66.68956365799994,-54.31159805899995],[-66.69132445899999,-54.31159805899995],[-66.69893873499996,-54.30517351399993],[-66.70027123299997,-54.30274646399994],[-66.69931944799998,-54.30070012699997],[-66.69460811599998,-54.30036700299996],[-66.69246660099998,-54.29893932599998],[-66.69741587999994,-54.29970075299997],[-66.69993810799997,-54.29874896899997],[-66.70379283499994,-54.29437076099998],[-66.70460185199994,-54.290896747999966],[-66.70331694299995,-54.28927871399998],[-66.69922426999995,-54.28951665999995],[-66.69327561699998,-54.28780344799998],[-66.69008713999995,-54.285186040999974],[-66.69094374599996,-54.28290175899997],[-66.69651168399997,-54.28242586699997],[-66.70483979799997,-54.283853542999964],[-66.72420861099994,-54.27995122699997],[-66.73391681099997,-54.276477213999954],[-66.73748600299996,-54.27366944999994],[-66.73800948399997,-54.27090927499995],[-66.74119796199994,-54.268529813999976],[-66.74210215699998,-54.265959995999935],[-66.74172144399995,-54.26358053499996],[-66.74062689199997,-54.26215285899997],[-66.73482100699994,-54.262676339999985],[-66.73344091899997,-54.26153419899998],[-66.73396440099998,-54.26034446799997],[-66.73915162599997,-54.259583040999985],[-66.74319670899996,-54.261391430999936],[-66.74500509999996,-54.26072518199993],[-66.74609965199994,-54.25924991599993],[-66.74376777999998,-54.258345720999955],[-66.74619482999998,-54.255252421999955],[-66.75009714599997,-54.254062690999945],[-66.75247660699995,-54.25239706899998],[-66.75652169099993,-54.25311090699995],[-66.76375525199995,-54.25106457099997],[-66.76841899599998,-54.24759055699997],[-66.77365380999998,-54.247638146999975],[-66.77484354099994,-54.24635323799998],[-66.77860308899994,-54.244782792999956],[-66.78440897399997,-54.24530627499996],[-66.84955861599997,-54.226889246999974],[-66.85398441399997,-54.226889246999974],[-66.86197940299996,-54.223653179999985],[-66.88268071399995,-54.22160684299996],[-66.88834383099999,-54.21970327399998],[-66.89500632199997,-54.21917979299997],[-66.89995559999994,-54.21751416999996],[-66.91856298599998,-54.20799632599994],[-66.92679592099995,-54.20247597699995],[-66.94097750799995,-54.19785982199994],[-66.94763999899993,-54.19448098799995],[-66.95040017399998,-54.192291883999985],[-66.95082847699996,-54.19067384999994],[-66.94897187499998,-54.18863374099993],[-66.94992428199998,-54.18453484099996],[-66.95468320399993,-54.181917433999956],[-66.96777023899995,-54.176444672999935],[-66.97921703299994,-54.17323993599996],[-66.98592711299995,-54.16986110099998],[-66.99692022299996,-54.16681539099994],[-67.00039423599998,-54.164911821999965],[-67.00163155599995,-54.16248477199997],[-67.00310682099996,-54.16143780899995],[-67.00805609999998,-54.160771559999944],[-67.01352886099994,-54.15720236899995],[-67.02623518199994,-54.15501326499998],[-67.02894776799997,-54.152728981999985],[-67.03795191399996,-54.15202867099998],[-67.04350249699996,-54.148791865999954],[-67.05365674299998,-54.14505748099998],[-67.07146792899994,-54.14067154299994],[-67.08129590999994,-54.131980081999984],[-67.08491269099994,-54.13083794099998],[-67.09547749799998,-54.132218027999954],[-67.10846935499995,-54.12988615599994],[-67.11798719899997,-54.130695172999935],[-67.12353342399996,-54.13036220299995],[-67.14025895399993,-54.12379473599998],[-67.15672482399998,-54.115704568999945],[-67.16096026399998,-54.11603769299995],[-67.15972294499994,-54.11741778099997],[-67.16195963799998,-54.118559921999974],[-67.16100785399993,-54.119749652999985],[-67.16210240599997,-54.12032072299996],[-67.16438668799998,-54.11979724199995],[-67.16519570499997,-54.11860751099994],[-67.16443427799999,-54.11794126199993],[-67.16486258099997,-54.11684670999995],[-67.15977053399996,-54.11461001699996],[-67.15881874999997,-54.11161189599994],[-67.16324454699998,-54.11242091299994],[-67.16500534799997,-54.11199260999996],[-67.17214373099995,-54.10861377499998],[-67.19755637499998,-54.10033325099994],[-67.21559268899995,-54.09286174299996],[-67.25104665799995,-54.08105961699994],[-67.28369286299994,-54.063023301999976],[-67.28516812899994,-54.05978723499993],[-67.28445429099997,-54.05802643399994],[-67.28764276799996,-54.05650357899998],[-67.28949874799997,-54.05697947099998],[-67.29125954899996,-54.05645598999996],[-67.29235410099994,-54.05493313499994],[-67.29568534699996,-54.05521866999993],[-67.31443549899996,-54.04955555299995],[-67.32971163899998,-54.04137020699994],[-67.33718314699996,-54.035326375999944],[-67.34503536799997,-54.024571211999955],[-67.34489259999998,-54.02114478799996],[-67.34379804799994,-54.01900327399994],[-67.33975296399996,-54.01700452599994],[-67.33480368599999,-54.01790872199996],[-67.33456573899997,-54.01686175899994],[-67.33585064799996,-54.01619550999993],[-67.34717688299997,-54.01329256699995],[-67.36535596499994,-54.00420302599997],[-67.37406479199996,-54.00096695899998],[-67.39319565899996,-53.99577973399994],[-67.41803723199996,-53.99097322299997],[-67.43069596399994,-53.987023317999956],[-67.43969032699994,-53.982787876999964],[-67.44854192199995,-53.97712475999998],[-67.46576921899998,-53.96294317199994],[-67.47205099599995,-53.954377112999964],[-67.48727954699996,-53.943859894999946],[-67.49161016599999,-53.94186114799999],[-67.50184184799997,-53.940861773999984],[-67.51178799499996,-53.93843472399993],[-67.52221003399995,-53.93419928299994],[-67.53068091599994,-53.92972589699997],[-67.53958009999997,-53.924348314999975],[-67.54990696099998,-53.91635332599998],[-67.56603970599997,-53.89964950999996],[-67.57327326799998,-53.88808532899998],[-67.57926950899997,-53.87280918899995],[-67.57984057999994,-53.86885928399994],[-67.57936468799994,-53.863338934999945],[-67.57746111899996,-53.85677162199994],[-67.57351121399995,-53.85077537999996],[-67.57027514699996,-53.848491097999954],[-67.56513551099994,-53.846587528999976],[-67.55104910199998,-53.84663511799994],[-67.56204221199994,-53.849966363999954],[-67.56275604999996,-53.85048984499997],[-67.56204221199994,-53.850870558999986],[-67.55661704099998,-53.849680827999975],[-67.55123945899999,-53.84725377799998],[-67.54709919699997,-53.84868145499996],[-67.54300652399996,-53.848205562999965],[-67.54157884699998,-53.844065299999954],[-67.54567151999998,-53.84044851999994],[-67.55376168699996,-53.83692691699997],[-67.57879361699997,-53.83254870899998],[-67.59655698999995,-53.82713868199994],[-67.61550677999998,-53.81771156599996],[-67.62487596999995,-53.814642032999984],[-67.64689441799999,-53.805078831999936],[-67.66762098099997,-53.793556078999984],[-67.67521102499995,-53.787863398999946],[-67.67431823999993,-53.785253884999975],[-67.67815290299995,-53.787318109999944],[-67.68359432999995,-53.78789795899996],[-67.68357624899994,-53.78847542899996],[-67.67793619999998,-53.78800894099999],[-67.67444681699993,-53.79045450899997],[-67.67308858299998,-53.79332791999997],[-67.67289000699998,-53.79902144899995],[-67.68144094199994,-53.806221293999954],[-67.68629985399997,-53.806794509999975],[-67.68889462899995,-53.80803610399994],[-67.69864020599994,-53.80831548899994],[-67.71066748899995,-53.807347841999956],[-67.72721824599995,-53.809757478999984],[-67.73282362299994,-53.811492139999984],[-67.74068729299995,-53.81925807999994],[-67.74647218199993,-53.82157163699998],[-67.75618356799998,-53.82311692999997],[-67.75924875899995,-53.82505498099994],[-67.76297893399993,-53.83092805599995],[-67.76708082999994,-53.83414745199997],[-67.77142937099995,-53.83563625599999],[-67.77533071199997,-53.83573391999994],[-67.77843457599994,-53.83378927699994],[-67.77606426999995,-53.832306433999975],[-67.77170177099998,-53.83257220399997],[-67.76910516599997,-53.83168428099998],[-67.76559702099996,-53.82818218899996],[-67.76318990899995,-53.82376703799997],[-67.76004080899997,-53.82136601999997],[-67.74723296499997,-53.81675181299994],[-67.73951968399996,-53.807197119999955],[-67.73629548899999,-53.80532929499998],[-67.73311099799997,-53.80419805399998],[-67.72523803099995,-53.803305947999945],[-67.71370792099998,-53.79763709799994],[-67.71050513899996,-53.79714049499995],[-67.70599601699996,-53.79790068999995],[-67.69926346199998,-53.80117838599995],[-67.68850500599996,-53.80215885499996],[-67.68718884599997,-53.80058468999994],[-67.68157249299998,-53.79930996099995],[-67.68173692299996,-53.797174334999966],[-67.68365730399995,-53.795017024999936],[-67.68741197199995,-53.79344064299994],[-67.69141881599995,-53.79001834199994],[-67.69196714299994,-53.78806021799994],[-67.69151179199997,-53.78389593099996],[-67.69883306599996,-53.77727442499997],[-67.70550053799997,-53.768051165999964],[-67.72330908899994,-53.75840238899997],[-67.72459796699997,-53.75541419199993],[-67.72613689499997,-53.754071701999976],[-67.73769658399993,-53.74692170999998],[-67.76141096699996,-53.73862192399997],[-67.77827939199994,-53.73111244399996],[-67.79038299299998,-53.723709482999936],[-67.79610125799996,-53.717756873999974],[-67.81072240999998,-53.71040365399995],[-67.81835177199997,-53.70833641699994],[-67.82619122099999,-53.705016403999934],[-67.83549496399996,-53.69823900299997],[-67.84002628099995,-53.69028683199997],[-67.86377199199995,-53.67941604499998],[-67.88812557999995,-53.666631275999976],[-67.91132606899998,-53.652671090999945],[-67.93448322099994,-53.63624165999994],[-67.94466731399996,-53.627913545999945],[-67.95618390599998,-53.61772945299998],[-67.97060343899994,-53.60035938799996],[-67.98259592299996,-53.59179332799994],[-67.99016260899998,-53.584512176999965],[-68.00510562399995,-53.56823666399998],[-68.02066729899997,-53.54791606699996],[-68.03066103499998,-53.53297305199993],[-68.04417637399996,-53.50803630099995],[-68.05764412299999,-53.47786473499997],[-68.06601982599994,-53.45573574799994],[-68.06644812899998,-53.45040575499996],[-68.07111187199996,-53.43527238299998],[-68.07882132599997,-53.397914844999946],[-68.08291399899997,-53.38968190999998],[-68.09619139099993,-53.372644968999964],[-68.10542369999996,-53.35874891699996],[-68.13707053099995,-53.33133752599997],[-68.17304798199996,-53.316965581999966],[-68.20659838199998,-53.306686309999975],[-68.24533600699993,-53.311254875999964],[-68.27945747799998,-53.31672763599994],[-68.28559648699996,-53.31663245699997],[-68.30786824199998,-53.32124861199998],[-68.32338232799998,-53.320154059999936],[-68.34170417799999,-53.316965581999966],[-68.34717693799996,-53.31510960199995],[-68.36016879499994,-53.31315844399995],[-68.37197092199995,-53.309494073999986],[-68.37339859799994,-53.30939889599995],[-68.37915689399995,-53.31263496299994],[-68.38705670399997,-53.31196871399993],[-68.39557517499998,-53.309589252999956],[-68.40909051299997,-53.30349783299994],[-68.41461086299995,-53.30283158399993],[-68.42769789799996,-53.29821542899998],[-68.43750127799996,-53.300642478999976],[-68.45446921399997,-53.297254126999974],[-68.46374911199996,-53.29368493499993],[-68.48059569599997,-53.285023696999986],[-68.49863201099998,-53.27341192799997],[-68.51905730399994,-53.262690075999956],[-68.52215060299994,-53.25894242499999],[-68.52744490399994,-53.25495682799993],[-68.54844364699994,-53.247521011999936],[-68.55100156799995,-53.24335695599996],[-68.55207232499998,-53.23461243699995],[-68.55438844099996,-53.226072371999976],[-68.55599843599998,-53.212186016999965],[-68.55605792199998,-53.19564876299995],[-68.55119192499996,-53.17610148999995],[-68.54819380399994,-53.17134256799994],[-68.54838416099994,-53.17020042699994],[-68.54153131299995,-53.15935008499997],[-68.53477364399998,-53.153115896999964],[-68.53715310499996,-53.149879829999975],[-68.53853319199999,-53.14592992499996],[-68.53815247799997,-53.14440706999994],[-68.53577301699994,-53.14336010699998],[-68.52930088299996,-53.13783975699994],[-68.52259080299996,-53.134841636999965],[-68.51908913699998,-53.13032286199996],[-68.51002339099995,-53.12432661999998],[-68.50716803799997,-53.12161403399995],[-68.50516928999997,-53.121257114999935],[-68.50445545199995,-53.12197095299996],[-68.50188563399996,-53.12040050899998],[-68.50245670499999,-53.119686670999954],[-68.49674599899998,-53.11633163099998],[-68.49524693799998,-53.115617792999956],[-68.49389064499996,-53.116046095999934],[-68.49403341299995,-53.11276243899994],[-68.49189189799995,-53.11347627799995],[-68.49289127199995,-53.11197721699995],[-68.49881612999997,-53.110835075999944],[-68.50131456399998,-53.10526713699994],[-68.49624631199998,-53.105195752999975],[-68.49124944399995,-53.103768076999984],[-68.49303403899995,-53.101412409999966],[-68.48132709099997,-53.10069857199994],[-68.47790066699997,-53.10162656199998],[-68.46597956799997,-53.09927089499996],[-68.46219622499996,-53.09641554199993],[-68.46405220399998,-53.09484509799995],[-68.46041162899996,-53.09455956299996],[-68.45919810399994,-53.093488804999936],[-68.46019747699995,-53.092061128999944],[-68.46426635599994,-53.09027653299995],[-68.46333836599996,-53.08941992699994],[-68.45619998299998,-53.09056206799994],[-68.45348739699995,-53.09213251199998],[-68.44941851899995,-53.09313188599998],[-68.44613486299994,-53.09184697699993],[-68.45027512499996,-53.09041930099994],[-68.45284494299995,-53.08770671499997],[-68.44285120699993,-53.087207027999966],[-68.44078107599995,-53.086421805999976],[-68.44463580199994,-53.086564573999965],[-68.44870468099998,-53.08527966499997],[-68.44435026699995,-53.08313814999997],[-68.44699146899995,-53.08156770599993],[-68.44806222599993,-53.08049694799996],[-68.44777669099994,-53.07992587799998],[-68.44492133799997,-53.078783735999934],[-68.43871094499997,-53.07428655499996],[-68.43592697499997,-53.07478624199996],[-68.43642666199997,-53.07243057499994],[-68.43428514699997,-53.07100289899995],[-68.43656942999996,-53.07014629299994],[-68.43257193499994,-53.06971798999996],[-68.43000211699996,-53.06664848499997],[-68.42671846099995,-53.06671986899994],[-68.42257819899999,-53.06393589999993],[-68.41651057299998,-53.06386451599997],[-68.42022253299996,-53.06172300099996],[-68.41765271499997,-53.06072362699996],[-68.41686749299998,-53.05951010199993],[-68.41786686599994,-53.05772550599994],[-68.42229266399994,-53.054513233999955],[-68.41886623999994,-53.05144372899997],[-68.41222754399996,-53.04923083099993],[-68.40944357399997,-53.049159446999965],[-68.40359009999997,-53.050872658999936],[-68.39688001999997,-53.049444981999955],[-68.39388189899995,-53.05065850699998],[-68.39095516199995,-53.050729890999946],[-68.38952748599996,-53.04965913399997],[-68.39188315199993,-53.045161951999944],[-68.39031270799995,-53.044733648999966],[-68.38995578899994,-53.04359150799996],[-68.39195453599996,-53.041378608999935],[-68.39231145499997,-53.03959401299994],[-68.39031270799995,-53.03716696299995],[-68.38124696099999,-53.034168841999985],[-68.37703531499994,-53.029100589999985],[-68.36739849799994,-53.02424648999994],[-68.36575666999994,-53.02189082399997],[-68.35954627699994,-53.017893328999946],[-68.35740476199999,-53.01882131899998],[-68.35547739899994,-53.01846439999997],[-68.35347865099993,-53.01667980399998],[-68.35262204499998,-53.01732225799998],[-68.34998084399996,-53.01546627899995],[-68.34798209599995,-53.01510935999994],[-68.34027264299993,-53.01625150099994],[-68.33584684499994,-53.015680429999975],[-68.32828015899997,-53.01782194499998],[-68.32471096799998,-53.015037975999974],[-68.31978548399996,-53.013110611999934],[-68.28537847699994,-53.00847066399996],[-68.27288630699996,-53.01239677399997],[-68.26674729799998,-53.01610873299995],[-68.26539100499997,-53.01839301599995],[-68.26574792399998,-53.02053453099995],[-68.26860327699995,-53.02367541899997],[-68.26988818599995,-53.029885812999964],[-68.27117309499994,-53.031456256999945],[-68.27081617599998,-53.03766664999995],[-68.26867466099998,-53.042520750999984],[-68.25561141999998,-53.05981943199998],[-68.24609357599996,-53.06938486499996],[-68.23700403499998,-53.08123458099993],[-68.21121067799999,-53.12630157299998],[-68.21073478599993,-53.12830031999994],[-68.21230522999997,-53.13434415099994],[-68.21201969499998,-53.13729468199995],[-68.21497022599993,-53.14866850599998],[-68.21463710199998,-53.15280876799994],[-68.21206728399994,-53.15290394699997],[-68.20350122399998,-53.144861367999965],[-68.20150247699996,-53.141958425999974],[-68.20364399199997,-53.135962183999936],[-68.21658825999998,-53.11273864499998],[-68.22567780099996,-53.09831911099997],[-68.24280991999996,-53.065910851999945],[-68.24636324799997,-53.05693235299998],[-68.25340645299997,-53.029711318999944],[-68.26287670799996,-53.00077707299994],[-68.27824802599997,-52.96622729899997],[-68.28767069099996,-52.951427051999985],[-68.31032315999994,-52.93115404399998],[-68.32669385199995,-52.91773388399997],[-68.34406391699997,-52.90122042399997],[-68.36143398299998,-52.887467139999956],[-68.36210023199999,-52.88822856699994],[-68.36276648099994,-52.88661053399994],[-68.36785852699995,-52.88223232599995],[-68.39460366899993,-52.861911728999985],[-68.39831562799998,-52.85767628799994],[-68.39798250399997,-52.85696244999997],[-68.41144422499997,-52.84646881499998],[-68.41786876999998,-52.83956837799997],[-68.43638097599995,-52.82372116799996],[-68.46850369999999,-52.79259781799993],[-68.48363707199996,-52.780224620999945],[-68.49910356799995,-52.76542437299997],[-68.53784119399995,-52.73177879499997],[-68.56258758799999,-52.70788900599996],[-68.56434838899997,-52.705319187999976],[-68.56510981699995,-52.70484329599998],[-68.56996391699994,-52.70736552499994],[-68.56796516999998,-52.70313008399995],[-68.56915489999994,-52.69994160599998],[-68.57791131699997,-52.69113760099998],[-68.58514487799994,-52.68152457799994],[-68.59480548999994,-52.672577804999946],[-68.60605632399995,-52.65847244399998],[-68.52729433580849,-52.54],[-68.29122460583578,-52.54],[-68.31283493899997,-52.54071592099996],[-68.29127537199997,-52.56042921599993],[-68.27690232699996,-52.57821829899996],[-68.26702085899996,-52.58888826699996],[-68.24456297699999,-52.61896898799995],[-68.23108824799993,-52.642745401999946],[-68.22794414399993,-52.65012164999996],[-68.22210509499996,-52.65695039399998],[-68.19650310899993,-52.67934115099996],[-68.15967218299994,-52.71399676499993],[-68.15607892099996,-52.71590611299996],[-68.14619745299996,-52.72408808299997],[-68.13407019699997,-52.73581288199995],[-68.11834967899995,-52.747807070999954],[-68.10262916199997,-52.76088785899998],[-68.09813758599995,-52.76551969099995],[-68.08601032899998,-52.774237090999975],[-68.05816255499997,-52.79792865699994],[-68.03795046199997,-52.81970256499994],[-68.02537404799995,-52.829225203999954],[-68.00785689999998,-52.84608873099995],[-67.98315322899998,-52.87381763899998],[-67.96967849999999,-52.89283697899998],[-67.96428860799995,-52.90207191999997],[-67.94497482999998,-52.94333335899995],[-67.93284757299995,-52.97642251299993],[-67.92611020899994,-52.99864846699995],[-67.92386441999997,-53.007318891999944],[-67.92386441999997,-53.01002804099994],[-67.92072031699996,-53.017612749999955],[-67.89691496199998,-53.061198832999935],[-67.88254191699997,-53.090141493999965],[-67.87715202599998,-53.106362469999965],[-67.87490623799994,-53.115821867999955],[-67.87266044899997,-53.13932617099994],[-67.86143150799995,-53.16281755799997],[-67.84705846399999,-53.19573775499998],[-67.84121941399997,-53.20517738799998],[-67.83582952299997,-53.22324171599996],[-67.82684636999994,-53.22728491999993],[-67.81651574399996,-53.23402274099993],[-67.80438848799997,-53.24049004699998],[-67.78103228999998,-53.255307252999955],[-67.76082019599994,-53.27065782699998],[-67.74285389099998,-53.28815611099998],[-67.72713337299996,-53.30618526999996],[-67.71051454099995,-53.334424541999965],[-67.70377717599996,-53.35377776299998],[-67.70153138799998,-53.36371973599995],[-67.69928559899995,-53.38386523299994],[-67.69928559899995,-53.39380015299997],[-67.70287886099999,-53.41393135499993],[-67.71051454099995,-53.44719395399994],[-67.71276032899993,-53.45389695499995],[-67.70826875199998,-53.46247524599994],[-67.70737043699995,-53.46595967899998],[-67.70153138799998,-53.47319566099998],[-67.67053950999997,-53.500520405999964],[-67.64134426399994,-53.512569818999964],[-67.60316586399995,-53.53237692699997],[-67.58430124299997,-53.54388218799994],[-67.58340292799994,-53.54521980499993],[-67.56633493699997,-53.553779548999955],[-67.53624137499997,-53.563674585999934],[-67.50839360199996,-53.57490397099997],[-67.49177476899996,-53.58372495799995],[-67.45718962999996,-53.59895685199996],[-67.43248595999995,-53.604834353999934],[-67.37005304799999,-53.62539913799998],[-67.35657831899994,-53.630738993999955],[-67.34175611599994,-53.63687898899997],[-67.31615413099996,-53.64995685499997],[-67.29279793299997,-53.66463123899996],[-67.27168752399996,-53.68063380399997],[-67.26270437099998,-53.68863279699997],[-67.22811923299997,-53.709689508999986],[-67.19802567099998,-53.734197911999956],[-67.18095768099994,-53.75150498099998],[-67.16748295099995,-53.77013535499998],[-67.15670316799998,-53.789289362999966],[-67.15445737999994,-53.79646985199997],[-67.14861832999998,-53.80497846199995],[-67.14547422699997,-53.815080182999964],[-67.14547422699997,-53.81773812399996],[-67.11178740399998,-53.83554196199998],[-67.08708373299999,-53.85015137199997],[-67.05699017099994,-53.87457748299994],[-67.04037133899993,-53.89156111099993],[-67.02689660899995,-53.910129017999964],[-67.01566766799994,-53.92921878799996],[-66.98018421499995,-53.94035043799994],[-66.95098896799993,-53.946445077999954],[-66.90517488799998,-53.96022096499996],[-66.87732711399997,-53.97213871599996],[-66.84723355199998,-53.98378831799994],[-66.82477566999995,-53.990405951999946],[-66.78345316699995,-54.00840057199997],[-66.76009696999995,-54.01739495199996],[-66.73314751099997,-54.02929627499998],[-66.71293541699998,-54.041194176999966],[-66.66487554999998,-54.05573141199994],[-66.63388367199997,-54.06286600399994],[-66.58896790799997,-54.07607495899998],[-66.57459486399995,-54.08056504199993],[-66.55977266199994,-54.08637501399994],[-66.53327236099994,-54.09825650099998],[-66.50317879899995,-54.11330147899997],[-66.49644143399996,-54.118051384999944],[-66.47263607899998,-54.128604774999985],[-66.44703409299996,-54.142320144999985],[-66.41469474299998,-54.16578394299995],[-66.38774528499994,-54.19134163099994],[-66.37471971299993,-54.209775467999975],[-66.36888066399996,-54.219515730999944],[-66.36214329899997,-54.233463977999975],[-66.33654131299994,-54.243724759999964],[-66.32306658399995,-54.25030083599995],[-66.28623565799995,-54.271337201999984],[-66.26512524799995,-54.28710740199995],[-66.24715894299999,-54.30392226599997],[-66.20224317799995,-54.317054078999945],[-66.17214961599996,-54.32361840799996],[-66.14115773899994,-54.33201921299997],[-66.09758944799995,-54.34697887699997],[-66.04818210699995,-54.358260618999964],[-66.00012223999994,-54.37452183999994],[-65.94532500699995,-54.38763101699993],[-65.92421459799993,-54.391300832999946],[-65.89187524799996,-54.399163614999964],[-65.85818842499998,-54.40964496799995],[-65.83168812399998,-54.41619444799994],[-65.81372181799998,-54.42274287699996],[-65.79126393599995,-54.42667142999994],[-65.75892458599998,-54.43452740099997],[-65.71670376699996,-54.44866433499993],[-65.70772061499997,-54.44866433499993],[-65.69514420099995,-54.44735556599994],[-65.66639811099998,-54.44028748399995],[-65.64933012099993,-54.43714572099998],[-65.61699077099996,-54.43190891199998],[-65.59902446499996,-54.429814],[-65.56443932699995,-54.42798086299996],[-65.49661652299994,-54.42798086299996],[-65.46203138399994,-54.429814],[-65.43822602899996,-54.432432622999954],[-65.40588667899993,-54.43059960399995],[-65.38342879699997,-54.43059960399995],[-65.34435208199994,-54.421957120999934],[-65.31201273199997,-54.41671836099994],[-65.29404642599997,-54.414884635999954],[-65.25946128799995,-54.413050828999985],[-65.22622362199996,-54.413050828999985],[-65.19163848399995,-54.414884635999954],[-65.17367217799995,-54.41671836099994],[-65.13010388699996,-54.42405243699994],[-65.09776453699993,-54.43112333199997],[-65.08204401899997,-54.43505107799996],[-65.02949257499995,-54.45206693899996],[-65.00164480099994,-54.457301159999986],[-64.96930545099997,-54.465151230999936],[-64.92438968699997,-54.480062198999974],[-64.91091495799998,-54.48581584899995],[-64.88243552047246,-54.5],[-66.36775712649448,-54.5]]]]}}]}