{"type":"FeatureCollection","name":"area_centolla_S2","crs":{"type":"name","properties":{"name":"urn:ogc:def:crs:OGC:1.3:CRS84"}},"features":[{"type":"Feature","properties":{"FID":0},"geometry":{"type":"MultiPolygon","coordinates":[[[[-64.5,-54.51317681667822],[-64.61851333299995,-54.52737487699994],[-64.65175099799995,-54.532599421999976],[-64.66747151599998,-54.53599501499997],[-64.69981086599995,-54.54356877899994],[-64.71553138299998,-54.54826902499997],[-64.79503228599998,-54.57880737099998],[-64.80491375399998,-54.564454599999976],[-64.82063427099996,-54.546180093999965],[-64.83949889199994,-54.52946477599994],[-64.87183824299996,-54.505947221999975],[-64.88441465699998,-54.49888930299994],[-64.91091495799998,-54.48581584899995],[-64.92438968699997,-54.480062198999974],[-64.96930545099997,-54.465151230999936],[-65.00164480099994,-54.457301159999986],[-65.02949257499995,-54.45206693899996],[-65.08204401899997,-54.43505107799996],[-65.13010388699996,-54.42405243699994],[-65.17367217799995,-54.41671836099994],[-65.19163848399995,-54.414884635999954],[-65.22622362199996,-54.413050828999985],[-65.25946128799995,-54.413050828999985],[-65.29404642599997,-54.414884635999954],[-65.31201273199997,-54.41671836099994],[-65.34435208199994,-54.421957120999934],[-65.38342879699997,-54.43059960399995],[-65.40588667899993,-54.43059960399995],[-65.43957350199997,-54.432432622999954],[-65.46203138399994,-54.429814],[-65.49661652299994,-54.42798086299996],[-65.56443932699995,-54.42798086299996],[-65.59902446499996,-54.429814],[-65.61699077099996,-54.43190891199998],[-65.64933012099993,-54.43714572099998],[-65.66639811099998,-54.44028748399995],[-65.69514420099995,-54.44735556599994],[-65.70772061499997,-54.44866433499993],[-65.71670376699996,-54.44866433499993],[-65.75892458599998,-54.43452740099997],[-65.79126393599995,-54.42667142999994],[-65.81372181799998,-54.42274287699996],[-65.83168812399998,-54.41619444799994],[-65.85818842499998,-54.40964496799995],[-65.89187524799996,-54.399163614999964],[-65.92421459799993,-54.391300832999946],[-65.94532500699995,-54.38763101699993],[-66.00012223999994,-54.37452183999994],[-66.04818210699995,-54.358260618999964],[-66.09758944799995,-54.34697887699997],[-66.14115773899994,-54.33201921299997],[-66.17214961599996,-54.32361840799996],[-66.20224317799995,-54.317054078999945],[-66.24715894299999,-54.30392226599997],[-66.26512524799995,-54.28710740199995],[-66.28623565799995,-54.271337201999984],[-66.32306658399995,-54.25030083599995],[-66.33654131299994,-54.243724759999964],[-66.36214329899997,-54.233463977999975],[-66.36888066399996,-54.219515730999944],[-66.37471971299993,-54.209775467999975],[-66.38774528499994,-54.19134163099994],[-66.40481327499998,-54.17448060799995],[-66.42457621099999,-54.15813990299995],[-66.44703409299996,-54.142320144999985],[-66.47263607899998,-54.128604774999985],[-66.49644143399996,-54.118051384999944],[-66.50317879899995,-54.11330147899997],[-66.53327236099994,-54.09825650099998],[-66.57459486399995,-54.08056504199993],[-66.63388367199997,-54.06286600399994],[-66.66487554999998,-54.05573141199994],[-66.71293541699998,-54.041194176999966],[-66.73314751099997,-54.02929627499998],[-66.76009696999995,-54.01739495199996],[-66.78345316699995,-54.00840057199997],[-66.82477566999995,-53.990405951999946],[-66.84723355199998,-53.98378831799994],[-66.87732711399997,-53.97213871599996],[-66.90517488799998,-53.96022096499996],[-66.95098896799993,-53.946445077999954],[-66.98018421499995,-53.94035043799994],[-67.01566766799994,-53.92921878799996],[-67.02689660899995,-53.910129017999964],[-67.04037133899993,-53.89156111099993],[-67.05699017099994,-53.87457748299994],[-67.08708373299999,-53.85015137199997],[-67.11178740399998,-53.83554196199998],[-67.14547422699997,-53.81773812399996],[-67.14547422699997,-53.815080182999964],[-67.14861832999998,-53.80497846199995],[-67.15445737999994,-53.79646985199997],[-67.15670316799998,-53.789289362999966],[-67.16748295099995,-53.77013535499998],[-67.18095768099994,-53.75150498099998],[-67.19802567099998,-53.734197911999956],[-67.22811923299997,-53.709689508999986],[-67.26270437099998,-53.68863279699997],[-67.27168752399996,-53.68063380399997],[-67.29279793299997,-53.66463123899996],[-67.31615413099996,-53.64995685499997],[-67.34175611599994,-53.63687898899997],[-67.35657831899994,-53.630738993999955],[-67.37005304799999,-53.62539913799998],[-67.43248595999995,-53.604834353999934],[-67.45718962999996,-53.59895685199996],[-67.49177476899996,-53.58372495799995],[-67.50839360199996,-53.57490397099997],[-67.53624137499997,-53.563674585999934],[-67.56633493699997,-53.553779548999955],[-67.58340292799994,-53.54521980499993],[-67.58430124299997,-53.54388218799994],[-67.60316586399995,-53.53237692699997],[-67.64134426399994,-53.512569818999964],[-67.67053950999997,-53.500520405999964],[-67.70153138799998,-53.47319566099998],[-67.70737043699995,-53.46595967899998],[-67.70826875199998,-53.46247524599994],[-67.71276032899993,-53.45389695499995],[-67.71051454099995,-53.44719395399994],[-67.70287886099999,-53.41393135499993],[-67.69928559899995,-53.39380015299997],[-67.69928559899995,-53.38386523299994],[-67.70153138799998,-53.36371973599995],[-67.70377717599996,-53.35377776299998],[-67.71051454099995,-53.334424541999965],[-67.72713337299996,-53.30618526999996],[-67.74285389099998,-53.28815611099998],[-67.76082019599994,-53.27065782699998],[-67.78103228999998,-53.255307252999955],[-67.80438848799997,-53.24049004699998],[-67.81651574399996,-53.23402274099993],[-67.82684636999994,-53.22728491999993],[-67.83582952299997,-53.22324171599996],[-67.84121941399997,-53.20517738799998],[-67.84705846399999,-53.19573775499998],[-67.86143150799995,-53.16281755799997],[-67.87266044899997,-53.13932617099994],[-67.87490623799994,-53.115821867999955],[-67.87715202599998,-53.106362469999965],[-67.88254191699997,-53.090141493999965],[-67.89691496199998,-53.061198832999935],[-67.92072031699996,-53.017612749999955],[-67.92386441999997,-53.01002804099994],[-67.92386441999997,-53.007318891999944],[-67.92611020899994,-52.99864846699995],[-67.93284757299995,-52.97642251299993],[-67.94497482999998,-52.94333335899995],[-67.96428860799995,-52.90207191999997],[-67.96967849999999,-52.89283697899998],[-67.98315322899998,-52.87381763899998],[-68.00785689999998,-52.84608873099995],[-68.02537404799995,-52.829225203999954],[-68.03795046199997,-52.81970256499994],[-68.05816255499997,-52.79792865699994],[-68.08601032899998,-52.774237090999975],[-68.09813758599995,-52.76551969099995],[-68.10262916199997,-52.76088785899998],[-68.11834967899995,-52.747807070999954],[-68.13407019699997,-52.73581288199995],[-68.14619745299996,-52.72408808299997],[-68.15607892099996,-52.71590611299996],[-68.15967218299994,-52.71399676499993],[-68.19650310899993,-52.67934115099996],[-68.22210509499996,-52.65695039399998],[-68.22794414399993,-52.65012164999996],[-68.23108824799993,-52.642745401999946],[-68.24456297699999,-52.61896898799995],[-68.26702085899996,-52.58888826699996],[-68.27690232699996,-52.57821829899996],[-68.29127537199997,-52.56042921599993],[-68.31283493899997,-52.54071592099996],[-68.28902958299994,-52.53989434099998],[-68.25803770599998,-52.53660786399996],[-68.22569835599995,-52.53112985399997],[-68.19560479399996,-52.52373345099994],[-68.15203650299998,-52.50921094599994],[-68.12598535899997,-52.497150860999966],[-68.10173084699994,-52.483990612999946],[-68.07927296499997,-52.469180602999984],[-68.05906087099999,-52.45326797399997],[-68.04244203799993,-52.43570250299996],[-68.02896730899994,-52.41785536599997],[-68.01773836799998,-52.39862724999995],[-68.01324679099997,-52.38928483999996],[-68.01010268799996,-52.37966557699997],[-68.00561111099995,-52.359870754999974],[-68.00426363799994,-52.34941989299995],[-68.00426363799994,-52.33924166799994],[-68.00650942699997,-52.319428639999956],[-68.00875521499995,-52.309794085999954],[-68.01549257899995,-52.28996780199998],[-68.03435719999999,-52.253596441999946],[-68.04783192999997,-52.23567528099994],[-68.06355244699995,-52.218022720999954],[-68.07253559999998,-52.20974565499995],[-68.08241706799998,-52.201467039999955],[-68.10936652699996,-52.18297253399999],[-68.11161231499995,-52.179659267999966],[-68.13856177299994,-52.15010501599994],[-68.15742639399997,-52.13352390399996],[-68.17988427599994,-52.11002337399998],[-68.18886742899997,-52.101726095999936],[-68.19650310899993,-52.09647034999995],[-68.21536772999997,-52.07986917299996],[-68.23917308499995,-52.06326178699993],[-68.24321550399998,-52.05855523199995],[-68.26342759799996,-52.04193987799994],[-68.28678379499996,-52.02531831299996],[-68.29262284499998,-52.01866794799997],[-68.30924167699999,-52.00397820499995],[-68.31268887086523,-52],[-64.5,-52],[-64.5,-54.51317681667822]]]]}}]}