{"type":"FeatureCollection","name":"area_centolla_C2","crs":{"type":"name","properties":{"name":"urn:ogc:def:crs:OGC:1.3:CRS84"}},"features":[{"type":"Feature","properties":{"FID":0},"geometry":{"type":"MultiPolygon","coordinates":[[[[-65.442044388499,-48],[-65.43148866499996,-47.98471356399995],[-65.42609877299998,-47.975364913999954],[-65.41711561999995,-47.95605908799996],[-65.41442067399998,-47.946101684999974],[-65.41037825599994,-47.925879201999976],[-65.40947993999998,-47.91591594899995],[-65.40947993999998,-47.90595076699998],[-65.41127657099997,-47.88571248699998],[-65.41352235899996,-47.87574145399998],[-65.41936140799999,-47.85639818899995],[-65.42924287599993,-47.83674525199996],[-65.43418361099998,-47.82827706299997],[-65.44810749699997,-47.81012626099994],[-65.46427717299997,-47.79257441799996],[-65.47326032499996,-47.784704412999986],[-65.48224347799999,-47.77713597099995],[-65.50290472999995,-47.76229860799998],[-65.50874377899999,-47.75896718599995],[-65.50515051799994,-47.747759917999986],[-65.50290472999995,-47.73745920799996],[-65.49976062599995,-47.71745785599995],[-65.49976062599995,-47.70745428199996],[-65.50200641499998,-47.687138052999956],[-65.50380304499998,-47.679251997999984],[-65.49886231099998,-47.667724067999984],[-65.49392157699998,-47.66044194999995],[-65.48404010899998,-47.641321526999945],[-65.47999768999995,-47.63130325599997],[-65.47820105899996,-47.62462333599996],[-65.47326032499996,-47.61520926199995],[-65.46607380299997,-47.595768359999965],[-65.46292969999996,-47.57875160799995],[-65.45619233499997,-47.56537739799995],[-65.44900581299999,-47.54591786599997],[-65.44406507899998,-47.51549779099997],[-65.44406507899998,-47.50210733399996],[-65.44137013299996,-47.48597335599993],[-65.43732771399993,-47.46831158899994],[-65.43642939899996,-47.45399508599996],[-65.43238697999993,-47.435103485999946],[-65.43148866499996,-47.41620505999998],[-65.43014119199995,-47.40675328699996],[-65.43014119199995,-47.396079877999966],[-65.42834456099996,-47.38601438599994],[-65.42744624599999,-47.368929124999966],[-65.42520045799995,-47.36007921199996],[-65.42430214199999,-47.350006802999985],[-65.42430214199999,-47.32435921499996],[-65.42609877299998,-47.30480978199995],[-65.42834456099996,-47.294421185999965],[-65.43418361099998,-47.27486060999996],[-65.43822602899996,-47.26538333999997],[-65.44631086699997,-47.240306198999974],[-65.44406507899998,-47.22745718199997],[-65.44316676299997,-47.20695345199994],[-65.44406507899998,-47.196851667999965],[-65.44541255199994,-47.191340787999934],[-65.44631086699997,-47.177867323999976],[-65.44810749699997,-47.16775996699994],[-65.45394654699999,-47.14815230499994],[-65.46292969999996,-47.129150437999954],[-65.47505695599995,-47.11075502899996],[-65.48987915799995,-47.09296671699997],[-65.49796399599995,-47.08499070499994],[-65.51593030099997,-47.068421300999944],[-65.53659155299994,-47.05430253399993],[-65.54782049399995,-47.047548749999976],[-65.57072753399996,-47.03588109699996],[-65.57162584899999,-47.02574657799994],[-65.56578679999996,-47.00332091299998],[-65.40559344654758,-46],[-62,-46],[-62,-48],[-65.442044388499,-48]]]]}}]}