{"type":"FeatureCollection","name":"area_centolla_C5","crs":{"type":"name","properties":{"name":"urn:ogc:def:crs:OGC:1.3:CRS84"}},"features":[{"type":"Feature","properties":{"FID":0},"geometry":{"type":"MultiPolygon","coordinates":[[[[-65.93568517346192,-48],[-65.93430932299998,-47.99749560299995],[-65.93171095199995,-47.99595371199996],[-65.92868427699995,-47.99672465799995],[-65.92717093999994,-47.99608220299996],[-65.92729943099994,-47.99539691799998],[-65.92902691999996,-47.99525415099998],[-65.92896981299998,-47.993026974999964],[-65.92771345699998,-47.99165640599995],[-65.92590030799994,-47.99155646799994],[-65.92411571199995,-47.99024300599996],[-65.92684257499997,-47.990671308999936],[-65.92862716999997,-47.99008596099998],[-65.93138258599998,-47.98733054599995],[-65.93262466499993,-47.98884388299996],[-65.93646511499998,-47.98884388299996],[-65.93834964799998,-47.987987276999945],[-65.94121927799995,-47.98506053999995],[-65.94191883899998,-47.98377563099996],[-65.94143342899997,-47.98294757799994],[-65.94251846399999,-47.98206241899993],[-65.94324657899995,-47.983404434999954],[-65.94464570199995,-47.98361858599998],[-65.94814350899998,-47.98237650799996],[-65.95078471099998,-47.97926417299993],[-65.95144144199998,-47.97670863199994],[-65.94945697199995,-47.96865653599997],[-65.94271833799996,-47.956421346999946],[-65.93480900999998,-47.94744126099994],[-65.92287363399998,-47.93894658499994],[-65.90955341099993,-47.93317877199996],[-65.90347150899998,-47.93199379999993],[-65.89477695799997,-47.93167971199995],[-65.89009417899996,-47.93332153999995],[-65.87892974799996,-47.93409248499995],[-65.87494652999999,-47.93512041199995],[-65.87190557899999,-47.936705132999975],[-65.86835066399993,-47.94103099299997],[-65.86916443999996,-47.94344376699996],[-65.87331897899998,-47.943329552999955],[-65.87307627399997,-47.94470012199997],[-65.87473237799998,-47.94595647799997],[-65.87157721299997,-47.94605641499993],[-65.87020664399995,-47.945371129999955],[-65.86883607399994,-47.94675597699995],[-65.87060639299995,-47.94779817999995],[-65.86773676299998,-47.94869761699994],[-65.86192611899997,-47.948055161999946],[-65.86603782799995,-47.94722710999997],[-65.86766537899996,-47.94595647799997],[-65.86595216699993,-47.94398628399995],[-65.86775103999997,-47.94294407999996],[-65.86688015699997,-47.940988162999986],[-65.86258285099996,-47.93838979199995],[-65.85882806099994,-47.93750463199996],[-65.85288892599993,-47.937832997999976],[-65.84195292399994,-47.94070262799994],[-65.83862643699996,-47.94237300899994],[-65.83734152799997,-47.94591364699994],[-65.84072512199998,-47.95088196199998],[-65.84103921099995,-47.95288070899994],[-65.84008266699993,-47.95322335199995],[-65.83993989999993,-47.954522536999946],[-65.84146751399999,-47.95540769699994],[-65.84059663099998,-47.95669260599993],[-65.84239550299998,-47.96057588599996],[-65.83942593599994,-47.96100418899994],[-65.83845511599998,-47.96315998099993],[-65.84018260499994,-47.96361683699996],[-65.83761278699996,-47.96411652399996],[-65.83624221699995,-47.96277450799994],[-65.83776983099995,-47.96136110799995],[-65.83684184099997,-47.959119655999984],[-65.83547127199995,-47.95836298699993],[-65.83351535499997,-47.95889122799997],[-65.83183069699999,-47.96056160899997],[-65.83398648799994,-47.962446141999976],[-65.83283006999994,-47.96294582899998],[-65.83375805999998,-47.96394520299998],[-65.83118824199994,-47.96537287899997],[-65.82637697199993,-47.96490174599995],[-65.82833288899997,-47.964145077999945],[-65.82539187499998,-47.96311714999996],[-65.82689093499994,-47.96156098299997],[-65.82106601499999,-47.960404564999976],[-65.82069481899998,-47.958805566999956],[-65.81942418699998,-47.95883412099994],[-65.81936707999995,-47.95774908599998],[-65.81795367999996,-47.95707807799994],[-65.81516971099995,-47.95729222999995],[-65.81235718799996,-47.95887695099998],[-65.81208592899998,-47.95950512899998],[-65.81299964199997,-47.95997626199994],[-65.81207165199999,-47.96060443999994],[-65.80429081499994,-47.960847144999946],[-65.80340565499995,-47.96001909199998],[-65.80486188499998,-47.95869135299995],[-65.80407666299993,-47.95706380199994],[-65.80083583699997,-47.95639279399995],[-65.80184948799996,-47.95413706499994],[-65.79965086599998,-47.95405140399998],[-65.80009344599995,-47.952795048999974],[-65.79832312699995,-47.95162435399993],[-65.79164159999993,-47.95286643199995],[-65.78941442499996,-47.951524415999984],[-65.78744423099994,-47.95189561199993],[-65.77952062599996,-47.950710640999944],[-65.77155418999996,-47.95159579999995],[-65.77139714599997,-47.95278077199998],[-65.77049770999997,-47.95290926299998],[-65.76470134299996,-47.949625605999984],[-65.76565788599999,-47.946684592999986],[-65.76738537499995,-47.94604213799994],[-65.76754241899994,-47.94498565799995],[-65.76994091599994,-47.94314395499998],[-65.77111161099998,-47.94451452399994],[-65.77790735099995,-47.94588509399995],[-65.78501718099994,-47.94588509399995],[-65.78872913999999,-47.94280131199997],[-65.78888618399998,-47.940802564999956],[-65.79039952199997,-47.93803287199995],[-65.79029958399997,-47.93596274099997],[-65.78738712399996,-47.93500619799994],[-65.79062794999999,-47.93167971199995],[-65.78527416199995,-47.923413463999964],[-65.77940641199996,-47.92271390299993],[-65.77650822799995,-47.920615217999966],[-65.77271060799995,-47.920900752999955],[-65.77182544899995,-47.919815718999985],[-65.77014079099996,-47.91945879999997],[-65.76347354099994,-47.91935886199997],[-65.76580065399997,-47.917588542999965],[-65.76177460599996,-47.91677476799998],[-65.76148906999998,-47.916032375999976],[-65.76283108599995,-47.91446193199994],[-65.76948405899998,-47.91369098599995],[-65.77094316499995,-47.911637610999946],[-65.77404122299998,-47.911137923999945],[-65.77415543699993,-47.91030987099998],[-65.77281342099997,-47.909381881999934],[-65.76937271999998,-47.908325400999956],[-65.76823057899998,-47.907354580999936],[-65.78307841599997,-47.90843961499996],[-65.78437760099996,-47.906897723999975],[-65.78720440099994,-47.90659791199994],[-65.78751848999997,-47.90551287799997],[-65.78894616699995,-47.905441493999945],[-65.78661905399997,-47.904670548999945],[-65.78881767599995,-47.90384249599998],[-65.79262957199995,-47.90412803199996],[-65.79284372399997,-47.903242871999964],[-65.79191573399999,-47.902786015999936],[-65.79431423099999,-47.90242909699998],[-65.79848304599994,-47.90257186399998],[-65.80059600799996,-47.90362834499996],[-65.80589268799997,-47.902329158999976],[-65.81024710099996,-47.902814568999986],[-65.81334515999998,-47.90449922799996],[-65.81645749499995,-47.90364262199995],[-65.82098322999997,-47.90457061099994],[-65.82155429999995,-47.90424224599997],[-65.82098322999997,-47.90302872099994],[-65.82321040499994,-47.90365689799995],[-65.82735066699996,-47.901501106999945],[-65.82799312199995,-47.90083009899996],[-65.82759337199997,-47.89927393099998],[-65.82943507499994,-47.89981644799997],[-65.83099124299997,-47.899145439999984],[-65.83176218799997,-47.89844587899995],[-65.83139099199997,-47.89781770099995],[-65.83249030299999,-47.89758927299994],[-65.83164797399996,-47.89723235399998],[-65.83137671499998,-47.89556197199994],[-65.83390370299998,-47.89402008099995],[-65.83781553699998,-47.89383448299998],[-65.84022830999999,-47.895033731999945],[-65.84379750199997,-47.89416284899994],[-65.85035053699994,-47.88374080999995],[-65.85386262199995,-47.87631689099993],[-65.85818848199995,-47.87277625399997],[-65.86111521899994,-47.86620894099997],[-65.86128653999998,-47.85919904899998],[-65.86445598199998,-47.84999053499996],[-65.86341377799994,-47.839625602999945],[-65.86686875599997,-47.825591541999984],[-65.86813938799997,-47.821908135999934],[-65.87417845999994,-47.81302798799993],[-65.87579173399996,-47.809158983999964],[-65.87564896699996,-47.80568972999998],[-65.87413562899997,-47.80383374999997],[-65.87092335699998,-47.80216336899997],[-65.87020951899996,-47.80323412599995],[-65.87209405199997,-47.80401934799994],[-65.87040939399998,-47.80510438299996],[-65.86792523599996,-47.80383374999997],[-65.86658321999994,-47.80407645499997],[-65.86595504299999,-47.80334833999996],[-65.86692586299995,-47.802991420999945],[-65.86504132999994,-47.80107833399995],[-65.86668315799994,-47.800964119999946],[-65.86632623799994,-47.80023600499993],[-65.86825360199998,-47.79976487199997],[-65.87395003199998,-47.802506010999934],[-65.87908966699996,-47.79922235499998],[-65.88084570999996,-47.796424108999986],[-65.88085998599996,-47.794810833999975],[-65.87583456499993,-47.793054791999964],[-65.88093136999998,-47.79349737199993],[-65.88392949099995,-47.78870037799993],[-65.88579974699996,-47.780419853999945],[-65.88490031099997,-47.77622248499995],[-65.87987488899995,-47.77558002999996],[-65.88001765699994,-47.774238013999934],[-65.88477181999997,-47.77265329299996],[-65.88635654099994,-47.77044039499998],[-65.88852660999999,-47.77042611799993],[-65.89826336399994,-47.76708535499995],[-65.89767801699998,-47.76565767799997],[-65.89505109199996,-47.763716037999984],[-65.89111070399997,-47.764329938999936],[-65.88901201999994,-47.76652856099997],[-65.88808402999996,-47.765629123999986],[-65.88701327199993,-47.76618591799996],[-65.88599962199999,-47.76550063399998],[-65.88404370499995,-47.76638579299998],[-65.87858997999996,-47.765100883999935],[-65.87781903499996,-47.76588610599998],[-65.87781903499996,-47.76488673299997],[-65.87679110799996,-47.765443525999956],[-65.87365021899996,-47.76501522299998],[-65.87803318699997,-47.76441559899996],[-65.88085998599996,-47.76268811099993],[-65.88317282199995,-47.76284515499998],[-65.88384382999993,-47.76400157299997],[-65.88742729899997,-47.76484390199994],[-65.89549367099994,-47.76271666399998],[-65.90380859399994,-47.763610839999956],[-65.90777587899998,-47.76202392599998],[-65.91040039099994,-47.76190185499996],[-65.91790771499996,-47.76300048799993],[-65.91967773399995,-47.76440429699994],[-65.94030761699997,-47.76690673799993],[-65.94360351599994,-47.766113280999946],[-65.94628906299994,-47.76428222699997],[-65.94921874999994,-47.76049804699994],[-65.95178222699997,-47.75897216799996],[-65.95727539099994,-47.75897216799996],[-65.96337890599995,-47.76318359399994],[-65.97808837899998,-47.76269531299994],[-65.98059081999997,-47.763793944999975],[-65.98181152299998,-47.76617431599993],[-65.98510742199994,-47.76690673799993],[-65.98779296899994,-47.76928710899995],[-66.00097656299994,-47.77368164099994],[-66.00518798799993,-47.77398681599993],[-66.00598144499997,-47.77508544899996],[-66.01177978499999,-47.77539062499994],[-66.01910400399998,-47.77880859399994],[-66.01898193399995,-47.78002929699994],[-66.02337646499996,-47.78027343799994],[-66.02471923799993,-47.77899169899996],[-66.02691650399998,-47.77880859399994],[-66.03167724599996,-47.781188964999956],[-66.03338622999996,-47.78302001999998],[-66.03356933599997,-47.78479003899997],[-66.03619384799998,-47.786376952999944],[-66.04010009799998,-47.786682128999985],[-66.04077148399995,-47.787780761999954],[-66.04290771499996,-47.78857421899994],[-66.04669189499998,-47.789001464999956],[-66.05242919899996,-47.79217529299996],[-66.05230721899994,-47.79382335499997],[-66.05609130899995,-47.796997069999975],[-66.06127929699994,-47.79888915999993],[-66.08270263699995,-47.81097412099996],[-66.08819580099998,-47.812988280999946],[-66.10382080099998,-47.81488037099996],[-66.10870361299993,-47.81390380899995],[-66.11138915999999,-47.81518554699994],[-66.11560058599997,-47.81451415999993],[-66.12219238299997,-47.81817626999998],[-66.12792968799994,-47.81890869099993],[-66.13378906299994,-47.815979003999985],[-66.13781738299997,-47.81610107399996],[-66.14770507799994,-47.82092285199997],[-66.15588378899997,-47.82128906299994],[-66.17932128899997,-47.828125],[-66.18609619099993,-47.82849121099997],[-66.19018554699994,-47.82952880899995],[-66.19488525399998,-47.831604003999985],[-66.20269775399998,-47.83740234399994],[-66.23242187499994,-47.84680175799997],[-66.23760986299993,-47.848999022999976],[-66.24237060499996,-47.85211181599993],[-66.25030517599998,-47.85449218799994],[-66.25408935499996,-47.85711669899996],[-66.25531005899995,-47.85906982399996],[-66.25842285199997,-47.86010742199994],[-66.26110839799998,-47.86230468799994],[-66.26702880899995,-47.86401367199994],[-66.28198242199994,-47.87139892599998],[-66.28179931599993,-47.86877441399997],[-66.26977539099994,-47.861999511999954],[-66.26489257799994,-47.86077880899995],[-66.26110839799998,-47.85870361299993],[-66.25878906299994,-47.85729980499997],[-66.25457763699995,-47.852783202999944],[-66.23651122999996,-47.843322753999985],[-66.22778320299994,-47.83959960899995],[-66.20642089799998,-47.82592773399995],[-66.19500732399996,-47.82000732399996],[-66.18859863299997,-47.819580077999944],[-66.18402099599996,-47.81787109399994],[-66.17919921899994,-47.81781005899995],[-66.17681884799998,-47.81542968799994],[-66.17181396499996,-47.81311035199997],[-66.16522216799996,-47.81231689499998],[-66.15039062499994,-47.80700683599997],[-66.13897705099998,-47.809082030999946],[-66.13018798799993,-47.809082030999946],[-66.12341308599997,-47.807983397999976],[-66.11328124999994,-47.801574706999986],[-66.11151122999996,-47.79901122999996],[-66.10528564499998,-47.79901122999996],[-66.09277343799994,-47.790588378999985],[-66.09057617199994,-47.787902831999986],[-66.08398437499994,-47.784729003999985],[-66.08312988299997,-47.78149414099994],[-66.07958984399994,-47.779785155999946],[-66.07031249999994,-47.77752685499996],[-66.06060790999999,-47.76672363299997],[-66.05718994099993,-47.766296386999954],[-66.05187988299997,-47.75567626999998],[-66.04608154299996,-47.75097656299994],[-66.03442382799994,-47.744079589999956],[-66.02648925799997,-47.743408202999944],[-66.02227783199999,-47.74169921899994],[-66.01739501999998,-47.741088866999974],[-66.01470947299998,-47.74121093799994],[-66.00921630899995,-47.74468994099993],[-66.00231933599997,-47.743713378999985],[-66.00360107399996,-47.74188232399996],[-66.00292968799994,-47.739501952999944],[-66.00531005899995,-47.73760986299993],[-66.00671386699997,-47.73492431599993],[-66.00671386699997,-47.73187255899995],[-66.00531005899995,-47.73077392599998],[-66.00097656299994,-47.73297119099993],[-66.00207519499997,-47.734497069999975],[-66.00099357299996,-47.737323498999956],[-66.00207519499997,-47.73791503899997],[-66.00250244099993,-47.73937988299997],[-66.00079345699999,-47.74127197299998],[-66.00079345699999,-47.74261474599996],[-66.00189208999996,-47.74389648399995],[-66.00140380899995,-47.74530029299996],[-65.99279785199997,-47.74359130899995],[-65.98968505899995,-47.74420165999993],[-65.98468017599998,-47.74182128899997],[-65.98272705099998,-47.74182128899997],[-65.97790527299998,-47.74401855499997],[-65.97241210899995,-47.742675780999946],[-65.97418212899998,-47.74511718799994],[-65.96520996099997,-47.74682617199994],[-65.96099853499999,-47.74682617199994],[-65.95880126999998,-47.74591064499998],[-65.95800781299994,-47.74450683599997],[-65.93511962899998,-47.75030517599998],[-65.92492675799997,-47.75140380899995],[-65.91809081999997,-47.751220702999944],[-65.90667724599996,-47.75561523399995],[-65.90332031299994,-47.75567626999998],[-65.90069580099998,-47.757080077999944],[-65.89959716799996,-47.75872802699996],[-65.89693354299993,-47.75749216099996],[-65.89201995599996,-47.75730180399995],[-65.88474118499994,-47.75539585599995],[-65.88354193599997,-47.75580988199994],[-65.87818814899998,-47.75268326999998],[-65.87723160599995,-47.75284031499996],[-65.87701745399994,-47.75171244999996],[-65.87146379199999,-47.75304018899993],[-65.86683811999995,-47.751840940999955],[-65.86298339299998,-47.752040815999976],[-65.86164137699996,-47.751069995999956],[-65.85593067099995,-47.751398360999985],[-65.85190462299994,-47.74951382799998],[-65.85180468499993,-47.74878571299996],[-65.85311814799996,-47.74798621399998],[-65.85189034599995,-47.74641576999994],[-65.84727895099996,-47.74685834999997],[-65.84683637099994,-47.74564482499994],[-65.84468057899994,-47.74545922699997],[-65.84549435499997,-47.744930985999986],[-65.84335283999997,-47.74336054199995],[-65.84086868299994,-47.74341764899998],[-65.84089723599993,-47.74413148699995],[-65.84243912699998,-47.74427425499994],[-65.84212503799995,-47.74525935199995],[-65.84102572699999,-47.74543067299993],[-65.84209648399997,-47.74704394799994],[-65.83864150699998,-47.74681551899994],[-65.83939817599997,-47.74524507499996],[-65.83882710499995,-47.74189003499998],[-65.83956949699996,-47.741575945999955],[-65.84236774299995,-47.74290368599998],[-65.84513743599996,-47.74083355399995],[-65.84572278299999,-47.73776404999995],[-65.84489473099995,-47.734623160999945],[-65.84039754899999,-47.72624269999994],[-65.83237400699994,-47.71416455499997],[-65.82172353899995,-47.69102191799993],[-65.82028158599996,-47.68858059099995],[-65.81883963299998,-47.688052349999964],[-65.81769749099993,-47.68354089199994],[-65.81217238299996,-47.673532878999936],[-65.80337789499998,-47.66161177999993],[-65.79553994999998,-47.64629280999998],[-65.79401233599998,-47.64133877199998],[-65.79302723999996,-47.641010405999964],[-65.79269887399994,-47.63795517799997],[-65.78430413599995,-47.61636870799998],[-65.78000682899994,-47.60229181699998],[-65.77428184599995,-47.59158424199995],[-65.76687220399998,-47.58248994199994],[-65.76270338899997,-47.57085437799998],[-65.75874872399999,-47.562416808999956],[-65.75620745999998,-47.55400779399997],[-65.75507959499998,-47.545670162999954],[-65.74969725499994,-47.52761005399998],[-65.74697039199998,-47.52108557199995],[-65.73980345599995,-47.51023522899993],[-65.73857565399999,-47.49985602099997],[-65.73839005599996,-47.47714168599998],[-65.73153720799996,-47.45331376299998],[-65.72909588099998,-47.43196999799994],[-65.72642612599998,-47.419377889999964],[-65.72539819899998,-47.39951890899994],[-65.72606920699997,-47.38220119199997],[-65.72509838699995,-47.37533406699998],[-65.72110089199998,-47.36438378799994],[-65.72034422399997,-47.35207721499995],[-65.71845969099996,-47.345681223999975],[-65.71784578999996,-47.33216112699995],[-65.71844541399997,-47.328277845999935],[-65.72331379099995,-47.31717052199997],[-65.72589788599998,-47.306205965999936],[-65.73019519199994,-47.29524140999996],[-65.73470664999996,-47.27819495099993],[-65.73691954899994,-47.273497894999934],[-65.74307283499996,-47.26416088999997],[-65.74541422499993,-47.254909545999965],[-65.74582825099998,-47.24774260899994],[-65.75006845099995,-47.242745740999965],[-65.75459418499997,-47.234536600999945],[-65.75657865599999,-47.22991092799998],[-65.75772079699993,-47.222058706999974],[-65.75720683399999,-47.21888926499997],[-65.75527946999995,-47.214620511999954],[-65.75242411699998,-47.21120836499995],[-65.74858366699993,-47.20853860999995],[-65.74312994199994,-47.20743929899993],[-65.74174509599999,-47.20808175299993],[-65.74104553399997,-47.21110842699994],[-65.73719080799998,-47.21172232799995],[-65.73612004999995,-47.21018043799995],[-65.73676250499994,-47.208952635999935],[-65.73619143399998,-47.20818168999995],[-65.73840433299995,-47.20555476499993],[-65.73689099599994,-47.20222827899994],[-65.73556325599998,-47.20197129699994],[-65.73817590499993,-47.201200351999944],[-65.74160232799994,-47.20209978799994],[-65.74605667899993,-47.20084343299993],[-65.75510814899997,-47.19661750999995],[-65.76727195399997,-47.189536233999945],[-65.79733882299996,-47.169534484999986],[-65.80927419899996,-47.15735640299994],[-65.83156023099997,-47.14670593599993],[-65.84162535099995,-47.139381954999976],[-65.84789285099998,-47.13204369699997],[-65.85213305099995,-47.12156455099995],[-65.85254707699994,-47.11531132699997],[-65.85183323899997,-47.113141258999974],[-65.85094807899998,-47.11212760899997],[-65.84843536899996,-47.113626668999984],[-65.84737888799998,-47.11334113399994],[-65.84667932599996,-47.10912948799995],[-65.85054832999998,-47.10677382099993],[-65.85341795999994,-47.106202750999955],[-65.86179842199994,-47.10614564399998],[-65.86335458899998,-47.10688803499994],[-65.86475371199998,-47.10633124199995],[-65.86468232799996,-47.10417544999996],[-65.86656686099997,-47.101305819999936],[-65.86729497699997,-47.101291542999945],[-65.86730925299997,-47.100177954999936],[-65.86932227699998,-47.101006007999956],[-65.86892252799998,-47.09900726099994],[-65.87025026699996,-47.09855040399998],[-65.86620994199995,-47.09717983499996],[-65.86412553399998,-47.09755102999998],[-65.86763761899994,-47.09408177599994],[-65.86738063699994,-47.09209730599997],[-65.87270587099994,-47.09162617299995],[-65.87504725999997,-47.09271120699998],[-65.87560405399995,-47.094338757999935],[-65.87907330899998,-47.095495175999986],[-65.88301369599998,-47.09600913999998],[-65.88364187399998,-47.09503831999996],[-65.88983798999993,-47.09610907699994],[-65.89146554099995,-47.09729404899997],[-65.89459215299996,-47.09730832499997],[-65.90301544499994,-47.095466622999936],[-65.92101844699994,-47.08911346199994],[-65.92393090699994,-47.08624383199998],[-65.92548707499998,-47.086486536999985],[-65.92835670499994,-47.08525873499997],[-65.93096935299997,-47.08570131499994],[-65.93489546399996,-47.083973825999976],[-65.93676571999998,-47.08177520399994],[-65.93503823099996,-47.08067589299998],[-65.93612326599998,-47.07783481699994],[-65.94076321499995,-47.07804896799996],[-65.94050623299995,-47.076992486999984],[-65.93687993399993,-47.07500801699996],[-65.93845037799997,-47.07472248199997],[-65.94069183099998,-47.07218121699998],[-65.94230510499995,-47.07325197499995],[-65.94340441599996,-47.07265234999994],[-65.94548882399994,-47.07308065299998],[-65.94524611899993,-47.07222404699996],[-65.94677373299999,-47.07202417299993],[-65.94744474099997,-47.073166313999934],[-65.94467504799997,-47.07600738999997],[-65.94693077699998,-47.077106700999934],[-65.95218462699995,-47.077649218999966],[-65.95977379899995,-47.076266156999964],[-65.96095163199993,-47.073446495999974],[-65.96295037999994,-47.07223296999996],[-65.96469928399995,-47.07241142999993],[-65.96776878799994,-47.07469571299998],[-65.97290842399997,-47.073589262999974],[-65.97422902499994,-47.07216158699998],[-65.97294411599995,-47.06987730399993],[-65.97504993899997,-47.06909208199994],[-65.97847636299997,-47.06977022799998],[-65.98482952399996,-47.07426740999995],[-65.98689965499995,-47.07490986399995],[-65.99371681099996,-47.07369633899998],[-65.99692908299994,-47.07162620799994],[-66.00435300099997,-47.07180466699998],[-66.00777942499997,-47.07308957599997],[-66.01581010599995,-47.07373203099996],[-66.02983702899996,-47.07301819299994],[-66.04008060799998,-47.071376364999935],[-66.04853959199994,-47.07291111699993],[-66.06274497399994,-47.073268035999945],[-66.07530852799994,-47.07519539899994],[-66.08740808799996,-47.08094179799997],[-66.10218453999994,-47.08533190299994],[-66.11071490799998,-47.085260518999974],[-66.12270739199994,-47.08269070199998],[-66.14365854599998,-47.083690074999936],[-66.15725716499998,-47.08137010099995],[-66.16328909899994,-47.08219101499998],[-66.18227719799995,-47.08715219099997],[-66.19769610499998,-47.08740203399998],[-66.21568482999999,-47.08490359999996],[-66.24038363599993,-47.07919289399996],[-66.26321218499999,-47.078274421999936],[-66.28030147399994,-47.075005042999976],[-66.29563471999995,-47.07097899499996],[-66.30117410499997,-47.07333466099993],[-66.30568556399999,-47.07364874999996],[-66.33519563899995,-47.06953704099993],[-66.34471824199994,-47.06965125499994],[-66.35521166499996,-47.068180747999975],[-66.36456294699997,-47.06568231399996],[-66.38243745799997,-47.06352652299995],[-66.40408103499993,-47.05751600399998],[-66.41597358099995,-47.05754455799996],[-66.41975335499995,-47.05520911699995],[-66.42390789399997,-47.05415263599997],[-66.42773406699996,-47.05352445799997],[-66.43173156199998,-47.05415263599997],[-66.43330200599996,-47.05142577399994],[-66.43728522399994,-47.05185407699997],[-66.43832742799998,-47.05048350699997],[-66.44122561099994,-47.04994098999998],[-66.44223926099994,-47.048698910999974],[-66.44669361199993,-47.047314064999966],[-66.45061972299999,-47.04742827899997],[-66.45577363599995,-47.045358147999934],[-66.45850049799998,-47.04561512999993],[-66.46054207599997,-47.04719985099996],[-66.46204113599998,-47.04644318199996],[-66.46191264499998,-47.04495839899994],[-66.46666680799996,-47.04591494199997],[-66.46832291299995,-47.044630032999976],[-66.46992191099997,-47.044758523999974],[-66.46940794699998,-47.04401613199997],[-66.47033593699996,-47.043844810999985],[-66.47090700799998,-47.04188889399995],[-66.47182072099997,-47.042103044999976],[-66.47249172899996,-47.04403040899996],[-66.47349110199997,-47.04454437199996],[-66.47784551599995,-47.043016758999954],[-66.47904476399998,-47.040975180999965],[-66.48151464499995,-47.042374303999964],[-66.48415584699995,-47.04060398499996],[-66.48990938299994,-47.04043266399998],[-66.49210800499998,-47.04123216299996],[-66.49653380299998,-47.04071819899997],[-66.49777588099994,-47.03827687199998],[-66.50638477099994,-47.038448192999965],[-66.51275220899998,-47.037677247999966],[-66.51590737399994,-47.03819121199996],[-66.51693530099993,-47.037620140999934],[-66.51850574599996,-47.03817693499997],[-66.51826304099995,-47.03929052299998],[-66.52091851899996,-47.04060398499996],[-66.52814256299996,-47.04061826199995],[-66.52941319499996,-47.03906209399997],[-66.53502396399995,-47.03950467399994],[-66.53735107699998,-47.04120360899998],[-66.53933554699995,-47.04441588199995],[-66.54731625899996,-47.046671610999965],[-66.55052853199999,-47.04600060299998],[-66.55262721599996,-47.04699997599994],[-66.55542546299995,-47.04627186099998],[-66.55883760999996,-47.04879884899998],[-66.56604737699996,-47.04620047699996],[-66.56750360699994,-47.044729969999935],[-66.56801756999994,-47.042731222999976],[-66.57044461999993,-47.043330846999936],[-66.57200078799997,-47.04213159899996],[-66.57461343599994,-47.04487273799998],[-66.57962458099996,-47.04480135399996],[-66.58419314599996,-47.04304531199995],[-66.58375056599994,-47.04163191199996],[-66.58599201899995,-47.04103228799994],[-66.58786227499996,-47.039219138999954],[-66.59491499699993,-47.03807699699996],[-66.59687091399996,-47.039547503999984],[-66.59828431399995,-47.03887649599994],[-66.59842708199994,-47.03697768599994],[-66.60262445099994,-47.039704548999964],[-66.60596521399998,-47.03884794299995],[-66.61031962799996,-47.04277405299996],[-66.61611599499997,-47.045229656999936],[-66.62589557999996,-47.04627186099998],[-66.63050697499995,-47.04578645099997],[-66.64738211299994,-47.040347002999965],[-66.65200778499997,-47.03714900799997],[-66.65623370799995,-47.03195226499997],[-66.65916044499994,-47.03015339199993],[-66.67410821899995,-47.02996779399996],[-66.68227452899998,-47.03312295999996],[-66.68864196599998,-47.03405094899995],[-66.70121979699996,-47.03456491299994],[-66.71009994599996,-47.033094405999975],[-66.74313638199993,-47.02240110799994],[-66.75752736299995,-47.01676178599996],[-66.77672961299999,-47.00771031599993],[-66.79193436899993,-46.999144255999965],[-66.79454701699996,-46.99700274199995],[-66.79637444299993,-46.993776191999984],[-66.80719623199997,-46.983682518999956],[-66.81369215999996,-46.97871420399997],[-66.82291495099997,-46.97393148799995],[-66.82818307799994,-46.969034556999986],[-66.84221713899996,-46.960125854999944],[-66.85657956499995,-46.946848461999934],[-66.85726484999998,-46.944564179999986],[-66.85545170099994,-46.942608262999954],[-66.85480924599995,-46.937896929999965],[-66.85558019199993,-46.93548415699996],[-66.85729340399996,-46.93538421899996],[-66.85886384799994,-46.93278584799998],[-66.86264719099995,-46.932357544999945],[-66.86557392799995,-46.93388515899994],[-66.86794387099997,-46.93404220299993],[-66.87201274899996,-46.93374239099995],[-66.87748075099995,-46.931572322999955],[-66.88234912799999,-46.928103068999974],[-66.89058682199993,-46.91612486199995],[-66.89940986299996,-46.912013152999975],[-66.91164505199998,-46.89570908699994],[-66.92239545699994,-46.88700025899993],[-66.92497955099998,-46.87987615299994],[-66.93118994499997,-46.87487928499996],[-66.93428800299995,-46.87466513299995],[-66.93637241099998,-46.87262355599995],[-66.93698631199999,-46.87085323699995],[-66.93892795199997,-46.87011084499994],[-66.93881373799996,-46.867640964999964],[-66.93631530399995,-46.86465711999995],[-66.93818555999997,-46.860345536999944],[-66.94262563399997,-46.85820402199994],[-66.94608061199995,-46.85770433499994],[-66.94632331699995,-46.85550571299996],[-66.95070628399998,-46.850423184999954],[-66.95314761099996,-46.84959513199993],[-66.95092043499994,-46.846982483999966],[-66.95320471799994,-46.847282295999946],[-66.95466094799997,-46.84892412399995],[-66.95613145499993,-46.849181105999946],[-66.95644554399996,-46.84863858899996],[-66.95383289599994,-46.84544059299998],[-66.95610290099995,-46.84624009199996],[-66.96024316399996,-46.845997386999954],[-66.96315562399997,-46.84706814499998],[-66.96319845399995,-46.84883846399998],[-66.96653921699993,-46.850865763999934],[-66.97354910899998,-46.84906689199994],[-66.98245781099996,-46.84357033699996],[-66.98644102899993,-46.83911598599997],[-66.98618404699994,-46.83678887299993],[-66.98414246999994,-46.83571811599995],[-66.98270051599997,-46.83203470999996],[-66.98359995299995,-46.82982181099993],[-66.98494196899998,-46.828808160999984],[-67.00134597299996,-46.82495343399995],[-67.00208836499996,-46.822954686999935],[-67.00047508999995,-46.81938549499995],[-67.00215974899999,-46.81751523899993],[-67.00709950999993,-46.81761517599995],[-67.00841297199997,-46.81673001699994],[-67.01158241399997,-46.81673001699994],[-67.00995486299996,-46.817772220999984],[-67.01158241399997,-46.81815769299993],[-67.01627946999997,-46.815859133999936],[-67.02236137299997,-46.81455994799995],[-67.02510251199993,-46.81530233999996],[-67.02747245499995,-46.81485976099998],[-67.04828797999994,-46.796428455999944],[-67.04945867399994,-46.79363020899996],[-67.05375598099994,-46.78799088699998],[-67.06604827699994,-46.78102382499998],[-67.07561370999997,-46.77402820999998],[-67.08315184199995,-46.76698976399996],[-67.08579304399996,-46.76160742299993],[-67.08512203599997,-46.75993704199993],[-67.08232378999998,-46.75925175699996],[-67.08205253099999,-46.75673904599995],[-67.08576448999997,-46.754768851999984],[-67.07909724099994,-46.75548269099994],[-67.07938277599999,-46.75354104999997],[-67.08190976399999,-46.75294142599995],[-67.08176699599994,-46.75024311699997],[-67.08709222999994,-46.75085701799998],[-67.09216048199994,-46.75014317999995],[-67.09658627899995,-46.75101406299996],[-67.09976999799994,-46.74858701299996],[-67.09825666099994,-46.74521769599994],[-67.09976999799994,-46.74491788399996],[-67.10021257799997,-46.74286202899998],[-67.10283950299998,-46.74032076499998],[-67.10349623399998,-46.73810786599995],[-67.10001270299995,-46.74050636299995],[-67.09914181999994,-46.73729409099997],[-67.09981282799998,-46.73608056599994],[-67.09894194599997,-46.73558087899994],[-67.09807106299996,-46.73656597599995],[-67.09795684899996,-46.73862182999994],[-67.09602948499997,-46.73915006999994],[-67.09474457599998,-46.73680868099996],[-67.09554407499996,-46.735024084999964],[-67.09785691099995,-46.73395332699994],[-67.10004125699999,-46.73368206899994],[-67.10069798799998,-46.73436735399997],[-67.10161170099997,-46.733467916999984],[-67.10355334099995,-46.73345364099998],[-67.11000643899996,-46.73506691499995],[-67.10923549399996,-46.73375345299996],[-67.11249059699998,-46.731740428999956],[-67.11433229899995,-46.73191174999994],[-67.11481770899996,-46.73292539999994],[-67.11710199199996,-46.73184036599997],[-67.12515408799999,-46.723217198999976],[-67.12512553399995,-46.72207505799997],[-67.12292691199997,-46.72141832699998],[-67.12098527199998,-46.71772064399994],[-67.12114231699996,-46.71570761999993],[-67.11708771499997,-46.71366604299993],[-67.11824413299996,-46.71063936799993],[-67.11994306799994,-46.71029672599997],[-67.12162772699998,-46.70744137299994],[-67.12566198399998,-46.70732428399998],[-67.12853161399994,-46.70472591199996],[-67.13111570899997,-46.70525415199995],[-67.13348565199993,-46.70760981899997],[-67.13581276499997,-46.70512566199994],[-67.14556379599998,-46.70349810999994],[-67.14880462199994,-46.70224175499993],[-67.14937569199998,-46.701684960999955],[-67.14819072099993,-46.69972904399998],[-67.14956128999995,-46.69905803599994],[-67.14809078299999,-46.69778740399994],[-67.15011808399998,-46.698044385999935],[-67.15234525999995,-46.69667381599993],[-67.15498646099996,-46.69717350299993],[-67.15648552199997,-46.69664526299994],[-67.15460098899996,-46.696316896999974],[-67.15415840899993,-46.69517475599997],[-67.15268790199997,-46.694432363999965],[-67.14870468399994,-46.69351865099998],[-67.15050355699998,-46.69143424299995],[-67.15224532199994,-46.691705501999934],[-67.15218821499997,-46.690934555999945],[-67.15627136999996,-46.68786505099996],[-67.15919810699995,-46.687165489999984],[-67.16102553299999,-46.68847895199997],[-67.16533711699998,-46.68682284799996],[-67.16423780599996,-46.68846467599997],[-67.16609378499999,-46.68797926599996],[-67.16512296499997,-46.69039203899996],[-67.16607950899999,-46.69020644099993],[-67.16830668399996,-46.692333678999944],[-67.16964869999998,-46.69200531399997],[-67.17023369099996,-46.689828939999984],[-67.17255366499995,-46.68685461299998],[-67.17454646399995,-46.68608128799997],[-67.17853206099994,-46.686111031999985],[-67.18064383199999,-46.68509976099995],[-67.18442122699997,-46.688252546999934],[-67.18662222799998,-46.68581359899997],[-67.18733606699993,-46.682839272999956],[-67.19063756899993,-46.68159005599995],[-67.19141089399994,-46.68385054399994],[-67.18995347399994,-46.686973585999965],[-67.19084577199993,-46.68682486999995],[-67.19444470599996,-46.68275004299994],[-67.19426624699997,-46.67906187899996],[-67.19846004699997,-46.67718805299995],[-67.19825184399997,-46.67617678199997],[-67.20063130499994,-46.673618860999966],[-67.20446818599999,-46.67409475399995],[-67.20518202399995,-46.67347014499995],[-67.20464069699995,-46.67264923099998],[-67.20549730299996,-46.67214954399998],[-67.21444407599995,-46.671150170999965],[-67.21879848999998,-46.673267890999966],[-67.22058308499999,-46.67709882299994],[-67.23052447399994,-46.67400552399994],[-67.23794969099998,-46.667931858999964],[-67.24722958899997,-46.654273752999984],[-67.24969341099995,-46.64927816499994],[-67.25446314999994,-46.64623117399998],[-67.26226778199998,-46.64337582099995],[-67.27663972699997,-46.64194814499996],[-67.28391957899998,-46.637951930999975],[-67.29619889599996,-46.63471458299995],[-67.30357522499997,-46.63400074499998],[-67.31463247399995,-46.63120577199993],[-67.32823465999996,-46.62921454999997],[-67.35532244399997,-46.61884009999994],[-67.36704842799998,-46.61063571799997],[-67.37867923399995,-46.60553415399994],[-67.39318442799998,-46.595102596999936],[-67.40011341799993,-46.58762157199993],[-67.40462487599996,-46.578827083999954],[-67.42088265299998,-46.56813726399997],[-67.42918091399997,-46.56072414399995],[-67.44027871999998,-46.54854130399997],[-67.44543739199997,-46.54109834999997],[-67.45512655699997,-46.523966230999974],[-67.46112279899995,-46.517722524999954],[-67.46205554699998,-46.51326817399996],[-67.46639568399996,-46.50519704199996],[-67.47677013399993,-46.491929167999956],[-67.48215723399994,-46.48810299399997],[-67.48339455399997,-46.48618038999996],[-67.48368008899996,-46.481992538999975],[-67.48680194199994,-46.47751915199996],[-67.49232229099994,-46.472874443999956],[-67.49211289899995,-46.47230337299993],[-67.49393080699997,-46.47189410599998],[-67.49438290399996,-46.47112791999996],[-67.49295998699995,-46.464146580999966],[-67.49461133299997,-46.46024426499997],[-67.50796962699997,-46.44290751199998],[-67.51374695799996,-46.43822473299997],[-67.51431564899997,-46.43683988699996],[-67.51358753399995,-46.43506956799996],[-67.51547206699996,-46.43034395799998],[-67.52765014899995,-46.414482470999985],[-67.53787231299998,-46.397992805999934],[-67.54192691499998,-46.39482336399993],[-67.54274069099995,-46.38925542499993],[-67.56736811199994,-46.34906632899998],[-67.56831037799998,-46.34585405699994],[-67.57186529299997,-46.340414608999936],[-67.57233642599994,-46.33795900499996],[-67.57714769699999,-46.329535712999984],[-67.59045364299993,-46.298269594999965],[-67.59280930899996,-46.29515725999994],[-67.59296635299995,-46.29158806899994],[-67.59847718499998,-46.278424890999986],[-67.61366766399993,-46.23144005399996],[-67.62203384899993,-46.19636203899995],[-67.62771600199994,-46.15812885999998],[-67.62864399199998,-46.12530657499997],[-67.62760178799994,-46.11255742299994],[-67.62673090499999,-46.109602131999964],[-67.62737335999998,-46.105818788999954],[-67.62607417399994,-46.10083619799997],[-67.62715920799997,-46.09488278599997],[-67.62724486899998,-46.08363269499995],[-67.62497486299998,-46.07737947099997],[-67.62536033599997,-46.07463833199995],[-67.62470360399993,-46.072511093999935],[-67.62082032399996,-46.07068366799996],[-67.61493829599993,-46.065743906999955],[-67.61934385699993,-46.06503689999994],[-67.62380255999994,-46.060819048999974],[-67.62450161899994,-46.05679505499995],[-67.62305063199994,-46.05207200199993],[-67.62426076699995,-46.05144931099994],[-67.62401991499996,-46.048741192999955],[-67.61827470899993,-46.04605657199994],[-67.60879923099998,-46.044206121999935],[-67.60856425299994,-46.04491105499994],[-67.60670792899998,-46.04504029299994],[-67.60293066099996,-46.043324955999935],[-67.60076886599995,-46.04012925799998],[-67.60166178199995,-46.03520647399995],[-67.60018142199993,-46.03414319999996],[-67.59991707199998,-46.03236324299996],[-67.59684473799996,-46.02774005599997],[-67.59729706999997,-46.025689874999955],[-67.59380764999997,-46.02362794499993],[-67.58596526799994,-46.02227682299997],[-67.59093504699996,-46.020397000999935],[-67.59338468999994,-46.01838206699995],[-67.59353742599995,-46.014199462999954],[-67.59285011599997,-46.01261923799996],[-67.59425410799997,-46.00989936999997],[-67.59569251645668,-46],[-65.40559344654758,-46],[-65.56578679999996,-47.00332091299998],[-65.57162584899999,-47.02574657799994],[-65.57072753399996,-47.03588109699996],[-65.54782049399995,-47.047548749999976],[-65.51593030099997,-47.068421300999944],[-65.48987915799995,-47.09296671699997],[-65.48224347799999,-47.101861620999955],[-65.47505695599995,-47.11075502899996],[-65.46292969999996,-47.129150437999954],[-65.45798896599996,-47.13865222599998],[-65.45394654699999,-47.14815230499994],[-65.44810749699997,-47.16775996699994],[-65.44631086699997,-47.177867323999976],[-65.44541255199994,-47.191340787999934],[-65.44406507899998,-47.196851667999965],[-65.44316676299997,-47.20695345199994],[-65.44406507899998,-47.22745718199997],[-65.44631086699997,-47.240306198999974],[-65.43822602899996,-47.26538333999997],[-65.43418361099998,-47.27486060999996],[-65.42834456099996,-47.294421185999965],[-65.42609877299998,-47.30480978199995],[-65.42430214199999,-47.32435921499996],[-65.42430214199999,-47.350006802999985],[-65.42520045799995,-47.36007921199996],[-65.42744624599999,-47.368929124999966],[-65.42834456099996,-47.38601438599994],[-65.43014119199995,-47.396079877999966],[-65.43014119199995,-47.40675328699996],[-65.43148866499996,-47.41620505999998],[-65.43238697999993,-47.435103485999946],[-65.43642939899996,-47.45399508599996],[-65.43732771399993,-47.46831158899994],[-65.44137013299996,-47.48597335599993],[-65.44406507899998,-47.50210733399996],[-65.44406507899998,-47.51549779099997],[-65.44900581299999,-47.54591786599997],[-65.45619233499997,-47.56537739799995],[-65.46292969999996,-47.57875160799995],[-65.46607380299997,-47.595768359999965],[-65.47326032499996,-47.61520926199995],[-65.47820105899996,-47.62462333599996],[-65.47999768999995,-47.63130325599997],[-65.48404010899998,-47.641321526999945],[-65.49392157699998,-47.66044194999995],[-65.49886231099998,-47.667724067999984],[-65.50380304499998,-47.679251997999984],[-65.50200641499998,-47.687138052999956],[-65.49976062599995,-47.70745428199996],[-65.49976062599995,-47.71745785599995],[-65.50290472999995,-47.73745920799996],[-65.50515051799994,-47.747759917999986],[-65.50874377899999,-47.75896718599995],[-65.50290472999995,-47.76229860799998],[-65.48224347799999,-47.77713597099995],[-65.46427717299997,-47.79257441799996],[-65.44810749699997,-47.81012626099994],[-65.43418361099998,-47.82827706299997],[-65.42924287599993,-47.83674525199996],[-65.41936140799999,-47.85639818899995],[-65.41127657099997,-47.88571248699998],[-65.40947993999998,-47.90595076699998],[-65.40947993999998,-47.91591594899995],[-65.41037825599994,-47.925879201999976],[-65.41442067399998,-47.946101684999974],[-65.41711561999995,-47.95605908799996],[-65.42609877299998,-47.975364913999954],[-65.43148866499996,-47.98471356399995],[-65.442044388499,-48],[-65.93568517346192,-48]]],[[[-66.16945648199999,-47.81887435899995],[-66.16323852499994,-47.81754302999997],[-66.16207885699998,-47.81664276099997],[-66.16803741499996,-47.81461334199997],[-66.17213439899996,-47.81578826899994],[-66.17700958299997,-47.818504332999964],[-66.17226409899996,-47.819660186999954],[-66.16945648199999,-47.81887435899995]]],[[[-66.15526580799997,-47.81534194899996],[-66.15116882299998,-47.814559936999956],[-66.14424896199995,-47.810462951999966],[-66.14571380599995,-47.80955123899997],[-66.15056610099998,-47.80919265699998],[-66.16030120799996,-47.813354491999974],[-66.15972137499995,-47.815650939999955],[-66.15737914999994,-47.816287993999936],[-66.15526580799997,-47.81534194899996]]],[[[-66.06521606399997,-47.78159332299998],[-66.06477355999994,-47.777431487999934],[-66.06587219199997,-47.776245116999974],[-66.06967163099995,-47.77899551399997],[-66.07769012499995,-47.78098678599997],[-66.08006286599993,-47.782878875999984],[-66.07325744599996,-47.78374099699994],[-66.07248687699996,-47.78342437699996],[-66.07289886499996,-47.78233337399996],[-66.07204437299998,-47.78166198699995],[-66.06936645499997,-47.78286743199993],[-66.06521606399997,-47.78159332299998]]],[[[-65.93426513699995,-47.76215743999995],[-65.93379974399994,-47.760986327999944],[-65.93443298299997,-47.75994110099998],[-65.94090270999993,-47.75812148999995],[-65.94622039799998,-47.758964538999976],[-65.94772338899998,-47.75995635999993],[-65.94608306899994,-47.76200485199996],[-65.93988037099996,-47.763267516999974],[-65.93854522699996,-47.76587295499996],[-65.93671417199994,-47.76562881499996],[-65.93426513699995,-47.76215743999995]]],[[[-65.99021148699995,-47.76167678799993],[-65.99181365999993,-47.76020431499995],[-66.00009155299995,-47.761123656999985],[-66.00019836399997,-47.761714934999986],[-66.00559234599996,-47.76119613599997],[-66.00999450699999,-47.76305007899998],[-66.01417541499995,-47.76312255899995],[-66.01593780499996,-47.76609420799997],[-66.01902008099995,-47.767204284999934],[-66.02056121799995,-47.766464232999965],[-66.02837371799995,-47.76639175399998],[-66.03310394299996,-47.76764678999996],[-66.03894042999997,-47.76757049599996],[-66.03960418699995,-47.768314361999956],[-66.03894042999997,-47.769798278999986],[-66.04554748499999,-47.77128219599996],[-66.05200958299997,-47.776733397999976],[-66.05094909699994,-47.78293609599996],[-66.05304717999996,-47.785682677999944],[-66.05480956999997,-47.78642272899998],[-66.05184173599997,-47.78797531099997],[-66.04644012499995,-47.788204192999956],[-66.04556274399994,-47.78620147699996],[-66.04159545899995,-47.786052703999985],[-66.03972625699998,-47.78412628199993],[-66.03685760499997,-47.782863616999975],[-66.03663635299995,-47.78160095199996],[-66.02771758999995,-47.777969359999986],[-66.02725982699997,-47.77698516799995],[-66.03047180199997,-47.77685546899994],[-66.03014373799994,-47.775814055999945],[-66.02210235599995,-47.77225494399994],[-66.02232360799997,-47.773590087999935],[-66.01296997099996,-47.77270126299993],[-66.00834655799997,-47.77381133999995],[-66.00713348399995,-47.773368834999985],[-66.00779724099993,-47.77232742299998],[-66.00493621799995,-47.769508361999954],[-66.00603485099998,-47.76765060399998],[-66.00437927199994,-47.76698684699994],[-66.00273132299998,-47.76832199099994],[-66.00262451199995,-47.76943206799996],[-66.00570678699995,-47.77181243899997],[-66.00305938699995,-47.772109984999986],[-65.99194335899995,-47.76490402199994],[-65.98995971699998,-47.76557540899995],[-65.99021148699995,-47.76167678799993]]],[[[-66.05680084199997,-47.77422332799995],[-66.05293273899997,-47.77035903899997],[-66.05245971699998,-47.768463134999934],[-66.06007385299995,-47.773391723999964],[-66.05914306599993,-47.77501296999998],[-66.05680084199997,-47.77422332799995]]],[[[-65.96763610799997,-47.75248718299997],[-65.96889495799996,-47.751411437999934],[-65.97029876699997,-47.75391387899998],[-65.96994781499995,-47.755058288999976],[-65.96507263199999,-47.75435256999998],[-65.96371459999995,-47.75300979599996],[-65.96540832499994,-47.75197601299993],[-65.96763610799997,-47.75248718299997]]],[[[-65.76600679499995,-47.950622247999945],[-65.76293182399996,-47.953392028999986],[-65.76081085199996,-47.953948974999946],[-65.76255798299997,-47.95109939599996],[-65.76405070899995,-47.95216971299993],[-65.76600679499995,-47.950622247999945]]],[[[-65.87007141099997,-47.95970916699997],[-65.87003326399997,-47.95816802999997],[-65.87196350099998,-47.95942687999997],[-65.87147521999998,-47.95967102099996],[-65.87007141099997,-47.95970916699997]]],[[[-65.86453247099996,-47.96060943599997],[-65.86322784399994,-47.95946121199995],[-65.86221313499993,-47.95659637499995],[-65.86421966599994,-47.95711135899995],[-65.86628723099994,-47.95895385699998],[-65.86603546099997,-47.96012878399995],[-65.86453247099996,-47.96060943599997]]],[[[-65.87012481699998,-47.95606613199993],[-65.86816406299994,-47.95476531999998],[-65.87097167999997,-47.95470809899996],[-65.87012481699998,-47.95606613199993]]],[[[-65.87065887499995,-47.950122832999966],[-65.87039947499994,-47.948688506999986],[-65.87251281699997,-47.948856353999986],[-65.87226867699997,-47.95005416899994],[-65.87065887499995,-47.950122832999966]]],[[[-65.71680450399998,-47.90525054899996],[-65.71929168699995,-47.90670394899996],[-65.71899414099994,-47.90925979599996],[-65.71955871599994,-47.909793853999986],[-65.72588348399995,-47.91121292099996],[-65.72584533699995,-47.911968230999946],[-65.72311401399998,-47.91255569499998],[-65.71884155299995,-47.91540908799993],[-65.71551513699995,-47.91379928599997],[-65.71069335899995,-47.91437911999998],[-65.71386718799994,-47.91054153399995],[-65.71336364699994,-47.90747451799996],[-65.71680450399998,-47.90525054899996]]],[[[-65.73703765899995,-47.91472244299996],[-65.73927307099996,-47.91528701799996],[-65.74220275899995,-47.92064666699997],[-65.74166107199994,-47.92166519199998],[-65.73825073199998,-47.91899490399993],[-65.73613738999995,-47.91612625099998],[-65.73703765899995,-47.91472244299996]]],[[[-65.75888061499995,-47.91273117099996],[-65.76081085199996,-47.91367340099998],[-65.75557708699995,-47.91423034699994],[-65.75611877399996,-47.913051604999964],[-65.75888061499995,-47.91273117099996]]]]}}]}