{"type":"FeatureCollection","name":"area_centolla_S3","crs":{"type":"name","properties":{"name":"urn:ogc:def:crs:OGC:1.3:CRS84"}},"features":[{"type":"Feature","properties":{"FID":0},"geometry":{"type":"MultiPolygon","coordinates":[[[[-68.52729433580849,-52.54],[-68.43259588699993,-52.39768965999997],[-68.42242678299993,-52.39291256399997],[-68.41092208899994,-52.385060342999964],[-68.40611557799997,-52.38068213499997],[-68.39320700199994,-52.364537491999954],[-68.38252322199997,-52.35454375499995],[-68.37191082599998,-52.34664394499998],[-68.35473111799996,-52.33638846799994],[-68.35166161299998,-52.329297673999974],[-68.35200663499995,-52.32351558399995],[-68.35677745399994,-52.31738847199995],[-68.36961464599995,-52.30628828599998],[-68.38841238799995,-52.286229429999935],[-68.42149879299996,-52.25367840299998],[-68.49749877799997,-52.18630396499998],[-68.51467848599998,-52.16927892099994],[-68.55296609599998,-52.137657272999945],[-68.57815269099996,-52.11374368999998],[-68.60827679299996,-52.082691444999966],[-68.62780966199995,-52.06375478299998],[-68.64579838799995,-52.04367213199998],[-68.66956920299998,-52.02126950699994],[-68.69529117699994,-51.99559512299999],[-68.70844959599998,-51.98124697299994],[-68.75639573499996,-51.921213171999966],[-68.76761489399996,-51.904485560999944],[-68.78435440199996,-51.875943925999934],[-68.80725671399995,-51.84385689399994],[-68.82471006099996,-51.81580304899995],[-68.85210955399998,-51.77587569299993],[-68.87151405899994,-51.750915146999944],[-68.89194173099997,-51.72766781299998],[-68.89755725899994,-51.72048184099998],[-68.89761674599998,-51.719363493999936],[-68.92261298399995,-51.689370387999986],[-68.93314209899995,-51.67239293399996],[-68.94075637399999,-51.652108028999976],[-68.94841823799999,-51.642471211999975],[-68.95268937099996,-51.63373858999995],[-68.95700333399998,-51.627102272999934],[-68.97523476399994,-51.61586645799997],[-68.98180207599995,-51.613096765999956],[-68.98804102299994,-51.61141210699998],[-69.01361071099996,-51.60715763099995],[-69.01386842099998,-51.60633913999993],[-69.01507568399995,-51.60839843799994],[-69.01739501999998,-51.60980224599996],[-69.01928710899995,-51.60998535199997],[-69.02520751999998,-51.61291503899997],[-69.03790283199999,-51.61541747999996],[-69.04949951199995,-51.619079589999956],[-69.05157470699999,-51.62091064499998],[-69.05700683599997,-51.62341308599997],[-69.06451415999999,-51.62561035199997],[-69.06518554699994,-51.62670898399995],[-69.06750488299997,-51.62731933599997],[-69.08032226599994,-51.63500976599994],[-69.09460449199997,-51.64050292999997],[-69.09930419899996,-51.64038085899995],[-69.10229492199994,-51.64160156299994],[-69.10339355499997,-51.64367675799997],[-69.11230468799994,-51.64678955099998],[-69.10949706999997,-51.65039062499994],[-69.11029052699996,-51.65222167999997],[-69.11730956999997,-51.655090331999986],[-69.11560058599997,-51.65338134799998],[-69.11499023399995,-51.651184081999986],[-69.11639404299996,-51.64941406299994],[-69.12048339799998,-51.64678955099998],[-69.11700439499998,-51.64428710899995],[-69.11621093799994,-51.64221191399997],[-69.12371826199995,-51.642700194999975],[-69.12408447299998,-51.64178466799996],[-69.11828613299997,-51.641113280999946],[-69.11669921899994,-51.64038085899995],[-69.11718749999994,-51.63970947299998],[-69.11621093799994,-51.63909912099996],[-69.11151122999996,-51.638610839999956],[-69.10430908199999,-51.63549804699994],[-69.10339355499997,-51.63427734399994],[-69.11230468799994,-51.632080077999944],[-69.11682128899997,-51.62988281299994],[-69.12670898399995,-51.63317871099997],[-69.13098144499997,-51.633605956999986],[-69.13671874999994,-51.633605956999986],[-69.14349365199996,-51.63232421899994],[-69.15148925799997,-51.629028319999975],[-69.16900634799998,-51.62377929699994],[-69.17242431599993,-51.62341308599997],[-69.17437744099993,-51.621887206999986],[-69.18890380899995,-51.61889648399995],[-69.19689941399997,-51.61621093799994],[-69.20501708999996,-51.61499023399995],[-69.23748779299996,-51.60498046899994],[-69.24969482399996,-51.600402831999986],[-69.26861572299998,-51.59979247999996],[-69.28851318399995,-51.59539794899996],[-69.30010986299999,-51.59381103499993],[-69.32177734399994,-51.58709716799996],[-69.33520507799994,-51.585510253999985],[-69.34600830099998,-51.585876464999956],[-69.39080810499996,-51.59210205099998],[-69.45422363299997,-51.606811522999976],[-69.46722412099996,-51.60357665999993],[-69.49078369099993,-51.60131835899995],[-69.50018310499996,-51.60198974599996],[-69.51672363299997,-51.60510253899997],[-69.52362060499996,-51.608276366999974],[-69.52850341799996,-51.61621093799994],[-69.55102539099994,-51.616027831999986],[-69.55517578099995,-51.61749267599998],[-69.56170654299996,-51.61828613299997],[-69.57208251999998,-51.617309569999975],[-69.57580566399997,-51.619812011999954],[-69.58081054699994,-51.618408202999944],[-69.58868408199999,-51.619079589999956],[-69.59942626999998,-51.622985839999956],[-69.60540771499996,-51.62310790999993],[-69.61450195299994,-51.627075194999975],[-69.61779785199997,-51.626892089999956],[-69.60968017599998,-51.62237548799993],[-69.60137939499998,-51.62078857399996],[-69.59478759799998,-51.61749267599998],[-69.58850097699997,-51.61688232399996],[-69.58538818399995,-51.61547851599994],[-69.58099365199996,-51.61560058599997],[-69.56378173799999,-51.60968017599998],[-69.55920410199997,-51.60992431599993],[-69.55371093799994,-51.60870361299993],[-69.546875,-51.60302734399994],[-69.54022216799996,-51.602783202999944],[-69.53277587899998,-51.59869384799998],[-69.52972412099996,-51.59881591799996],[-69.52758789099994,-51.59991455099998],[-69.52410888699995,-51.598999022999976],[-69.51770019499997,-51.593017577999944],[-69.50939941399997,-51.58972167999997],[-69.50360107399996,-51.58959960899995],[-69.50048828099995,-51.588684081999986],[-69.49920654299996,-51.58709716799996],[-69.49481201199995,-51.58508300799997],[-69.48468017599998,-51.58459472699997],[-69.47979736299999,-51.58331298799993],[-69.47430419899996,-51.58068847699997],[-69.46600341799996,-51.57958984399994],[-69.45812988299997,-51.57678222699997],[-69.44812011699997,-51.57647705099998],[-69.44549560499996,-51.57421874999994],[-69.44250488299997,-51.57281494099993],[-69.44091796899994,-51.57330322299998],[-69.43780517599998,-51.57128906299994],[-69.42401122999996,-51.57092285199997],[-69.40991210899995,-51.565795897999976],[-69.39691162099996,-51.55950927699996],[-69.39251708999996,-51.55889892599998],[-69.39050292999997,-51.55767822299998],[-69.38092040999999,-51.55651855499997],[-69.37408447299998,-51.55670165999993],[-69.36340331999997,-51.55468749999994],[-69.35601806599993,-51.55432128899997],[-69.35290527299998,-51.55297851599994],[-69.34411621099997,-51.551574706999986],[-69.31872558599997,-51.55291747999996],[-69.30670165999999,-51.557312011999954],[-69.29632568399995,-51.55877685499996],[-69.28918456999997,-51.55877685499996],[-69.25238037099996,-51.570800780999946],[-69.24157714799998,-51.578979491999974],[-69.23229980499997,-51.581298827999944],[-69.22241210899995,-51.582702636999954],[-69.19812011699997,-51.59020996099997],[-69.15460205099998,-51.60137939499998],[-69.13470458999996,-51.60321044899996],[-69.12609863299997,-51.60260009799998],[-69.12170410199997,-51.60070800799997],[-69.11248779299996,-51.59942626999998],[-69.11010742199994,-51.59808349599996],[-69.10180664099994,-51.59631347699997],[-69.08990478499999,-51.59100341799996],[-69.08129882799994,-51.58349609399994],[-69.07598876999998,-51.577392577999944],[-69.06689453099995,-51.57092285199997],[-69.05999755899995,-51.567199706999986],[-69.05072021499996,-51.564025878999985],[-69.03729247999996,-51.56072997999996],[-69.01269531299994,-51.55841064499998],[-69.00921630899995,-51.559387206999986],[-69.00451660199997,-51.559082030999946],[-69.00128173799999,-51.55987548799993],[-68.99499511699997,-51.56280517599998],[-68.98870849599996,-51.56878662099996],[-68.98809814499998,-51.57049560499996],[-68.98248290999999,-51.577026366999974],[-68.98138722399995,-51.58186791799994],[-68.97927095999995,-51.58242888999996],[-68.96946758099995,-51.579371281999954],[-68.95853395799998,-51.571994952999944],[-68.95316827299996,-51.56212018999997],[-68.94793345899996,-51.55693296499993],[-68.94637491199995,-51.55430366099995],[-68.94682700999994,-51.54659420699994],[-68.95183577499995,-51.534708798999986],[-68.95290653199999,-51.52801061599996],[-68.95796288699995,-51.52012270299997],[-68.95906933599997,-51.515958645999945],[-68.96380446399996,-51.506214753999984],[-68.99363751099997,-51.45596236099993],[-68.99773494299995,-51.44719642699994],[-69.00230350799995,-51.43222009999994],[-69.00857100899998,-51.418457296999975],[-69.01091239799996,-51.409905513999945],[-69.01608058799997,-51.39854120799998],[-69.02070625999994,-51.38437865699996],[-69.02513205699995,-51.37407083199997],[-69.03227043999993,-51.348858062999966],[-69.04807481999995,-51.313323191999984],[-69.05260055499997,-51.29808988299993],[-69.06964701399994,-51.253303667999944],[-69.07204550999995,-51.24320999399998],[-69.07875558999996,-51.22425044899995],[-69.08869221999998,-51.202478380999935],[-69.09513104099995,-51.193655338999974],[-69.10131288099996,-51.18273361299998],[-69.10857975499994,-51.16698633999994],[-69.11853066099997,-51.14026023399998],[-69.12405576899994,-51.11848816599996],[-69.13687677699994,-51.07891045699995],[-69.13874703299996,-51.070944020999946],[-69.14023181699997,-51.057024173999935],[-69.14685623599996,-51.04149105299996],[-69.15153901599996,-51.02380213999999],[-69.15580776899998,-50.99697609599997],[-69.15950385299993,-50.988754778999976],[-69.16612827199998,-50.98088828099998],[-69.17181042499993,-50.977019276999954],[-69.17586502599994,-50.97552021699994],[-69.18180416099995,-50.975334618999966],[-69.18600152999994,-50.97634826899997],[-69.19710885399996,-50.97409253999996],[-69.20550537099996,-50.975280761999954],[-69.20397949199997,-50.97680664099994],[-69.20391845699999,-50.98028564499998],[-69.20788574199997,-50.98480224599996],[-69.21990966799996,-50.98919677699996],[-69.23101806599993,-50.99468994099993],[-69.24249267599998,-50.99859619099993],[-69.26489257799994,-51.01019287099996],[-69.27050781299994,-51.01147460899995],[-69.27740478499999,-51.01428222699997],[-69.28387451199995,-51.01550292999997],[-69.29760742199994,-51.02221679699994],[-69.30798339799998,-51.03039550799997],[-69.31170654299996,-51.03552246099997],[-69.32598876999998,-51.04339599599996],[-69.33477783199999,-51.04669189499998],[-69.34088134799998,-51.052307128999985],[-69.35668945299994,-51.05999755899995],[-69.37451171899994,-51.07067871099997],[-69.37969970699999,-51.076110839999956],[-69.38269042999997,-51.082702636999954],[-69.39349365199996,-51.08648681599993],[-69.40551757799994,-51.09771728499993],[-69.40972900399998,-51.100097655999946],[-69.41418456999997,-51.10119628899997],[-69.42041015599995,-51.100097655999946],[-69.42510986299999,-51.100402831999986],[-69.42681884799998,-51.10180664099994],[-69.42401122999996,-51.10260009799998],[-69.42279052699996,-51.10449218799994],[-69.42779540999999,-51.106689452999944],[-69.43048095699999,-51.10571289099994],[-69.43450927699996,-51.10717773399995],[-69.43298339799998,-51.112182616999974],[-69.43432617199994,-51.11370849599996],[-69.43811035199997,-51.11529540999993],[-69.44232177699996,-51.114501952999944],[-69.44329833999996,-51.11279296899994],[-69.44281005899995,-51.11138915999993],[-69.44012451199995,-51.111816405999946],[-69.43859863299997,-51.11029052699996],[-69.44030761699997,-51.10900878899997],[-69.44989013699995,-51.109497069999975],[-69.45849609399994,-51.11437988299997],[-69.46441650399998,-51.11437988299997],[-69.46490478499999,-51.11260986299993],[-69.45819091799996,-51.11260986299993],[-69.45520019499997,-51.10858154299996],[-69.45690917999997,-51.102783202999944],[-69.44940185499996,-51.09741210899995],[-69.44897460899995,-51.09539794899996],[-69.44750976599994,-51.09411621099997],[-69.44299316399997,-51.09289550799997],[-69.44317626999998,-51.09149169899996],[-69.44128417999997,-51.089782714999956],[-69.43872070299994,-51.08929443399995],[-69.43548583999996,-51.09008789099994],[-69.43341064499998,-51.089416503999985],[-69.43359374999994,-51.088012694999975],[-69.43139648399995,-51.086791991999974],[-69.42718505899995,-51.08612060499996],[-69.42041015599995,-51.082702636999954],[-69.41497802699996,-51.08239746099997],[-69.40460205099998,-51.08441162099996],[-69.39611816399997,-51.07971191399997],[-69.39398193399995,-51.076293944999975],[-69.39172363299997,-51.06939697299998],[-69.38861083999996,-51.06628417999997],[-69.38818360899995,-51.062988400999984],[-69.38348388699995,-51.05841064499998],[-69.37670898399995,-51.05438232399996],[-69.37451171899994,-51.052001952999944],[-69.37438964799998,-51.05029296899994],[-69.37249755899995,-51.048095702999944],[-69.37158203099995,-51.04498290999993],[-69.37292480499997,-51.043823241999974],[-69.38031005899995,-51.043090819999975],[-69.38031005899995,-51.04119872999996],[-69.38311767599998,-51.039001464999956],[-69.38238525399998,-51.03680419899996],[-69.36938476599994,-51.02880859399994],[-69.36138915999999,-51.02508544899996],[-69.36041259799998,-51.023010253999985],[-69.35839843799994,-51.02191162099996],[-69.35839843799994,-51.020019530999946],[-69.34960937499994,-51.01428222699997],[-69.34918212899998,-51.01281738299997],[-69.33660888699995,-51.00640869099993],[-69.32122802699996,-50.988403319999975],[-69.30511474599996,-50.98150634799998],[-69.29217529299996,-50.97821044899996],[-69.28222656299994,-50.97210693399995],[-69.27178955099998,-50.96862792999997],[-69.26458740199996,-50.96472167999997],[-69.26129150399998,-50.963684081999986],[-69.25140380899995,-50.96319580099998],[-69.24462890599995,-50.96069335899995],[-69.24011230499997,-50.957824706999986],[-69.234375,-50.957519530999946],[-69.23150634799998,-50.95880126999998],[-69.23132324199997,-50.963012694999975],[-69.22479247999996,-50.970092772999976],[-69.22662353499999,-50.974182128999985],[-69.22520552999998,-50.97489203899994],[-69.22384923699997,-50.97256492599996],[-69.22257860499997,-50.960001371999965],[-69.21743896899994,-50.94899398499996],[-69.21401254499995,-50.94472523199994],[-69.20924410499998,-50.94195553999998],[-69.20486113799996,-50.94051358599995],[-69.19812250499996,-50.93414614899996],[-69.18291774899996,-50.92518033999994],[-69.17352294899996,-50.916503905999946],[-69.16888427699996,-50.91510009799998],[-69.16180419899996,-50.911010741999974],[-69.16040039099994,-50.908996581999986],[-69.17010497999996,-50.914184569999975],[-69.17218017599998,-50.914184569999975],[-69.16497802699996,-50.90930175799997],[-69.15850830099998,-50.90740966799996],[-69.15161132799994,-50.90380859399994],[-69.14581298799999,-50.90502929699994],[-69.14801025399998,-50.90667724599996],[-69.15191650399998,-50.90588378899997],[-69.15338134799998,-50.90667724599996],[-69.15380859399994,-50.911376952999944],[-69.15789794899996,-50.91339111299993],[-69.16180419899996,-50.916809081999986],[-69.16680908199999,-50.91967773399995],[-69.17388915999999,-50.920593261999954],[-69.17138671899994,-50.92169189499998],[-69.16717529299996,-50.92169189499998],[-69.15991210899995,-50.91967773399995],[-69.14514166399994,-50.91042494499993],[-69.13201893599995,-50.89958649999994],[-69.12833077199997,-50.87600604199997],[-69.12968706499998,-50.86453703899997],[-69.12799764699997,-50.86360904999998],[-69.12858061499998,-50.84589396299998],[-69.13080541099998,-50.824336045999985],[-69.13100766499997,-50.800600921999944],[-69.13578851099999,-50.78182449899998],[-69.13810134699997,-50.76928949899997],[-69.13914355099996,-50.755655186999945],[-69.14131361899996,-50.74264905299998],[-69.14102808399997,-50.727244422999945],[-69.13871524799998,-50.71863553299994],[-69.13150548099998,-50.70658594199995],[-69.12765075399994,-50.69660648299998],[-69.12599464999994,-50.680987700999935],[-69.12412439299999,-50.67543403899998],[-69.12026966599996,-50.667895905999956],[-69.11173215999997,-50.65931556999993],[-69.10860554899995,-50.655003986999986],[-69.10410836699998,-50.644396349999965],[-69.09261557099995,-50.62286698599996],[-69.08958889599995,-50.61211658099995],[-69.08719039899995,-50.60671996399998],[-69.08634806999999,-50.60185158699994],[-69.08098000599995,-50.588973943999974],[-69.08039465899998,-50.58080763399994],[-69.07821031399993,-50.56994301499998],[-69.07910974999999,-50.569400497999936],[-69.07863861699997,-50.56604545799996],[-69.07930962499995,-50.56533161899995],[-69.07725376999997,-50.56406098699995],[-69.07772490399998,-50.56281890799994],[-69.07385589999996,-50.56123418699997],[-69.07415571199994,-50.55759361199995],[-69.07351325799993,-50.556137381999974],[-69.07034381599993,-50.55252535999995],[-69.06917312099995,-50.552154163999944],[-69.06162071099993,-50.542374578999954],[-69.05009936099998,-50.52986813199993],[-69.04760092699996,-50.524871263999955],[-69.04244701499994,-50.52362918599994],[-69.04635884899994,-50.522501320999936],[-69.04635884899994,-50.52168754499996],[-69.03882071599998,-50.50982355299993],[-69.03685052199995,-50.50020101299998],[-69.03480894499995,-50.495689553999966],[-69.02554332399995,-50.488251358999946],[-69.01943286799997,-50.48154127899994],[-69.01023863099994,-50.474031699999955],[-69.01028146099998,-50.473260754999956],[-69.00569861899999,-50.46877785099997],[-69.00085879499994,-50.460754307999935],[-68.99694696099994,-50.45598586799997],[-68.98489737099999,-50.43498474499995],[-68.97099180099997,-50.41986564999996],[-68.96235435699998,-50.41202770599995],[-68.95837113999994,-50.40950071799995],[-68.95541584899996,-50.40528907199996],[-68.94812042199999,-50.398736035999946],[-68.92900383199998,-50.38508744799998],[-68.92600571099996,-50.38338851299994],[-68.92452092699995,-50.38368832499998],[-68.92492067699999,-50.382489076999946],[-68.92587721999996,-50.38226064799994],[-68.92460658799996,-50.38190372899993],[-68.92653395099995,-50.380775864999976],[-68.92557740799998,-50.379790767999964],[-68.92599143399997,-50.37929108099996],[-68.91786795399997,-50.37389446299994],[-68.90660358599996,-50.36345814699996],[-68.89750928599994,-50.36033153599993],[-68.89536777099994,-50.36168782799996],[-68.88504566899996,-50.35773316399997],[-68.88353233199996,-50.35803297599995],[-68.88303264499996,-50.359774741999956],[-68.87930640899998,-50.360845498999936],[-68.88103389799994,-50.359132286999966],[-68.88130515599994,-50.356276933999936],[-68.88060559499996,-50.35487781099994],[-68.88377503699996,-50.354235356999936],[-68.88466019599997,-50.35199390399998],[-68.88426044699997,-50.35016647799995],[-68.88213320899996,-50.349509746999956],[-68.88056276499998,-50.347254017999944],[-68.87809288399995,-50.34658300999996],[-68.87937779299995,-50.345398037999985],[-68.87910653399996,-50.34324224699998],[-68.87736476899994,-50.34405602199996],[-68.87733621599995,-50.34495545899995],[-68.87496627199994,-50.34449860199993],[-68.87605130699995,-50.34279966699995],[-68.87867823199997,-50.341957337999986],[-68.87877816899999,-50.33950173399995],[-68.87950628399994,-50.33867368199998],[-68.87850690999994,-50.338787895999985],[-68.88077691599995,-50.33680342499997],[-68.88000597099995,-50.335618453999984],[-68.86744241699995,-50.32665264499997],[-68.86243127199998,-50.32411137999998],[-68.84077341799997,-50.316987273999985],[-68.81964380399995,-50.31281845799998],[-68.81524655999993,-50.30973467699994],[-68.80922176499996,-50.30832127699995],[-68.80371093299993,-50.30593705699994],[-68.79711506699994,-50.30135421499995],[-68.79368864299994,-50.29779929999995],[-68.78255276599998,-50.29318790499997],[-68.77325859099994,-50.28814820699995],[-68.76533498599997,-50.286549208999986],[-68.75413218599994,-50.28645878899994],[-68.74880219299996,-50.28874307199993],[-68.73733319099995,-50.28955208899998],[-68.73167007399996,-50.28688709199997],[-68.71943964499997,-50.28336548999994],[-68.71767884399998,-50.281842634999975],[-68.71715536199997,-50.27960594199993],[-68.71539456099998,-50.27832103299994],[-68.71120670999994,-50.27941558499998],[-68.70730439399995,-50.277559604999965],[-68.70573394899998,-50.27570362599994],[-68.70340207699996,-50.27498978699998],[-68.69569262399995,-50.27636987499994],[-68.69164753999996,-50.27627469599997],[-68.68998191699995,-50.274704251999935],[-68.69036263099997,-50.272705504999976],[-68.68969638199997,-50.271563362999984],[-68.68726933199997,-50.27094470399993],[-68.68365255099997,-50.271515773999965],[-68.67632381099997,-50.27113505999995],[-68.67275461999998,-50.270135686999936],[-68.66909024999995,-50.26666167399998],[-68.66823364399994,-50.260903377999966],[-68.66709150299994,-50.259618468999975],[-68.66409338199998,-50.259570879999956],[-68.66361748899993,-50.26037989699995],[-68.66190427799995,-50.26042748599997],[-68.65933445999997,-50.26195034099993],[-68.66004829799994,-50.258238381999945],[-68.65919169199998,-50.25714382999996],[-68.63701511499994,-50.25109999899996],[-68.63415976199997,-50.25152830199994],[-68.63354110199998,-50.250624106999965],[-68.63454047599998,-50.249386786999935],[-68.63392181599994,-50.24881571599997],[-68.59380410399996,-50.23834608799996],[-68.57419734499996,-50.23220707799993],[-68.54293122699994,-50.223926553999945],[-68.53184293899994,-50.22168986099996],[-68.52855928299994,-50.21859656099997],[-68.52161125699996,-50.21597915399997],[-68.46502767399994,-50.20270176199995],[-68.45888866499996,-50.19960846299995],[-68.40720677099995,-50.18623589199996],[-68.40006838799997,-50.183570894999946],[-68.38840902999993,-50.17776501099996],[-68.38474465999997,-50.174386175999985],[-68.36451924099998,-50.16505868899998],[-68.35937960499996,-50.160918426999956],[-68.35490621899999,-50.15130540399997],[-68.35485862899998,-50.14859281899993],[-68.35590559199994,-50.14549951899994],[-68.35585800299998,-50.13969363399997],[-68.35776157199996,-50.137314172999936],[-68.36077880899995,-50.13537597699997],[-68.37707519499997,-50.13299560499996],[-68.38787841799996,-50.12951660199997],[-68.39331054699994,-50.13159179699994],[-68.39678955099998,-50.13140869099993],[-68.40148925799997,-50.12921142599998],[-68.41149902299998,-50.11547851599994],[-68.41821289099994,-50.11370849599996],[-68.42639160199997,-50.114624022999976],[-68.43328857399996,-50.11230468799994],[-68.43988037099996,-50.11279296899994],[-68.45172119099993,-50.110717772999976],[-68.46191406299994,-50.106323241999974],[-68.484375,-50.09271240199996],[-68.49029540999999,-50.088012694999975],[-68.50061035199997,-50.07818603499993],[-68.50280761699997,-50.07318115199996],[-68.50061035199997,-50.07049560499996],[-68.5,-50.06610107399996],[-68.50061035199997,-50.06390380899995],[-68.50231933599997,-50.06268310499996],[-68.50360107399996,-50.05987548799993],[-68.50970458999996,-50.05810546899994],[-68.51312255899995,-50.05310058599997],[-68.51318359399994,-50.045715331999986],[-68.51220703099995,-50.04217529299996],[-68.51300048799999,-50.03698730499997],[-68.51098632799994,-50.02117919899996],[-68.50927734399994,-50.01977539099994],[-68.51080322299998,-50.01818847699997],[-68.51599121099997,-50.01580810499996],[-68.51641845699999,-50.01458740199996],[-68.52209472699997,-50.012390136999954],[-68.52191162099996,-50.01171874999994],[-68.52368164099994,-50.01147460899995],[-68.52502441399997,-50.00958251999998],[-68.52807617199994,-50.00811767599998],[-68.52819824199997,-50.00677490199996],[-68.52722167999997,-50.00531005899995],[-68.52880859399994,-50.005981444999975],[-68.54168701199995,-50.00018310499996],[-68.55017089799998,-49.992309569999975],[-68.55639648399995,-49.98370361299993],[-68.56689453099995,-49.97290039099994],[-68.58068847699997,-49.964416503999985],[-68.59399414099994,-49.96667480499997],[-68.60931396499996,-49.97558593799994],[-68.62359619099993,-49.98162841799996],[-68.64349365199996,-49.98870849599996],[-68.65972900399998,-49.992126464999956],[-68.67291259799998,-49.99328613299997],[-68.68341064499998,-49.99200439499998],[-68.71069335899995,-49.985900878999985],[-68.73309326199995,-49.98339843799994],[-68.74230956999997,-49.97998046899994],[-68.75439453099995,-49.97839355499997],[-68.76739501999998,-49.97729492199994],[-68.79589843799994,-49.97717285199997],[-68.81561279299996,-49.979187011999954],[-68.82318115199996,-49.978088378999985],[-68.83642578099995,-49.972595214999956],[-68.84869384799998,-49.96917724599996],[-68.85906982399996,-49.96917724599996],[-68.88037109399994,-49.971374511999954],[-68.88952636699997,-49.973999022999976],[-68.89587402299998,-49.97680664099994],[-68.90051269499997,-49.980590819999975],[-68.90197753899997,-49.989624022999976],[-68.90447997999996,-49.994995116999974],[-68.91632080099998,-49.99987792999997],[-68.93280029299996,-50],[-68.91198730499997,-49.99218749999994],[-68.90881347699997,-49.989807128999985],[-68.90509033199999,-49.97851562499994],[-68.89611816399997,-49.971496581999986],[-68.88281249999994,-49.96740722699997],[-68.87451171899994,-49.96582031299994],[-68.86651611299999,-49.96447753899997],[-68.85321044899996,-49.96398925799997],[-68.83618164099994,-49.96557617199994],[-68.81890869099993,-49.96881103499993],[-68.80841064499998,-49.968688964999956],[-68.79278564499998,-49.96539306599993],[-68.76287841799996,-49.96649169899996],[-68.73541259799998,-49.963378905999946],[-68.72088622999996,-49.963378905999946],[-68.70428466799996,-49.96697997999996],[-68.69299316399997,-49.96630859399994],[-68.67877197299998,-49.96667480499997],[-68.65911865199996,-49.96490478499993],[-68.64910888699995,-49.96289062499994],[-68.64007568399995,-49.95959472699997],[-68.61517333999996,-49.94519042999997],[-68.61077880899995,-49.94128417999997],[-68.60449218799994,-49.93908691399997],[-68.59857177699996,-49.93780517599998],[-68.58190917999997,-49.93627929699994],[-68.57141113299997,-49.93682861299993],[-68.56939697299998,-49.93499755899995],[-68.57318115199996,-49.93267822299998],[-68.57379150399998,-49.92889404299996],[-68.57757568399995,-49.92578124999994],[-68.57678222699997,-49.92218017599998],[-68.57910156299994,-49.91760253899997],[-68.57836914099994,-49.912902831999986],[-68.58038330099998,-49.90771484399994],[-68.58459472699997,-49.90380859399994],[-68.58331298799999,-49.90039062499994],[-68.58288574199997,-49.89550781299994],[-68.58782958999996,-49.891113280999946],[-68.58868408199999,-49.88647460899995],[-68.59027099599996,-49.88458251999998],[-68.58929443399995,-49.88122558599997],[-68.59552001999998,-49.87420654299996],[-68.60797119099993,-49.856689452999944],[-68.61029052699996,-49.851501464999956],[-68.61059570299994,-49.841918944999975],[-68.62121581999997,-49.83239746099997],[-68.62420654299996,-49.827392577999944],[-68.62542724599996,-49.82318115199996],[-68.62731933599997,-49.820800780999946],[-68.62701415999999,-49.81872558599997],[-68.62188720699999,-49.817199706999986],[-68.62011718799994,-49.81420898399995],[-68.62078857399996,-49.81219482399996],[-68.62457275399998,-49.809082030999946],[-68.62969970699999,-49.80169677699996],[-68.63146972699997,-49.79791259799998],[-68.63177490199996,-49.79357910199997],[-68.63110351599994,-49.79107665999993],[-68.63378906299994,-49.786376952999944],[-68.63537597699997,-49.785278319999975],[-68.63562011699997,-49.78350830099998],[-68.64318847699997,-49.779418944999975],[-68.63739013699995,-49.77758789099994],[-68.62670898399995,-49.786499022999976],[-68.62438964799998,-49.79022216799996],[-68.62579345699999,-49.79400634799998],[-68.62518310499996,-49.796875],[-68.61987304699994,-49.79888915999993],[-68.61499023399995,-49.80450439499998],[-68.61279296899994,-49.80877685499996],[-68.60717773399995,-49.82562255899995],[-68.60211181599993,-49.831420897999976],[-68.59399414099994,-49.83459472699997],[-68.58422851599994,-49.84570312499994],[-68.57379150399998,-49.855590819999975],[-68.56848144499997,-49.85839843799994],[-68.55828857399996,-49.87219238299997],[-68.55657958999996,-49.87908935499996],[-68.55651855499997,-49.88342285199997],[-68.55297851599994,-49.88421630899995],[-68.55090331999997,-49.88818359399994],[-68.55291747999996,-49.88970947299998],[-68.55291747999996,-49.892700194999975],[-68.54669189499998,-49.89398193399995],[-68.54162597699997,-49.900512694999975],[-68.54479980499997,-49.906921386999954],[-68.54351806599993,-49.90960693399995],[-68.54278564499998,-49.915588378999985],[-68.53808593799994,-49.921875],[-68.53198242199994,-49.92651367199994],[-68.53369140599995,-49.93078613299997],[-68.53192138699995,-49.93359374999994],[-68.52917480499997,-49.93579101599994],[-68.52661132799994,-49.93658447299998],[-68.51800537099996,-49.936401366999974],[-68.51068115199996,-49.93792724599996],[-68.49920654299996,-49.945800780999946],[-68.49548339799998,-49.949890136999954],[-68.49188232399996,-49.95532226599994],[-68.48937988299997,-49.961791991999974],[-68.48742675799997,-49.964111327999944],[-68.48480224599996,-49.964111327999944],[-68.47698974599996,-49.96740722699997],[-68.47241210899995,-49.97308349599996],[-68.46588134799998,-49.979003905999946],[-68.45568847699997,-49.992309569999975],[-68.45227050799997,-49.99987792999997],[-68.44519042999997,-50.01202392599998],[-68.44372558599997,-50.02117919899996],[-68.44049072299998,-50.027282714999956],[-68.42260742199994,-50.04650878899997],[-68.41967773399995,-50.05450439499998],[-68.41638183599997,-50.05902099599996],[-68.40887451199995,-50.065307616999974],[-68.40301513699995,-50.06781005899995],[-68.39990234399994,-50.072387694999975],[-68.38037109399994,-50.081604003999985],[-68.37652587899998,-50.08441162099996],[-68.36938476599994,-50.087280272999976],[-68.36340331999997,-50.09289550799997],[-68.35992431599993,-50.09820556599993],[-68.35797119099993,-50.103088378999985],[-68.35668945299994,-50.11248779299996],[-68.35308837899998,-50.11749267599998],[-68.34357998399997,-50.120800713999984],[-68.33584673599995,-50.12266859099998],[-68.32661205799997,-50.12297538399997],[-68.28490247599996,-50.11975375099996],[-68.23809371899995,-50.120255817999976],[-68.19476849299997,-50.11532795399995],[-68.14974909099993,-50.10610754199996],[-68.13728547399995,-50.10236702999998],[-68.10215705699994,-50.089223482999955],[-68.06415987799994,-50.07702576999998],[-68.03950390299997,-50.06817417499997],[-67.98675601199994,-50.04280198199996],[-67.97028391199996,-50.032835155999976],[-67.95816916699994,-50.024373056999934],[-67.91699021499994,-50.00530167699998],[-67.88802741599994,-49.98705358999996],[-67.86421376999994,-49.96908627999994],[-67.85728953799997,-49.96485321899996],[-67.83640262999995,-49.94460876499994],[-67.83353680699997,-49.938332222999975],[-67.82992097799996,-49.933301565999955],[-67.81861377899997,-49.92236556399996],[-67.79381280599995,-49.88964341399998],[-67.78903008899994,-49.88109163099995],[-67.78587492399998,-49.87094085099994],[-67.78343359699994,-49.86634373199996],[-67.77314004899995,-49.85039658399995],[-67.77071299799996,-49.845114180999985],[-67.76777198499997,-49.84120234699998],[-67.76795758299994,-49.84031718699998],[-67.76537348799997,-49.83791869099997],[-67.76311775899995,-49.83330729499994],[-67.76116184199998,-49.831779680999944],[-67.76116184199998,-49.83015212999993],[-67.75877762199997,-49.82703979499996],[-67.75727856199995,-49.826640045999966],[-67.75729283799996,-49.82554073499995],[-67.75617925099993,-49.82562639499997],[-67.75662182999997,-49.82476978899996],[-67.75392352199998,-49.82239984599994],[-67.75345238799997,-49.82054386599998],[-67.75188194399993,-49.81957304599996],[-67.75202471199998,-49.81673196999998],[-67.74856973399994,-49.81387661699995],[-67.74807004699994,-49.81147811999995],[-67.74624262099996,-49.80933660499994],[-67.74684224599997,-49.808622766999974],[-67.74635683599996,-49.80642414499994],[-67.74394406199997,-49.80432545999997],[-67.74337299099994,-49.800856205999935],[-67.73225139099998,-49.782696159999944],[-67.72946742099998,-49.77507236699995],[-67.72995283099993,-49.773716073999935],[-67.72875358299996,-49.76813385799994],[-67.72734018299997,-49.76603517399997],[-67.72763999499995,-49.76459321999994],[-67.72452765999998,-49.75689804299998],[-67.72409935699994,-49.74847475099995],[-67.72150098599997,-49.74117932399997],[-67.72067293299995,-49.73605396499994],[-67.72188645899996,-49.72833023499993],[-67.72142960199994,-49.72344758099996],[-67.71933091699998,-49.71585234099996],[-67.71968783699998,-49.712654345999965],[-67.71868846299998,-49.70841414599994],[-67.71544763699995,-49.69943405999993],[-67.71574744899993,-49.684700437999936],[-67.72132966499998,-49.67180851799998],[-67.72091563799995,-49.667511210999976],[-67.71861707899996,-49.661472138999954],[-67.71663260899999,-49.65279186599997],[-67.71868846299998,-49.64656719599998],[-67.71928808699994,-49.63825811799995],[-67.72048733599996,-49.63595955799997],[-67.71958789899998,-49.63347540099994],[-67.71110749999997,-49.624067011999955],[-67.70826642399999,-49.61518686399995],[-67.70562522199998,-49.600082044999965],[-67.70638189099998,-49.58963145299998],[-67.70481144599995,-49.580351554999936],[-67.70345515399998,-49.561392008999974],[-67.69932916799996,-49.54337473099997],[-67.69764450999998,-49.52974041899995],[-67.68872153099994,-49.50546991699997],[-67.68757938999994,-49.48192752999995],[-67.68423862699996,-49.47010636699997],[-67.68212566499994,-49.458485079999946],[-67.67879917899995,-49.45068996599997],[-67.67728584099996,-49.444593785999984],[-67.67374520399994,-49.43726980499997],[-67.67303136499999,-49.431344947999946],[-67.66901959399996,-49.422521905999986],[-67.66832003199994,-49.411271814999964],[-67.66657826699998,-49.40477588599998],[-67.66026793599997,-49.39255497399995],[-67.65031702999994,-49.381461926999975],[-67.64332141499995,-49.36885554299994],[-67.63157163699998,-49.35546393599998],[-67.62527558299996,-49.339088484999934],[-67.62160645399996,-49.32658203799997],[-67.60644452799994,-49.30286832999997],[-67.60360345199996,-49.29567283999995],[-67.60430301399998,-49.275713920999976],[-67.60914283699998,-49.27087409699993],[-67.60931415799996,-49.263221750999946],[-67.61275485899995,-49.250272723999956],[-67.61529540999999,-49.24969482399996],[-67.62609863299997,-49.252807616999974],[-67.63610839799998,-49.25238037099996],[-67.63690185499996,-49.25427246099997],[-67.64599609399994,-49.25769042999997],[-67.65228271499996,-49.255798339999956],[-67.66809081999997,-49.25518798799993],[-67.66760253899997,-49.25927734399994],[-67.66418456999997,-49.26312255899995],[-67.66497802699996,-49.26568603499993],[-67.671875,-49.26977539099994],[-67.67291259799998,-49.27258300799997],[-67.67272949199997,-49.29852294899996],[-67.67590331999997,-49.30291747999996],[-67.68212890599995,-49.30651855499997],[-67.69909667999997,-49.30889892599998],[-67.69818115199996,-49.311889647999976],[-67.69219970699999,-49.31951904299996],[-67.68310546899994,-49.34179687499994],[-67.68280029299996,-49.34552001999998],[-67.68542480499997,-49.35357665999993],[-67.69110107399996,-49.35772705099998],[-67.69061279299996,-49.361999511999954],[-67.69299316399997,-49.36889648399995],[-67.70147705099998,-49.37799072299998],[-67.71380615199996,-49.38592529299996],[-67.72857665999999,-49.39031982399996],[-67.74078369099993,-49.39099121099997],[-67.74627685499996,-49.390197753999985],[-67.75421142599998,-49.39038085899995],[-67.76312255899995,-49.38769531299994],[-67.76959228499999,-49.39459228499993],[-67.77709960899995,-49.39599609399994],[-67.78759765599995,-49.39428710899995],[-67.79260253899997,-49.39477539099994],[-67.81079101599994,-49.39990234399994],[-67.81542968799994,-49.40240478499993],[-67.81860351599994,-49.405517577999944],[-67.82159423799999,-49.40380859399994],[-67.82128906299994,-49.401184081999986],[-67.82342529299996,-49.40008544899996],[-67.82629394499997,-49.40258789099994],[-67.83007812499994,-49.401184081999986],[-67.83020019499997,-49.39599609399994],[-67.83319091799996,-49.39007568399995],[-67.83618164099994,-49.38867187499994],[-67.83752441399997,-49.38677978499993],[-67.82580566399997,-49.386108397999976],[-67.81921386699997,-49.38421630899995],[-67.81939697299998,-49.37658691399997],[-67.80950927699996,-49.37811279299996],[-67.79888915999999,-49.382385253999985],[-67.78448486299999,-49.38269042999997],[-67.78149414099994,-49.38018798799993],[-67.77209472699997,-49.38067626999998],[-67.78717040999999,-49.37451171899994],[-67.78979492199994,-49.37219238299997],[-67.79498290999999,-49.363220214999956],[-67.79510497999996,-49.35906982399996],[-67.79309081999997,-49.35498046899994],[-67.80120849599996,-49.34960937499994],[-67.80468749999994,-49.34277343799994],[-67.80401611299999,-49.33929443399995],[-67.80187988299997,-49.33758544899996],[-67.79870605499997,-49.331298827999944],[-67.79449462899998,-49.33258056599993],[-67.79290771499996,-49.33038330099998],[-67.79760742199994,-49.32800292999997],[-67.79351806599993,-49.32647705099998],[-67.79302978499999,-49.32818603499993],[-67.78289794899996,-49.33050537099996],[-67.78082275399998,-49.32940673799993],[-67.78302001999998,-49.32568359399994],[-67.78192138699995,-49.32037353499993],[-67.77661132799994,-49.31860351599994],[-67.77490234399994,-49.31890869099993],[-67.77111816399997,-49.31671142599998],[-67.76477050799997,-49.31781005899995],[-67.76330566399997,-49.31549072299998],[-67.76080322299998,-49.31390380899995],[-67.75122070299994,-49.315795897999976],[-67.74517822299998,-49.31610107399996],[-67.74047851599994,-49.31268310499996],[-67.73327636699997,-49.31201171899994],[-67.72790527299998,-49.312988280999946],[-67.72271728499999,-49.31500244099993],[-67.72308349599996,-49.317077636999954],[-67.72149658199999,-49.31878662099996],[-67.71807861299999,-49.31927490199996],[-67.71569824199997,-49.31781005899995],[-67.71429443399995,-49.31231689499998],[-67.72009277299998,-49.30578613299997],[-67.72070312499994,-49.30297851599994],[-67.72009277299998,-49.30139160199997],[-67.72491455099998,-49.29937744099993],[-67.72937011699997,-49.29498290999993],[-67.73358154299996,-49.29357910199997],[-67.73498535199997,-49.29217529299996],[-67.73522949199997,-49.290283202999944],[-67.73760986299999,-49.28741455099998],[-67.74011230499997,-49.279418944999975],[-67.74200439499998,-49.27838134799998],[-67.74218749999994,-49.27648925799997],[-67.74139404299996,-49.275329589999956],[-67.73968505899995,-49.274780272999976],[-67.73638915999999,-49.27569580099998],[-67.72589111299999,-49.270202636999954],[-67.71618652299998,-49.26928710899995],[-67.71301269499997,-49.270019530999946],[-67.70532226599994,-49.26940917999997],[-67.70379638699995,-49.26800537099996],[-67.69921874999994,-49.267517089999956],[-67.68890380899995,-49.26177978499993],[-67.6875,-49.258483886999954],[-67.68481445299994,-49.25701904299996],[-67.68280029299996,-49.25408935499996],[-67.68280029299996,-49.252807616999974],[-67.68029785199997,-49.251892089999956],[-67.67889404299996,-49.24877929699994],[-67.66992187499994,-49.24719238299997],[-67.66760253899997,-49.24591064499998],[-67.66717529299996,-49.23992919899996],[-67.67468261699997,-49.222595214999956],[-67.67480468799994,-49.22058105499997],[-67.67279052699996,-49.218688964999956],[-67.67022705099998,-49.21850585899995],[-67.66992187499994,-49.21722412099996],[-67.66778564499998,-49.21649169899996],[-67.66741943399995,-49.20880126999998],[-67.66461181599993,-49.20349121099997],[-67.65991210899995,-49.20257568399995],[-67.65789794899996,-49.20080566399997],[-67.64318847699997,-49.196105956999986],[-67.63500976599994,-49.19677734399994],[-67.63397216799996,-49.19531249999994],[-67.63128662099996,-49.19531249999994],[-67.62347412099996,-49.18988037099996],[-67.61920165999999,-49.18951415999993],[-67.61389160199997,-49.18518066399997],[-67.61157226599994,-49.18060302699996],[-67.61071777299998,-49.18041992199994],[-67.61010929499997,-49.17726312699995],[-67.61520134199998,-49.17250420499994],[-67.61758080299995,-49.16450921599994],[-67.61658142899995,-49.162605646999964],[-67.61377366499994,-49.16198698699998],[-67.61372607599998,-49.16089243499994],[-67.62467159599998,-49.157894313999975],[-67.62662275399998,-49.156561815999964],[-67.63180997899997,-49.15718047599995],[-67.63347560199998,-49.15565762099993],[-67.63647372299994,-49.15056557499997],[-67.63699720399995,-49.14823370299996],[-67.63633095499995,-49.14114290899994],[-67.63423702999995,-49.13462318599994],[-67.62947810799994,-49.126533017999975],[-67.61986508499996,-49.11563508699993],[-67.61134661499995,-49.11073339699993],[-67.60235225199995,-49.10764009799993],[-67.59906859599994,-49.10354742499993],[-67.59873547099994,-49.10226251599994],[-67.60016314799998,-49.096646987999975],[-67.59830716799996,-49.093410920999986],[-67.59331029999998,-49.090460389999976],[-67.59173985599995,-49.088033338999935],[-67.58769477199996,-49.07651674799996],[-67.58255513699999,-49.06561881699997],[-67.58188888699993,-49.057766594999975],[-67.58088951399998,-49.05462570699996],[-67.57527398599996,-49.04191938499997],[-67.56799283499998,-49.032163594999986],[-67.56218694999995,-49.026833601999954],[-67.55362089099998,-49.01660191999997],[-67.54700598899996,-49.01055808899997],[-67.53958207099998,-49.00556122099994],[-67.53101601099996,-49.00127819099998],[-67.49746561099994,-48.973200550999934],[-67.49541927399997,-48.97058314399993],[-67.49370606299993,-48.96439654499994],[-67.49056517399998,-48.960589407999976],[-67.46772234799994,-48.944551840999964],[-67.43003168599995,-48.92232767499996],[-67.40285824099993,-48.90733707099997],[-67.36730909399995,-48.88991941599994],[-67.33371110499996,-48.87497640099997],[-67.30268293299997,-48.86436400499997],[-67.26780003499994,-48.856226247999984],[-67.25495094499996,-48.85417991199995],[-67.24705113499994,-48.85394196599998],[-67.24500479799997,-48.853132948999985],[-67.24371988899998,-48.85251428899994],[-67.24248256999994,-48.84951616799998],[-67.23791400399995,-48.84637527999996],[-67.22887205299998,-48.84152117899998],[-67.21992527899994,-48.83799957699995],[-67.21626090899997,-48.834240027999954],[-67.21588019599994,-48.83057565799993],[-67.21183511199996,-48.82586432599993],[-67.19931914699998,-48.816108535999945],[-67.19327531599998,-48.81363389599994],[-67.19294219099999,-48.81054059699994],[-67.19551200899997,-48.81049300799998],[-67.19698701999994,-48.809049829999935],[-67.06198149999994,-48.75689399799995],[-67.19717763199998,-48.80877979599995],[-67.19765352399997,-48.805829263999954],[-67.19693968599995,-48.80164141299997],[-67.19498852799995,-48.79764391799995],[-67.19084826599993,-48.793456066999966],[-67.19413192199994,-48.79098142699996],[-67.19417951099996,-48.78546107799997],[-67.19265665599994,-48.78212983199995],[-67.18699353899996,-48.77503903899998],[-67.18627970099993,-48.772707166999965],[-67.17623837499997,-48.76414110699994],[-67.15158715899997,-48.74838907499998],[-67.15158715899997,-48.74505782999995],[-67.14906492999995,-48.738538106999954],[-67.14935046599999,-48.735349628999984],[-67.14820832399994,-48.72754499699994],[-67.13978503299995,-48.711555018999945],[-67.14126029799996,-48.70803341699997],[-67.13854771299998,-48.704083510999965],[-67.14083199499998,-48.69718307399995],[-67.13745316099994,-48.69247174199995],[-67.13307495299995,-48.68923567499996],[-67.12969611799997,-48.68514300199996],[-67.12346192999996,-48.68105032899996],[-67.11289712299998,-48.67633899599997],[-67.08232263599996,-48.66470707999997],[-67.07656433999995,-48.65972210899997],[-67.06206152499993,-48.651048973999934],[-67.04425125899996,-48.646789738999985],[-67.03517361599995,-48.643660747999945],[-67.02142033099994,-48.63649856999996],[-67.02349046199998,-48.63497571499994],[-67.02330010499998,-48.63229882099995],[-67.01398451499995,-48.62350671299998],[-66.99058251599996,-48.61344159299995],[-66.97671347599999,-48.60948576699997],[-66.95471214199995,-48.60568454999998],[-66.93888872599996,-48.60500640399994],[-66.92043600599999,-48.606160441999975],[-66.90325629799997,-48.60161567199998],[-66.89660570399997,-48.60135393099995],[-66.87526193899998,-48.593382736999956],[-66.87032455699995,-48.588409662999936],[-66.86915862099994,-48.585685179999984],[-66.87049825799994,-48.58141404799994],[-66.87054108799998,-48.57808756099996],[-66.87349637899996,-48.57517510099996],[-66.87199731799996,-48.572491068999966],[-66.86912768799994,-48.56973565299995],[-66.86774284199998,-48.56873627999994],[-66.86682912899994,-48.568365083999936],[-66.78898389999995,-48.52006759799997],[-66.86673844568293,-48.56828735518324],[-66.86470189099998,-48.56623784499993],[-66.86217490299998,-48.56068418299998],[-66.85619293799994,-48.55420253199998],[-66.84772681599998,-48.548934404999954],[-66.83884666799997,-48.54467992899998],[-66.84244441299995,-48.54225287899993],[-66.84281560899996,-48.53704185899994],[-66.83883239099998,-48.530931402999954],[-66.83105155299995,-48.52303635099997],[-66.81764566999993,-48.51492714799997],[-66.80809451399995,-48.511186635999934],[-66.80478230399996,-48.510744055999965],[-66.80134160299997,-48.50740329299998],[-66.79473613199997,-48.50423189899993],[-66.78585598399997,-48.50140509899995],[-66.77163632499997,-48.49836414799995],[-66.77185047599994,-48.496265463999976],[-66.77030858599994,-48.492924699999946],[-66.76251347099998,-48.48564354999996],[-66.75617458699998,-48.48196014399997],[-66.75521804399995,-48.47457905599998],[-66.75080652299994,-48.47190930099998],[-66.74258310599998,-48.46948225099993],[-66.73995618099997,-48.46698381699997],[-66.73641554299996,-48.46507072999998],[-66.71804134499996,-48.45876039899997],[-66.69387077999994,-48.45333522799996],[-66.68310609899999,-48.45272132699995],[-66.68479075699997,-48.44933773399998],[-66.68025074599996,-48.44484055199996],[-66.66223346699996,-48.435789082999975],[-66.64587229299997,-48.431805864999944],[-66.61306428499995,-48.42658056899995],[-66.57919979599995,-48.42335401999998],[-66.55097462899994,-48.42238319899997],[-66.54172328499993,-48.42365383199996],[-66.53562710599994,-48.418285767999976],[-66.52937388199996,-48.41625846699998],[-66.51608221299995,-48.415901547999965],[-66.49435297499997,-48.417471991999946],[-66.49371052099997,-48.41684381399995],[-66.49492404599994,-48.415087771999936],[-66.49480983199999,-48.413674371999946],[-66.49158328199997,-48.40969115399997],[-66.48625804899996,-48.40696429199994],[-66.47766343599994,-48.40487988399997],[-66.47595022399997,-48.403437930999985],[-66.47052505299996,-48.40166761199998],[-66.46809800199998,-48.40148201399995],[-66.46844064499999,-48.400768175999985],[-66.46708435199997,-48.400139997999986],[-66.47102473899997,-48.39832684899994],[-66.47405141399997,-48.39826974199997],[-66.47543625999998,-48.39744168899995],[-66.47539342999994,-48.39541438799995],[-66.47302348699998,-48.39224494599995],[-66.47276650499998,-48.390446073999954],[-66.46721284299997,-48.386505685999964],[-66.46804089499994,-48.38356467299997],[-66.46759831599996,-48.38138032699993],[-66.47332329899996,-48.377182957999935],[-66.47662123199996,-48.37584094199997],[-66.47759205199998,-48.37394213199997],[-66.47756349799994,-48.371058225999946],[-66.47480808199998,-48.366147017999936],[-66.46966844699995,-48.36150706899997],[-66.46537113999995,-48.358937250999986],[-66.45727621399993,-48.35521101499995],[-66.44803914599999,-48.35231283199994],[-66.43713169699998,-48.35019986999998],[-66.42368298299994,-48.34904345199993],[-66.39438705899994,-48.34961452299996],[-66.36965970099993,-48.35329792899995],[-66.36167898799994,-48.35693850399997],[-66.36112219399996,-48.35838045699995],[-66.36246420999998,-48.361078765999935],[-66.35919483099997,-48.36133574799993],[-66.35839533199999,-48.36046486499998],[-66.35842388599997,-48.36177832799996],[-66.35592545199995,-48.360778953999954],[-66.35592545199995,-48.35953687499995],[-66.35237053699996,-48.35710982499995],[-66.35141220899993,-48.35518436499996],[-66.34985604099995,-48.35507015099995],[-66.34821421299995,-48.355998140999986],[-66.34701496499997,-48.35821103999996],[-66.34620118899994,-48.35771135299996],[-66.34568722599994,-48.35856795899997],[-66.34290325599994,-48.35632650699995],[-66.34014784099998,-48.35702606799998],[-66.34317451499999,-48.36102356299995],[-66.34267482799999,-48.362122873999965],[-66.34340294299994,-48.365863385999944],[-66.34605842199994,-48.36759087499996],[-66.34889949799998,-48.366677161999974],[-66.34978465799998,-48.36721967899996],[-66.34821341999998,-48.36907070099994],[-66.34627177999994,-48.369941583999946],[-66.34300319399995,-48.36880439999993],[-66.34026205499998,-48.36363621099997],[-66.33472266899997,-48.36075230399996],[-66.33519380299998,-48.36000991199995],[-66.33400883099995,-48.358468020999965],[-66.33388033999995,-48.354684677999956],[-66.33653581899995,-48.35331410899994],[-66.33727821099995,-48.35211486099996],[-66.34000507299999,-48.353599643999985],[-66.34297463999997,-48.35381379599994],[-66.34296036299997,-48.35210058399997],[-66.33812137299998,-48.35118020799996],[-66.33716482899996,-48.35013800399997],[-66.33737898099997,-48.34898158599998],[-66.34111949299995,-48.348453345999985],[-66.34511698799997,-48.346554535999985],[-66.34794378799995,-48.34389905799998],[-66.35089907799994,-48.337517342999945],[-66.35498223299999,-48.33336280399993],[-66.35937947699995,-48.32391158499996],[-66.36017897599999,-48.31471734799993],[-66.35857997799997,-48.309449220999966],[-66.35639563299998,-48.30687940299998],[-66.35489657299996,-48.302482158999965],[-66.35013562799998,-48.299106774999984],[-66.34763719399996,-48.299106774999984],[-66.34756580999994,-48.29729362599994],[-66.34325422699999,-48.29396713899996],[-66.34392523499997,-48.28925580599997],[-66.34275453999999,-48.28518692799997],[-66.33755779699999,-48.277163385999984],[-66.33166149299996,-48.27199519599998],[-66.32727852599999,-48.26942537799994],[-66.31581428299995,-48.26538505399998],[-66.31233075199998,-48.26527083899998],[-66.31201666299995,-48.26364328799997],[-66.30779073999997,-48.26053095299994],[-66.30409305799998,-48.25649062799994],[-66.29656920199994,-48.25195061699998],[-66.29182931599996,-48.25042300299998],[-66.28327753299993,-48.24992331599998],[-66.28323470199996,-48.24845280899996],[-66.28194979399996,-48.24739632799998],[-66.27997959999993,-48.24718217699996],[-66.27990821599997,-48.24558317899994],[-66.27889456599996,-48.245112045999974],[-66.27920865399994,-48.244141225999954],[-66.27766676399995,-48.242242415999954],[-66.26845824999998,-48.240357882999945],[-66.26264760599997,-48.23794510899995],[-66.26309018599994,-48.23242000099998],[-66.26107716199994,-48.22992156699996],[-66.25783633599997,-48.22889363999997],[-66.25663708699994,-48.22763728399997],[-66.25782205899998,-48.22423941399995],[-66.25565198999993,-48.21961374199998],[-66.24548693299994,-48.21583039899997],[-66.23770609599995,-48.20705018799998],[-66.22825487599994,-48.20129665099995],[-66.22482845299999,-48.20005457199994],[-66.21583408999999,-48.199440670999934],[-66.21296445999997,-48.19981186699994],[-66.21215068399994,-48.20078268699996],[-66.20999489299999,-48.20025444699996],[-66.20845300199994,-48.20132520399994],[-66.20691111099995,-48.19981186699994],[-66.20525500599996,-48.20112532999997],[-66.20435556999996,-48.19904092199994],[-66.20212839499999,-48.196956513999964],[-66.19750272199997,-48.19482927599995],[-66.18598137199996,-48.19432958899995],[-66.18442520499997,-48.195386069999984],[-66.18366853599997,-48.19438669599998],[-66.17774367799996,-48.19327310799997],[-66.17428870099997,-48.19355864399995],[-66.17127630299996,-48.19500059699993],[-66.16516584699997,-48.19148851299997],[-66.16312426999997,-48.192102413999976],[-66.16215344999995,-48.190646182999956],[-66.15992627399999,-48.19046058499998],[-66.15876985599994,-48.18794787499996],[-66.15591450299996,-48.18627749299998],[-66.15592877999995,-48.18487836999998],[-66.15767054499997,-48.18033835799997],[-66.16505163299996,-48.18110930399996],[-66.16676484499993,-48.17952458299993],[-66.16702182699999,-48.178468101999954],[-66.16587968599998,-48.176754889999984],[-66.16283873399993,-48.17541287399996],[-66.16293867199994,-48.17465620499996],[-66.16440917899996,-48.17451343799996],[-66.16429496499995,-48.17267173499994],[-66.16343835899994,-48.17198644999996],[-66.16156810199993,-48.172500413999956],[-66.15931237299998,-48.17175802199995],[-66.15797035699995,-48.17083003199997],[-66.15781331299996,-48.169616506999944],[-66.15629997599996,-48.16891694499998],[-66.15270223099998,-48.16864568699998],[-66.15435833499998,-48.166803983999955],[-66.15030373399998,-48.16667549299996],[-66.14790523699997,-48.16354888099994],[-66.14462158099997,-48.16457680899998],[-66.14433604599998,-48.16329189999993],[-66.14634906999999,-48.16183566999996],[-66.14433604599998,-48.161792838999986],[-66.14133792499996,-48.16043654599997],[-66.14297975299996,-48.15880899499996],[-66.14083823799996,-48.157324210999946],[-66.13931062399996,-48.15128513899998],[-66.13746892099994,-48.15034287299994],[-66.13835408099999,-48.14925783899997],[-66.13448507699997,-48.14798720599998],[-66.13689785099996,-48.14577430799994],[-66.13801143799998,-48.142961784999954],[-66.13735470699999,-48.14243354399997],[-66.13442796999993,-48.143432917999974],[-66.13549872799996,-48.14230505399996],[-66.13851112499998,-48.14164832199998],[-66.13851112499998,-48.13923554899998],[-66.13517036199994,-48.13735101599997],[-66.13028770799997,-48.13740812299994],[-66.12380605599998,-48.13956391399995],[-66.12443423399998,-48.138550263999946],[-66.12846028199993,-48.13693698999998],[-66.12925978099997,-48.13305370899997],[-66.12708971199999,-48.12884206299998],[-66.12106491699996,-48.12358821299995],[-66.11549697799995,-48.12108977899993],[-66.10201971099997,-48.117877506999946],[-66.09925001899995,-48.11476517199998],[-66.09091238699995,-48.11380862899995],[-66.08881370299997,-48.11239522899996],[-66.08116135599994,-48.11008239299997],[-66.07293793899998,-48.10972547299997],[-66.06601370699997,-48.11103893599994],[-66.06223036399996,-48.11330894199995],[-66.06338678199995,-48.11823442599996],[-66.06270149799997,-48.11966210299994],[-66.06178778399993,-48.11986197699997],[-66.06081696399997,-48.11936229099996],[-66.06244451599997,-48.11859134499997],[-66.06060281299995,-48.11649266099994],[-66.06094545499997,-48.11449391299993],[-66.05614846199995,-48.113908565999964],[-66.05600569399996,-48.11256654999994],[-66.05777601299997,-48.11122453399997],[-66.05719066599994,-48.109497044999955],[-66.05213669099999,-48.10659886199994],[-66.04739680399996,-48.10532822999994],[-66.03720319299998,-48.10450017699998],[-66.02926531099996,-48.10562804199998],[-66.02702385899994,-48.10691295099997],[-66.02619580699997,-48.10831207399997],[-66.02725228699995,-48.11001100899995],[-66.02965078399995,-48.11022515999997],[-66.02949373999996,-48.11162428299997],[-66.02248384799998,-48.10819785999996],[-66.01661609699994,-48.10925433999995],[-66.01413193899998,-48.105356782999934],[-66.00716487799997,-48.10327237499996],[-66.00485204199998,-48.103372312999966],[-66.00436663099998,-48.104286025999954],[-66.00282474099998,-48.10468577499995],[-66.00253920499995,-48.10658458499995],[-65.99490113599995,-48.10518546199995],[-65.99183163099997,-48.10928289399993],[-65.98966156199998,-48.108240689999946],[-65.99147471199996,-48.10736980699994],[-65.99146043499996,-48.10512835499998],[-65.98763426199997,-48.10201601999995],[-65.98362248999996,-48.100645449999945],[-65.97552756399995,-48.09998871899995],[-65.97418554799998,-48.10045985199997],[-65.97385718199996,-48.10144494899998],[-65.96269275099996,-48.10088815499995],[-65.96172193099994,-48.10168765399993],[-65.95915211299996,-48.10187325199996],[-65.95902362299995,-48.10330092899994],[-65.95665367899994,-48.102258724999956],[-65.95279895299996,-48.10292973299994],[-65.94518943599996,-48.10959698299996],[-65.94353333099997,-48.11388001199998],[-65.94453270499997,-48.11636416999994],[-65.94607459599996,-48.11702090099993],[-65.95221360499994,-48.11523630499994],[-65.95392681699997,-48.11546473299995],[-65.95308448799994,-48.116464106999956],[-65.95040045599995,-48.11650693699994],[-65.94704541599998,-48.11880549699998],[-65.94837315499996,-48.12029027999995],[-65.94835887799996,-48.12197493899998],[-65.95044328599994,-48.12315990999997],[-65.94510377599994,-48.124958782999954],[-65.94316213499997,-48.124045069999966],[-65.94090640599995,-48.12473035499994],[-65.94099206699997,-48.12363104399998],[-65.93974998799996,-48.12331695499995],[-65.94254823499995,-48.12278871399997],[-65.94221986899998,-48.12037594099996],[-65.93800822299994,-48.12019034299993],[-65.94116338799995,-48.11920524599998],[-65.94069225499999,-48.11846285399997],[-65.94274810899998,-48.11750631099994],[-65.94207710099994,-48.114408252999965],[-65.94012118399996,-48.112509442999965],[-65.93793683899997,-48.111681389999944],[-65.93466745999996,-48.112038309999946],[-65.93382513099994,-48.11272359399993],[-65.93476739699997,-48.114208377999944],[-65.93004178799998,-48.11559322399995],[-65.92912807399995,-48.11492221599997],[-65.92967059199998,-48.11322328099993],[-65.92889964599993,-48.112366674999976],[-65.92802876299999,-48.11242378199995],[-65.92762901399993,-48.11379435199996],[-65.92677240799998,-48.11253799599996],[-65.92573020399993,-48.11248088899998],[-65.92498781199998,-48.113151896999966],[-65.92563026699997,-48.115964419999955],[-65.92485932099999,-48.116150017999985],[-65.92284629699998,-48.11553611699998],[-65.92281774399999,-48.113623030999975],[-65.92011943499995,-48.11196692599998],[-65.92180409399998,-48.11112459699996],[-65.92129012999999,-48.10989679499994],[-65.91694999299995,-48.11029654399994],[-65.91720697499994,-48.10821213599996],[-65.91593634299994,-48.10821213599996],[-65.91612194099997,-48.10732697699996],[-65.90809839799994,-48.10561376499993],[-65.91756389399995,-48.10561376499993],[-65.91739257299997,-48.10371495499993],[-65.91482275499993,-48.103186714999936],[-65.91640747599996,-48.09873236399994],[-65.91799219699993,-48.09743317799996],[-65.91762100099999,-48.096747892999986],[-65.91335224799997,-48.09804707899997],[-65.91262413299995,-48.09948903199995],[-65.91055400199997,-48.099731736999956],[-65.90454348299994,-48.103329481999936],[-65.90976877999998,-48.09966035299993],[-65.90925481599999,-48.09873236399994],[-65.90774147899998,-48.09887513099994],[-65.90836965699998,-48.098461104999956],[-65.90811267499998,-48.09716191899997],[-65.90948324399994,-48.09681927699995],[-65.90895500399995,-48.095777072999965],[-65.90578556199995,-48.09449216399997],[-65.90470052799998,-48.094991850999975],[-65.90351555599995,-48.097675882999965],[-65.90111705999993,-48.09901789899993],[-65.90238769199993,-48.10030280799998],[-65.89643427999994,-48.103029669999955],[-65.89696252099998,-48.102044572999944],[-65.89424993499995,-48.10110230699996],[-65.89836164399998,-48.09837544399994],[-65.89946095499994,-48.09604833199995],[-65.90415801099994,-48.094349395999984],[-65.90557141099998,-48.09286461299996],[-65.90377253799994,-48.09073737499995],[-65.89963227599998,-48.09066599099998],[-65.90340134199994,-48.09012347399994],[-65.90574273199996,-48.08649717499998],[-65.90562851799996,-48.08237118999995],[-65.90437216199996,-48.08037244299993],[-65.91562225399997,-48.080757914999936],[-65.91867748199996,-48.08007262999996],[-65.91953408799998,-48.078759167999976],[-65.92263214599996,-48.079187470999955],[-65.92634410499994,-48.07754564299995],[-65.92734347899994,-48.076317840999934],[-65.92934222599996,-48.07801677599997],[-65.93089839299995,-48.07813098999998],[-65.93522425399993,-48.07661765299997],[-65.93559544899995,-48.07486161099996],[-65.93866495399993,-48.075546895999935],[-65.94026395199995,-48.07504720899993],[-65.94807334299998,-48.06980763599995],[-65.94858730699997,-48.06778033499995],[-65.94783063799997,-48.06690945199995],[-65.94892994899993,-48.06695228199993],[-65.94924403799996,-48.06809442399998],[-65.95017202799994,-48.06839423599996],[-65.95304165799996,-48.06755190699994],[-65.95548298499995,-48.065781587999936],[-65.95960896999998,-48.061327236999944],[-65.96788949399996,-48.04974877899997],[-65.97054497299996,-48.050005760999966],[-65.97120170399995,-48.05317520299997],[-65.97220107799996,-48.053774826999984],[-65.98029600399997,-48.050981339999964],[-65.97953457599993,-48.049220538999975],[-65.97544190299993,-48.04917294999996],[-65.97520395699996,-48.04741214899997],[-65.97332418299999,-48.04593688299997],[-65.95890464999997,-48.040107202999934],[-65.95733420499994,-48.03596694099997],[-65.95219456899997,-48.03444408599995],[-65.95176980799994,-48.03337311599995],[-65.95281201199998,-48.03231663499997],[-65.95242653899999,-48.03147430599995],[-65.94330368599998,-48.03223097499995],[-65.94343815299999,-48.03080351099993],[-65.94211871399995,-48.03161707399994],[-65.94086833499995,-48.03085109999995],[-65.94053521099994,-48.02906650399996],[-65.94251016299995,-48.02823369299995],[-65.94234360099995,-48.026948783999956],[-65.94786394999994,-48.028019540999935],[-65.94785797399999,-48.02630611699993],[-65.94932848099995,-48.02646316099998],[-65.95128439799998,-48.02542095699994],[-65.95034213099996,-48.02456435099998],[-65.94751533199997,-48.02452152099994],[-65.94862891899999,-48.022380005999935],[-65.95306899399998,-48.02219440799996],[-65.95421113499998,-48.02148056999994],[-65.95352584999995,-48.02043836599995],[-65.95615277499996,-48.020052892999956],[-65.95682378299995,-48.01901068899997],[-65.95576730199997,-48.01685489799996],[-65.95324031499996,-48.01445640099996],[-65.94917143699996,-48.01320004599995],[-65.94653023499995,-48.01398526799994],[-65.94685859999998,-48.01485614999996],[-65.94575928899997,-48.01552715799994],[-65.94704419799996,-48.016398040999945],[-65.93810694299998,-48.01548432799996],[-65.93569416899999,-48.01668357699998],[-65.93545146399998,-48.01818263699994],[-65.93186799599994,-48.017211816999975],[-65.93430932299998,-48.016255273999946],[-65.93360976199995,-48.012015073999976],[-65.93263894199998,-48.01150110999998],[-65.93475190299995,-48.01063022799997],[-65.93605108899993,-48.01174381599998],[-65.93796417499993,-48.01110136099993],[-65.93886361199998,-48.00935959599997],[-65.93700763199996,-48.00848871299996],[-65.94103367999998,-48.008988399999964],[-65.94274689199995,-48.00846015899998],[-65.94336079299995,-48.00557625299996],[-65.94280399899998,-48.003606058999935],[-65.94143342899997,-48.002235488999986],[-65.93876367399997,-48.002863666999986],[-65.93458058199997,-48.001907123999956],[-65.93568517346192,-48],[-65.442044388499,-48],[-65.46023475399994,-48.020283167999935],[-65.46831959099995,-48.028117220999945],[-65.51682861699999,-48.06636634399996],[-65.53793902599995,-48.09014468899994],[-65.54467638999995,-48.10037500499993],[-65.55276122799995,-48.10819680599997],[-65.56354101099998,-48.12293463699996],[-65.58240563199996,-48.14277887199995],[-65.58644805099993,-48.14969247499994],[-65.61025340599997,-48.175535036999975],[-65.63136381499999,-48.20226529399997],[-65.64708433299995,-48.21937730399998],[-65.69020346699995,-48.25748337999994],[-65.70008493499995,-48.26528110299995],[-65.72074618599999,-48.27937394999998],[-65.75263637899997,-48.29586061499998],[-65.76476363499995,-48.30125508799995],[-65.77778920699996,-48.30664898699996],[-65.79575551199997,-48.312641536999934],[-65.82539991699997,-48.325223585999936],[-65.83842548799998,-48.329716418999965],[-65.84426453799995,-48.333010909999985],[-65.86941736599994,-48.34379138299994],[-65.88199377999996,-48.34768376799997],[-65.91792639099998,-48.362951005999946],[-65.95071489899993,-48.37492209099997],[-65.94307921899997,-48.38150497999993],[-65.92690954399995,-48.39795845899994],[-65.90804492299998,-48.42516973599993],[-65.89816345499997,-48.44459739499996],[-65.89007861699997,-48.47417285599994],[-65.88828198699997,-48.49417873899995],[-65.88918030199994,-48.514773514999945],[-65.89322272099997,-48.53446498999995],[-65.90490081899998,-48.56368963999995],[-65.91702807599995,-48.582169937999936],[-65.93095196299998,-48.59915389399998],[-65.93903679999994,-48.607792649999965],[-65.95700310599995,-48.624172415999965],[-65.97766435699998,-48.638760795999985],[-65.99967308199996,-48.65215455099997],[-66.02437675199997,-48.66375957699995],[-66.05042789499998,-48.67387458699994],[-66.07827566899994,-48.682203061999985],[-66.10702175799997,-48.68904327299998],[-66.15103920699994,-48.694990523999934],[-66.18068361199994,-48.69617988899995],[-66.22649769099996,-48.694990523999934],[-66.27051513999999,-48.68904327299998],[-66.28533734199993,-48.685771984999974],[-66.31318511599994,-48.67833644299998],[-66.34013457499998,-48.66911483699994],[-66.37786381699993,-48.65215455099997],[-66.39987254099998,-48.638760795999985],[-66.42277958099999,-48.62238579199993],[-66.43355936399996,-48.61106903099994],[-66.49419564599998,-48.61911014999998],[-66.51530605499994,-48.62089689099997],[-66.54315382899995,-48.64263046999997],[-66.55393361199998,-48.649476085999936],[-66.57998475499994,-48.66256944199995],[-66.60379010999998,-48.69617988899995],[-66.61861231299997,-48.71342250899994],[-66.70035900399995,-48.78114625799998],[-66.71518120599995,-48.796282427999984],[-66.73045256599994,-48.80755737299995],[-66.73629161499997,-48.81319388999998],[-66.74931718699997,-48.82327869699998],[-66.75740202399999,-48.83098923199998],[-66.77132591099996,-48.84166338699998],[-66.77716495999994,-48.84759248399996],[-66.81713998999999,-48.87900491499994],[-66.83690292699998,-48.89351905299998],[-66.85980996599994,-48.90714071499997],[-66.89349678999997,-48.923126596999964],[-66.97838758399996,-48.95774502599994],[-66.99904883499994,-48.975488697999936],[-67.04396459999998,-49.00416087199994],[-67.06776995499996,-49.01686590799994],[-67.09247362499997,-49.027204808999954],[-67.12032139899998,-49.03695093799996],[-67.14861832999998,-49.04433308999995],[-67.17826273499998,-49.04935232399998],[-67.18544925699996,-49.05141891899996],[-67.20296640499998,-49.05850373299995],[-67.21689029199996,-49.06647293499998],[-67.22317849899997,-49.06912904899997],[-67.23800070099998,-49.078276796999944],[-67.26270437099998,-49.10040143499998],[-67.28156899199996,-49.11426115499995],[-67.28471309599996,-49.13106452699998],[-67.28965382999996,-49.15080853899997],[-67.28875551499993,-49.162592236999956],[-67.28965382999996,-49.18202917499997],[-67.28381478099993,-49.20616740699995],[-67.28156899199996,-49.22970548599994],[-67.27662825799996,-49.24940995299994],[-67.27572994299999,-49.259700186999964],[-67.27662825799996,-49.279098758999965],[-67.27977236199996,-49.28967656499998],[-67.28156899199996,-49.29937088299994],[-67.28875551499993,-49.319047386999955],[-67.29863698299994,-49.337835472999984],[-67.30447603199997,-49.34693335999998],[-67.31166255399995,-49.35602955599995],[-67.31660328799995,-49.360430332999954],[-67.32064570699998,-49.37099058399997],[-67.32648475699995,-49.38008230499997],[-67.33142549099995,-49.39503597299995],[-67.33546790899999,-49.403536997999936],[-67.34130695899995,-49.41965556599996],[-67.34355274699993,-49.42112062699994],[-67.34355274699993,-49.42551554399995],[-67.34130695899995,-49.43518296899998],[-67.34130695899995,-49.45158391199993],[-67.34534937799998,-49.47237003399994],[-67.35029011199998,-49.49168439199997],[-67.35523084599998,-49.503971357999944],[-67.35837494899994,-49.526781778999975],[-67.36062073699998,-49.53642912099997],[-67.36241736799997,-49.53964447599998],[-67.36241736799997,-49.55338041599998],[-67.36331568299994,-49.563606783999944],[-67.36735810199997,-49.58376102999995],[-67.37229883599997,-49.597192545999974],[-67.37813788499994,-49.630171564999955],[-67.38532440799997,-49.64767342899995],[-67.38622272299995,-49.66254503899995],[-67.38532440799997,-49.68324104399994],[-67.38712103799998,-49.71354033399996],[-67.39026514199998,-49.724024122999936],[-67.39206177199998,-49.73741676399993],[-67.39610419099995,-49.75313381799998],[-67.39834997899999,-49.75633481199998],[-67.39834997899999,-49.772918380999954],[-67.39924829499995,-49.783389273999944],[-67.40329071299993,-49.80316141999998],[-67.40643481699993,-49.81304444999995],[-67.41002807799998,-49.82321603699995],[-67.41407049699995,-49.83106122099997],[-67.42215533399997,-49.842681363999986],[-67.42305364999999,-49.847619073999965],[-67.42619775299994,-49.854008298999986],[-67.42889269899996,-49.86446156299996],[-67.43518090599997,-49.873461162999945],[-67.45000310799998,-49.899869602999956],[-67.45314721199998,-49.90306084799994],[-67.46078289199994,-49.91466358499997],[-67.46078289199994,-49.91727381399994],[-67.46707109899995,-49.92626351599995],[-67.47785088199998,-49.94481756699997],[-67.48368993099996,-49.95061423499993],[-67.50255455199994,-49.98335223199996],[-67.51063938999994,-49.99175040799997],[-67.51782591199998,-50.00072613899994],[-67.52186833099995,-50.00391067099997],[-67.52366496099995,-50.009121264999976],[-67.53354642999994,-50.026196452999955],[-67.54836863199995,-50.04355479299994],[-67.56633493699997,-50.06090682399997],[-67.57352145999994,-50.066689432999965],[-67.58519955799994,-50.078830627999935],[-67.60451333699996,-50.09501408199998],[-67.63325942599994,-50.11523567199998],[-67.64134426399994,-50.11985654399996],[-67.66784456499994,-50.14151090599995],[-67.67907350599995,-50.14872683799996],[-67.77070166499993,-50.20180241999998],[-67.79540533499994,-50.21448562399996],[-67.83448204999996,-50.23235165999995],[-67.85828740499994,-50.241282153999975],[-67.87894865599998,-50.25078696199995],[-67.90589811499996,-50.26115366799996],[-67.91982200199993,-50.265472459999955],[-67.96249197799995,-50.287348286999986],[-67.97641586499998,-50.29166469099994],[-67.98944143599994,-50.29684385499996],[-68.01863668299995,-50.30518687199998],[-68.05636592499997,-50.312665566999954],[-68.10801905399995,-50.32474403799995],[-68.13272272399996,-50.32934454799994],[-68.15293481799995,-50.335094556999934],[-68.18572332599996,-50.34199364299997],[-68.21132531099994,-50.35291513699997],[-68.26432591299994,-50.37130352299994],[-68.30519925899995,-50.38221823799995],[-68.32720798299994,-50.38911044199995],[-68.33708945099994,-50.39112047799995],[-68.35864901799994,-50.39858557699995],[-68.38694594899994,-50.405188332999955],[-68.42647182199994,-50.41724315399995],[-68.44039570899997,-50.420399858999986],[-68.44533644299997,-50.42298245999996],[-68.45252296499996,-50.42470411599999],[-68.49025220699997,-50.43818824199997],[-68.50597272499994,-50.44650630899997],[-68.51899829599995,-50.45224204999994],[-68.54999017399996,-50.464284830999986],[-68.57783794699998,-50.473171572999945],[-68.60164330199996,-50.47890406399995],[-68.60658403599996,-50.48148345699997],[-68.61556718899993,-50.484635855999954],[-68.61646550499995,-50.48578212999996],[-68.62365202699993,-50.489507328999935],[-68.63353349499994,-50.497816323999984],[-68.64476243599995,-50.50497807199997],[-68.67350852499999,-50.521302773999935],[-68.68249167799996,-50.529606145999935],[-68.68428830799996,-50.53218275599994],[-68.68833072699994,-50.54105666199996],[-68.68922904299995,-50.550501234999956],[-68.69327146099994,-50.57024283099997],[-68.70135629899994,-50.589118317999976],[-68.71123776699994,-50.60884364999998],[-68.73414480699995,-50.63855888099994],[-68.74806869399998,-50.651410580999936],[-68.76199258099996,-50.67482014899997],[-68.76917910299994,-50.68423776099996],[-68.77591646699994,-50.694794642999966],[-68.77995888599997,-50.69935904199997],[-68.80286592599998,-50.744978465999964],[-68.80286592599998,-50.75609143299994],[-68.79208614299995,-50.77517674799998],[-68.78310298999997,-50.79482359299993],[-68.78085720199994,-50.80421697699995],[-68.77906057099995,-50.816738534999956],[-68.76513668399997,-50.84632153299998],[-68.75795016199999,-50.88611503599998],[-68.75795016199999,-50.904294978999985],[-68.75525521599997,-50.91139458199996],[-68.75300942799998,-50.92133219699997],[-68.74896700899995,-50.94091724599997],[-68.74806869399998,-50.950848521999944],[-68.74896700899995,-50.97098827299993],[-68.75211111199997,-50.98119662399995],[-68.75390774299996,-50.99111924799996],[-68.75974679199999,-51.00925795899997],[-68.76064510799995,-51.01719140399996],[-68.76199258099996,-51.01974114999996],[-68.76289089599999,-51.04098355199994],[-68.76603499899994,-51.055705872999965],[-68.76603499899994,-51.07268731999994],[-68.76738247199995,-51.08259027199995],[-68.77277236399993,-51.10719695199998],[-68.77411983699994,-51.110024461999956],[-68.76289089599999,-51.12811641199994],[-68.75390774299996,-51.147331304999966],[-68.74043301399996,-51.170491513999934],[-68.73504312199998,-51.18234953399997],[-68.72695828399998,-51.19420448799997],[-68.72156839299998,-51.204081273999975],[-68.70360208699998,-51.241875583999956],[-68.69911051099996,-51.26160647699999],[-68.69686472199999,-51.27992039999998],[-68.69012735799998,-51.31005195499995],[-68.68922904299995,-51.319622305999985],[-68.68473746599994,-51.331723110999974],[-68.67126273699995,-51.35816485799995],[-68.66811863299995,-51.36744396199998],[-68.66677115999994,-51.368849721999936],[-68.66003379599994,-51.38262387499998],[-68.64655906699994,-51.395269936999966],[-68.63892338699998,-51.40426055399996],[-68.62904191899997,-51.41830483899997],[-68.61646550499995,-51.43150251199995],[-68.60972813999996,-51.440766673999974],[-68.59849919899995,-51.45956991999998],[-68.57289721299998,-51.51453174599993],[-68.56615984899997,-51.53414483199998],[-68.56391405999995,-51.54450831799994],[-68.56166827199996,-51.56410842599996],[-68.56166827199996,-51.57446505299998],[-68.56301574499997,-51.584259679999946],[-68.56391405999995,-51.63292147699997],[-68.56526153299995,-51.642703436999966],[-68.57199889799995,-51.670360924999954],[-68.56840563699996,-51.674549972999955],[-68.55493090799996,-51.698280558999954],[-68.54280365099999,-51.71558204199994],[-68.53292218299998,-51.73287687499993],[-68.51809998099998,-51.75239530699997],[-68.50597272499994,-51.77190526299995],[-68.49609125599994,-51.784164327999974],[-68.45701454199997,-51.84652221699997],[-68.42871760999998,-51.88128244899997],[-68.41434456599995,-51.89490109399998],[-68.39997152099994,-51.91157133799993],[-68.38065774199998,-51.92962375299993],[-68.37616616599996,-51.93295570799995],[-68.34742007699998,-51.964874340999984],[-68.34158102799995,-51.968758528999956],[-68.33259787499998,-51.97708064899996],[-68.31058914999994,-52.00259212999998],[-68.29262284499998,-52.01866794799997],[-68.28678379499996,-52.02531831299996],[-68.26342759799996,-52.04193987799994],[-68.24321550399998,-52.05855523199995],[-68.23917308499995,-52.06326178699993],[-68.21536772999997,-52.07986917299996],[-68.19650310899993,-52.09647034999995],[-68.18886742899997,-52.101726095999936],[-68.17988427599994,-52.11002337399998],[-68.15742639399997,-52.13352390399996],[-68.13856177299994,-52.15010501599994],[-68.11161231499995,-52.179659267999966],[-68.10936652699996,-52.18297253399999],[-68.08241706799998,-52.201467039999955],[-68.07253559999998,-52.20974565499995],[-68.06355244699995,-52.218022720999954],[-68.04783192999997,-52.23567528099994],[-68.03435719999999,-52.253596441999946],[-68.01549257899995,-52.28996780199998],[-68.00875521499995,-52.309794085999954],[-68.00650942699997,-52.319428639999956],[-68.00426363799994,-52.33924166799994],[-68.00426363799994,-52.34941989299995],[-68.00561111099995,-52.359870754999974],[-68.01010268799996,-52.37966557699997],[-68.01324679099997,-52.38928483999996],[-68.01773836799998,-52.39862724999995],[-68.02896730899994,-52.41785536599997],[-68.04244203799993,-52.43570250299996],[-68.05906087099999,-52.45326797399997],[-68.07927296499997,-52.469180602999984],[-68.10173084699994,-52.483990612999946],[-68.11385810299998,-52.49084540299998],[-68.15203650299998,-52.50921094599994],[-68.19560479399996,-52.52373345099994],[-68.22569835599995,-52.53112985399997],[-68.25803770599998,-52.53660786399996],[-68.28902958299994,-52.53989434099998],[-68.52729433580849,-52.54]]],[[[-67.05786132799994,-48.74988937399996],[-67.05621337899998,-48.74945068399995],[-67.05592346199995,-48.747966765999934],[-67.05763244599996,-48.74739837599998],[-67.05953216599994,-48.74798202499994],[-67.05932617199994,-48.74964904799998],[-67.05786132799994,-48.74988937399996]]],[[[-67.14345550499996,-48.744956969999976],[-67.14324951199995,-48.74330902099996],[-67.14524078399995,-48.74379730199996],[-67.14455413799993,-48.74523925799997],[-67.14345550499996,-48.744956969999976]]],[[[-67.13771820099998,-48.73834991499996],[-67.13455963099995,-48.73648834199997],[-67.13566589399994,-48.73453903199999],[-67.13828277599998,-48.73463821399997],[-67.14061737099996,-48.736099242999956],[-67.13981628399995,-48.73784255999993],[-67.13771820099998,-48.73834991499996]]],[[[-67.69034576399997,-49.295410155999946],[-67.68309783899997,-49.29224395799997],[-67.68145751999998,-49.28919982899998],[-67.68263244599996,-49.28595352199994],[-67.68447112999996,-49.284904479999966],[-67.68598174999994,-49.28260421799996],[-67.69140624999994,-49.28273010299995],[-67.69680023199999,-49.28903579699994],[-67.70121765099998,-49.291797637999935],[-67.70542907699996,-49.29326248199993],[-67.70638275099998,-49.29493331899994],[-67.70516204799998,-49.29669952399996],[-67.70298767099996,-49.29667663599997],[-67.70295715299994,-49.29780578599997],[-67.70102691699998,-49.29890441899994],[-67.69417571999998,-49.29782104499998],[-67.69034576399997,-49.295410155999946]]],[[[-67.69103240999993,-49.269168853999986],[-67.68933105499997,-49.26773834199997],[-67.69248962399996,-49.26551055899995],[-67.69559478799994,-49.26773834199997],[-67.69672393799993,-49.26964950599995],[-67.71576690699999,-49.271701812999936],[-67.72355651899994,-49.27113342299998],[-67.72353362999996,-49.27208328199998],[-67.73375701899994,-49.27575302099996],[-67.73364257799994,-49.27687454199997],[-67.72765350299994,-49.28089904799998],[-67.71788787799994,-49.28399276699997],[-67.71620941199996,-49.28586959799998],[-67.71281433099995,-49.28417587299998],[-67.70953369099993,-49.28520965599995],[-67.70475768999995,-49.284862517999954],[-67.69809722899998,-49.27920532199994],[-67.69678497299998,-49.27403640699998],[-67.69103240999993,-49.269168853999986]]],[[[-69.41580963099995,-51.08957672099996],[-69.42009735099998,-51.08734512299998],[-69.42536163299997,-51.089717864999955],[-69.42885589599996,-51.08981323199998],[-69.43042755099998,-51.088809966999975],[-69.43112182599998,-51.08958816499995],[-69.43033599899996,-51.090595244999975],[-69.43115234399994,-51.092739104999964],[-69.43565368699996,-51.09356307999997],[-69.43816375699998,-51.09070968599997],[-69.44020080599995,-51.09062957799995],[-69.44111633299997,-51.09155273399995],[-69.43978881799995,-51.094486236999956],[-69.44161987299998,-51.09698486299993],[-69.44422149699994,-51.09846115099998],[-69.44570922899999,-51.09667968699995],[-69.44751739499998,-51.09674835199996],[-69.44764709499998,-51.098239898999964],[-69.45484161399997,-51.10321807899993],[-69.45420837399996,-51.107574462999935],[-69.45286560099998,-51.10972213699995],[-69.44795989999994,-51.10652923599997],[-69.44263458299997,-51.10797882099996],[-69.43945312499994,-51.10734558099995],[-69.43753814699994,-51.10878372199994],[-69.43670654299996,-51.11070251499996],[-69.43722534199998,-51.11156463599997],[-69.44207000699998,-51.11309814499998],[-69.43985748299997,-51.11405944799998],[-69.43519592299998,-51.113220214999956],[-69.43438720699999,-51.111648559999935],[-69.43650817899999,-51.10757064799998],[-69.43592834499998,-51.106285094999976],[-69.42945098899997,-51.10481262199994],[-69.42673492399996,-51.10560607899998],[-69.42421722399996,-51.10419082599998],[-69.42935180699993,-51.10223007199994],[-69.42563629199998,-51.09789657599998],[-69.42308807399996,-51.09705734299996],[-69.41487121599994,-51.098720550999985],[-69.41043090799997,-51.09688186599993],[-69.40871429399994,-51.09488677999997],[-69.40879821799996,-51.09252929699994],[-69.41580963099995,-51.08957672099996]]],[[[-66.10604858399995,-48.12554168699995],[-66.10791778599997,-48.125522613999976],[-66.10437774699994,-48.12661743199993],[-66.10328674299996,-48.12577056899994],[-66.10604858399995,-48.12554168699995]]],[[[-65.89422607399996,-48.11558532699996],[-65.89331054699994,-48.11402893099995],[-65.89383697499994,-48.11284255999993],[-65.89720916699997,-48.111942290999934],[-65.89605712899998,-48.11378860499997],[-65.89672088599997,-48.115020751999964],[-65.89422607399996,-48.11558532699996]]],[[[-65.98416900599995,-48.11070251499996],[-65.98401641799995,-48.10820007299998],[-65.98471832299998,-48.10760116599994],[-65.98796844499998,-48.109424590999936],[-65.98812866199995,-48.11013030999993],[-65.98713684099994,-48.11069869999994],[-65.98416900599995,-48.11070251499996]]],[[[-65.99207305899995,-48.114208220999956],[-65.99102020299995,-48.11241912799994],[-65.99461364699994,-48.11157226599994],[-65.99499511699997,-48.11346435499996],[-65.99314880399999,-48.11455535899995],[-65.99207305899995,-48.114208220999956]]],[[[-65.89071655299995,-48.088180541999975],[-65.88979339599996,-48.08689117399996],[-65.89199066199996,-48.08613204999995],[-65.89217376699997,-48.08718872099996],[-65.89071655299995,-48.088180541999975]]],[[[-65.88860320999999,-48.083339690999935],[-65.89070129399994,-48.082401275999985],[-65.89262390099998,-48.08351898199993],[-65.89655303999996,-48.08336639399994],[-65.88934326199995,-48.08633422899993],[-65.88833618199993,-48.084869384999934],[-65.88860320999999,-48.083339690999935]]],[[[-65.89647674599996,-48.07657623299997],[-65.89801025399998,-48.07368469199997],[-65.89921569799998,-48.07424926799996],[-65.89945983899997,-48.075832366999975],[-65.90243530299995,-48.07733154299996],[-65.90206909199998,-48.07792663599997],[-65.89958190899995,-48.07782745399993],[-65.89982604999994,-48.07874679599996],[-65.89833831799996,-48.07915878299997],[-65.89528655999999,-48.07720565799997],[-65.89647674599996,-48.07657623299997]]],[[[-65.92495727499994,-48.00726318399995],[-65.92471313499993,-48.00635528599997],[-65.92602539099994,-48.00663375899995],[-65.92584228499999,-48.00721359299996],[-65.92495727499994,-48.00726318399995]]],[[[-65.88765716599994,-48.00120162999997],[-65.88796997099996,-48.00027084399994],[-65.88904571499995,-48.00011444099994],[-65.89016723599997,-48.001445769999975],[-65.88784027099996,-48.00181961099997],[-65.88765716599994,-48.00120162999997]]],[[[-65.90379333499993,-48.00659942599998],[-65.90110015899995,-48.00571441699998],[-65.89841461199995,-48.00339126599994],[-65.90095519999994,-48.00297927899993],[-65.90354156499995,-48.00421523999995],[-65.90356445299994,-48.00561904899996],[-65.90464019799998,-48.006755828999985],[-65.90379333499993,-48.00659942599998]]],[[[-66.32528686499995,-48.360271453999985],[-66.32395935099998,-48.35978698699995],[-66.32420349099993,-48.35807418799993],[-66.32602691699998,-48.359169005999945],[-66.32528686499995,-48.360271453999985]]],[[[-66.22116088899998,-48.24693679799998],[-66.22003936799996,-48.246429442999954],[-66.21935272199994,-48.24465942399996],[-66.22254943799999,-48.24584579499998],[-66.22228240999993,-48.246707915999934],[-66.22116088899998,-48.24693679799998]]],[[[-66.10859680199997,-48.14204406699997],[-66.10890960699999,-48.14106750499997],[-66.11020660399998,-48.141479491999974],[-66.10918426499995,-48.14203262299998],[-66.10859680199997,-48.14204406699997]]],[[[-66.08391570999999,-48.13044357299998],[-66.08428955099998,-48.12969207799995],[-66.08739471399997,-48.128566741999975],[-66.08714294399994,-48.12927246099997],[-66.08391570999999,-48.13044357299998]]],[[[-67.04666137699996,-48.75507736199995],[-67.04544830299994,-48.754970550999985],[-67.04377746599994,-48.75333023099995],[-67.04302978499999,-48.750999450999984],[-67.04397582999997,-48.749237060999974],[-67.04632568399995,-48.74976730299994],[-67.04798889199998,-48.75249099699994],[-67.04666137699996,-48.75507736199995]]]]}}]}