{"type":"FeatureCollection","name":"area_centolla_C1","crs":{"type":"name","properties":{"name":"urn:ogc:def:crs:OGC:1.3:CRS84"}},"features":[{"type":"Feature","properties":{"FID":0},"geometry":{"type":"MultiPolygon","coordinates":[[[[-65.40559344654758,-46],[-65.29584305699996,-45.312102134999975],[-65.26709696799998,-45.305763368999976],[-65.25407139599997,-45.30164278799998],[-65.24104582399997,-45.297204902999965],[-65.20511321299995,-45.281986640999946],[-65.17232470499994,-45.26232363599996],[-65.15346008399996,-45.24741323899997],[-65.14447693099999,-45.239797899999985],[-65.12156989199997,-45.21440601299997],[-65.10989179299997,-45.19598975599996],[-65.10495105899997,-45.18677937599995],[-65.09686622099997,-45.167083186999946],[-65.09372211799996,-45.15723252099997],[-65.08967969899999,-45.13752604399997],[-65.08878138399996,-45.11717668099993],[-65.09102717199994,-45.09745626599994],[-65.09462043299993,-45.07772899199995],[-65.10270527099993,-45.05799485999995],[-65.11258673899994,-45.039527687999964],[-65.12561230999995,-45.021373067999946],[-65.14043451299995,-45.00416860699994],[-65.16738397099994,-44.98090245299994],[-65.18849437999995,-44.96687442399997],[-65.20151995199996,-44.95985911499997],[-65.20825731699995,-44.95475652899995],[-65.22038457299993,-44.92859860699997],[-65.10854431999996,-44.67629521699996],[-65.09192548699997,-44.66700054299997],[-65.06183192499998,-44.64520024899997],[-65.02994173299999,-44.61184266299995],[-65.00928048099996,-44.591947226999935],[-64.97020376599994,-44.58039189099998],[-64.94639841099996,-44.57043960899995],[-64.92349137199994,-44.55823769799997],[-64.90283011999998,-44.54474837799995],[-64.89294865199997,-44.53768128699994],[-64.88396549899994,-44.52997074799998],[-64.86689750899995,-44.51422520699998],[-64.85297362199998,-44.49718949199996],[-64.84084636499995,-44.478540890999966],[-64.83590563099995,-44.46921433799997],[-64.82782079399993,-44.44991325899997],[-64.82288005999993,-44.43092759999996],[-64.82018511399997,-44.41096987599997],[-64.82018511399997,-44.40002240499996],[-64.82198174399997,-44.380054058999974],[-64.82602416299994,-44.360723321999956],[-64.83815141999997,-44.331715172999964],[-64.84982951799998,-44.31301337299993],[-64.85611772499993,-44.304305314999965],[-64.87093992699994,-44.28720793799994],[-64.89788938599997,-44.26429604899994],[-64.90777085399998,-44.25719476499995],[-64.94055936199999,-44.23782323699993],[-64.95133914499996,-44.23297935199997],[-64.94954251499996,-44.214891964999936],[-64.94729672699998,-44.20940004399995],[-64.94460178099996,-44.18290235899997],[-64.94460178099996,-44.174174885999946],[-64.94145767699996,-44.16415284999994],[-64.93741525799999,-44.14475048999998],[-64.93651694299996,-44.12760639499993],[-64.92349137199994,-44.10463192399993],[-64.91540653399994,-44.08520986599996],[-64.90866916899995,-44.05574081999998],[-64.90777085399998,-44.035006487999965],[-64.90956748499997,-44.01556141399993],[-64.91405906099993,-43.99448866999995],[-64.92124558299997,-43.97535457599997],[-64.93022873599995,-43.95718765799995],[-64.93741525799999,-43.94810210099996],[-64.96705966299999,-43.90460185599994],[-64.97200039699999,-43.89485860699995],[-64.98457681099995,-43.87666691299995],[-64.99176333299994,-43.868218867999985],[-65.00793300799995,-43.85164419899996],[-65.01691616099998,-43.843842749999965],[-65.03712825499997,-43.828887099999974],[-65.03443330899995,-43.825635371999965],[-65.03084004799996,-43.81880616299998],[-65.01332289999993,-43.77976702099994],[-65.00613637799995,-43.760563357999956],[-65.00164480099994,-43.73484025499994],[-64.99984817099994,-43.70812855099996],[-64.99715322499998,-43.69346459299993],[-64.99625490999995,-43.68042693099994],[-64.98008523399994,-43.66738641599994],[-64.96346640199994,-43.65140789599997],[-64.94280514999997,-43.62531131299994],[-64.91675400699995,-43.58712450799993],[-64.87588066099994,-43.55806007799998],[-64.84848204499997,-43.535844027999985],[-64.82243090199995,-43.51263905899998],[-64.8122980207883,-43.5],[-62,-43.5],[-62,-46],[-65.40559344654758,-46]]]]}}]}