{"type":"FeatureCollection","name":"area_centolla_C4","crs":{"type":"name","properties":{"name":"urn:ogc:def:crs:OGC:1.3:CRS84"}},"features":[{"type":"Feature","properties":{"FID":0},"geometry":{"type":"MultiPolygon","coordinates":[[[[-67.59569251645668,-46],[-67.59293612599998,-45.993109163999975],[-67.59269817999996,-45.98805280899995],[-67.58978333999994,-45.98710102499996],[-67.58547056699996,-45.987160511999946],[-67.58719567599996,-45.985941037999964],[-67.58731464899995,-45.98314517099993],[-67.58606543199994,-45.980795452999985],[-67.58249624099994,-45.978118559999984],[-67.57256199099999,-45.97657190999996],[-67.57169943699995,-45.971961703999966],[-67.56815998799993,-45.96544792999998],[-67.56518566199998,-45.96259257699995],[-67.56024828099999,-45.96083772399993],[-67.54945147599994,-45.961492075999956],[-67.53544239999997,-45.96077823799993],[-67.53121885599995,-45.95896389899997],[-67.53252755999995,-45.957387505999975],[-67.54799405599994,-45.95405625999996],[-67.55058171999997,-45.95200397499997],[-67.55055197699994,-45.948167093999984],[-67.55566781799996,-45.94513328199997],[-67.55730369799994,-45.94028512999995],[-67.55730369799994,-45.93734054699996],[-67.55206888299995,-45.92568118799994],[-67.54772636699994,-45.91884023699998],[-67.54490075699994,-45.91601462799997],[-67.53600752199998,-45.912653638999984],[-67.53276550599998,-45.91057160999998],[-67.51429493999996,-45.89486716799996],[-67.50727552999996,-45.88427856599998],[-67.50275455399998,-45.880620144999966],[-67.49909613299997,-45.87476072199996],[-67.49612180599996,-45.87348176199998],[-67.49403977799994,-45.87461200599995],[-67.47729432099999,-45.86405314799998],[-67.47470665699996,-45.86369622899997],[-67.47330872399993,-45.86515364899998],[-67.46631905699996,-45.86420186399994],[-67.46373139299993,-45.86265521399997],[-67.45843709299999,-45.86235778199995],[-67.45641455099997,-45.86143574099998],[-67.45626583499995,-45.858907562999946],[-67.45653352399995,-45.86125728099995],[-67.45879401199994,-45.86226855199993],[-67.46536727299997,-45.86185214599993],[-67.46548624599995,-45.860959847999936],[-67.46465343499995,-45.86054344299998],[-67.46789544999996,-45.86054344299998],[-67.46783596399996,-45.86146548399995],[-67.47283283199994,-45.86107882199997],[-67.47485537399996,-45.85843167099995],[-67.47577741499998,-45.853761978999955],[-67.47327898099996,-45.84962766499996],[-67.46831185599996,-45.84686154199994],[-67.46914466699997,-45.843916958999955],[-67.46846057199997,-45.841894416999935],[-67.46715186899996,-45.839604185999974],[-67.46170885199996,-45.83436937199997],[-67.46248217599998,-45.831811450999965],[-67.46212525699997,-45.82883712499995],[-67.45903195799997,-45.824018715999955],[-67.45474892799996,-45.81946799699995],[-67.44924642499996,-45.81658290099995],[-67.44160240599996,-45.817177765999986],[-67.42652257199995,-45.81069373499997],[-67.41638011899994,-45.800372822999975],[-67.40659458599998,-45.79784464499994],[-67.40579151799994,-45.79659542799993],[-67.40608895099996,-45.793442641999945],[-67.40531562599995,-45.79246111499998],[-67.40225206999997,-45.78981396399996],[-67.39787980999995,-45.787523732999944],[-67.39288294199997,-45.78642323199995],[-67.38042051499997,-45.78966524799995],[-67.37902258199995,-45.79100369499997],[-67.37697029699996,-45.79147958699997],[-67.37444211899998,-45.79023036999996],[-67.37334161899997,-45.78856474699995],[-67.36855295299995,-45.787256043999946],[-67.36760116899995,-45.78526324499995],[-67.36733347899997,-45.78115867499997],[-67.36694681699998,-45.78020689099998],[-67.36522170799998,-45.77952279599998],[-67.36525145099995,-45.77833306499997],[-67.36664938399997,-45.774942332999956],[-67.37307392899999,-45.77006443799996],[-67.37378776699995,-45.76682242199996],[-67.37179496899995,-45.76441321799996],[-67.37244932099998,-45.759535322999966],[-67.36813654799994,-45.75471691499996],[-67.37420417299995,-45.751593871999944],[-67.37691080999997,-45.74873851899997],[-67.37762464799994,-45.74576419299996],[-67.37741644599998,-45.74094578399996],[-67.37917129799996,-45.73722787599996],[-67.37872514899993,-45.73446175299995],[-67.37518570099996,-45.72961360099998],[-67.36165251599994,-45.72378392099995],[-67.35915408199998,-45.72339725899997],[-67.34904137299998,-45.725509030999945],[-67.34457988399998,-45.72330802899995],[-67.34223016599998,-45.72315931299994],[-67.34437168099998,-45.71765680899995],[-67.34425270799994,-45.713457060999986],[-67.34896404099999,-45.71324290899997],[-67.35021325799994,-45.711672464999936],[-67.35595965599998,-45.710387555999944],[-67.35874362499999,-45.70603314199997],[-67.36202728099994,-45.695753870999965],[-67.36106359999997,-45.68740196299996],[-67.35852947399997,-45.67944266599994],[-67.35899346899998,-45.67544517099998],[-67.36149190299994,-45.66809263699997],[-67.36092083199998,-45.655493390999936],[-67.35823873299995,-45.64407495199998],[-67.35566891499997,-45.63800732699997],[-67.35031512799998,-45.62933419099994],[-67.34149922499995,-45.619625989999975],[-67.33378977199999,-45.61416512699998],[-67.32397449499996,-45.60449261799994],[-67.30109597699999,-45.58828848899998],[-67.28157249999998,-45.56655211299994],[-67.26040719399998,-45.55024090699993],[-67.25084176099995,-45.544316048999974],[-67.23306718699996,-45.531538343999955],[-67.22450112799999,-45.52757654099997],[-67.22153869899995,-45.52707685399997],[-67.21075973999996,-45.51090841699994],[-67.20811853899994,-45.50451956399996],[-67.19780357499997,-45.49381198999998],[-67.18573970799997,-45.478178930999945],[-67.16785805799998,-45.46097542799998],[-67.15761447899996,-45.445627903999934],[-67.13819807699997,-45.42210693199996],[-67.13230891099994,-45.416467609999984],[-67.12624128499994,-45.41247011499996],[-67.12188687199995,-45.40722340399998],[-67.10575412599997,-45.396087525999974],[-67.09065644599997,-45.377277886999934],[-67.07844981099998,-45.36928289799994],[-67.07416678099997,-45.365178327999956],[-67.06991944299995,-45.353828298999986],[-67.06399458499993,-45.34615453699996],[-67.04554186499996,-45.33252022499994],[-67.04093760799998,-45.32827288699997],[-67.03601212399997,-45.32216956999997],[-67.02812421099998,-45.31713700999995],[-67.01606034299994,-45.30739311699995],[-67.00738720799995,-45.30350269799993],[-66.99014801299995,-45.293794496999965],[-66.97808414599996,-45.28412198799998],[-66.97604970699996,-45.28137371099996],[-66.97083868699997,-45.278625433999935],[-66.96552059199996,-45.27380702499994],[-66.95820374899995,-45.27095167199997],[-66.95370656799997,-45.267739398999936],[-66.93914426599997,-45.26117208699998],[-66.90073976599996,-45.24696670499998],[-66.88896143399995,-45.241684300999964],[-66.85355505399997,-45.23211886799993],[-66.84038473699997,-45.23008442899993],[-66.83292512699995,-45.23083395899994],[-66.83081930399999,-45.23265424699997],[-66.82725011299993,-45.23272563099994],[-66.82721442099995,-45.234010539999986],[-66.82571535999995,-45.23461730199995],[-66.82004034599998,-45.23486714599994],[-66.81811298199995,-45.23276132299998],[-66.81322318999997,-45.23111949499997],[-66.79562707599996,-45.22776445499994],[-66.79095143499995,-45.22804998999993],[-66.78734655199997,-45.23151210599997],[-66.78017247699995,-45.23194040899995],[-66.78070785499995,-45.23133364599994],[-66.77756696699998,-45.22926351499996],[-66.76842983699999,-45.22605124299997],[-66.75069095499998,-45.22308881399994],[-66.73452251699996,-45.22219651599994],[-66.71879427999994,-45.22242256499993],[-66.70532058199996,-45.22432613299998],[-66.69731964399995,-45.222571280999944],[-66.67926548399998,-45.21519495199993],[-66.66201439199995,-45.21141755699995],[-66.65199091199997,-45.21281549099996],[-66.64987914099999,-45.21486777599995],[-66.64946273499999,-45.21355907199995],[-66.64773762599998,-45.21317240999997],[-66.63869567399996,-45.21314266699994],[-66.63239010199999,-45.21406470799997],[-66.63283625099996,-45.21480828899996],[-66.63093268199998,-45.21558161399997],[-66.62706605799997,-45.21448111299998],[-66.62400250199994,-45.21486777599995],[-66.62141483799996,-45.21355907199995],[-66.61121289899995,-45.21198267899996],[-66.60728678899994,-45.21254780099997],[-66.60499655699994,-45.21445136999995],[-66.60327144799999,-45.214540599999964],[-66.60342016399994,-45.21394573499998],[-66.60115967699994,-45.213261639999985],[-66.59842329599996,-45.21409445099994],[-66.59152285899995,-45.21376727499995],[-66.58976800699998,-45.21501649199996],[-66.58715059999997,-45.21504623499993],[-66.58622855899995,-45.21376727499995],[-66.58373012499999,-45.21293446399994],[-66.58402755699996,-45.21198267899996],[-66.58117220399998,-45.212101651999944],[-66.58075579799998,-45.21341035599994],[-66.57980401399993,-45.21323189599997],[-66.58054759599997,-45.21228011199997],[-66.57953632499994,-45.21162575999995],[-66.57436099699999,-45.213261639999985],[-66.57287383399995,-45.212518057999944],[-66.57281434699996,-45.21159601699998],[-66.57123795399997,-45.21156627399995],[-66.56528930199994,-45.21254780099997],[-66.56273138099994,-45.212250368999946],[-66.56151190699995,-45.21269651799997],[-66.56082781199996,-45.214332396999964],[-66.55752630999996,-45.21495700599996],[-66.55687195899998,-45.214986748999934],[-66.55743708099993,-45.21403496499994],[-66.55693144499998,-45.21344009899997],[-66.55556325499998,-45.21317240999997],[-66.55202380699996,-45.21409445099994],[-66.55062587299994,-45.21584930399996],[-66.55178586099998,-45.21712826399994],[-66.55122073899997,-45.21772312899998],[-66.55205354999998,-45.218853372999945],[-66.55172637399994,-45.219656440999984],[-66.55327302399996,-45.22019181999997],[-66.54598592399998,-45.22283896999994],[-66.54426081499997,-45.222363077999944],[-66.54289262499998,-45.22509945799993],[-66.54149469199996,-45.22524817499993],[-66.53890702799998,-45.22382049799995],[-66.53774704099993,-45.225039971999934],[-66.53554603899994,-45.222303591999946],[-66.53539732299998,-45.22060822599997],[-66.53331529499997,-45.22022156299994],[-66.53132249599997,-45.220459508999966],[-66.52995430599998,-45.22161949599996],[-66.52802099399997,-45.22114360399996],[-66.52376770699993,-45.22274973999998],[-66.52254823399994,-45.22227384799993],[-66.52239951699994,-45.22328511899997],[-66.51865186599997,-45.222898456999985],[-66.51775956799997,-45.220697454999936],[-66.52159644899996,-45.21769338599995],[-66.51936570399994,-45.21674160099997],[-66.52019851599994,-45.215105721999976],[-66.51963339399998,-45.21358881599997],[-66.52430308599997,-45.209216555999944],[-66.52248874699995,-45.20829451499998],[-66.52457077499997,-45.20811605499995],[-66.52498718099997,-45.20555813499993],[-66.52210208499997,-45.20445763399994],[-66.52171542199994,-45.20359507899997],[-66.51975236699997,-45.20451712099998],[-66.51921698799998,-45.203654565999955],[-66.51984159699998,-45.20270278099997],[-66.51564779699999,-45.20154279399998],[-66.51645086499997,-45.20065049599998],[-66.51404165999998,-45.199163332999944],[-66.51383345799997,-45.19708130499998],[-66.51874109599999,-45.19779514299995],[-66.52254823399994,-45.19532645199996],[-66.52207234099996,-45.19434492499994],[-66.52016877299997,-45.19372031599994],[-66.52040671899994,-45.19282801799994],[-66.52730715599995,-45.19270904499996],[-66.52867534599994,-45.18881267799998],[-66.52802099399997,-45.186611675999984],[-66.53355324099994,-45.183934782999984],[-66.53423733599993,-45.18090096999998],[-66.53498091699998,-45.18099019999994],[-66.53465374099994,-45.18167429499994],[-66.53810395999994,-45.182477362999975],[-66.54048342099998,-45.181287631999965],[-66.54119725899994,-45.179830212999946],[-66.54051316399995,-45.17875945499998],[-66.53706294599993,-45.17869996899998],[-66.53605167499995,-45.17542820999995],[-66.53899625799994,-45.17587435899998],[-66.54238698999995,-45.17872971199995],[-66.54607515399994,-45.17771844099997],[-66.54672950599996,-45.177777926999966],[-66.54488542399997,-45.178818941999964],[-66.54931716999994,-45.17810510299995],[-66.55068535999999,-45.17867022499996],[-66.55333250999996,-45.17709383199997],[-66.55600940399995,-45.179027143999974],[-66.55877552699997,-45.17813484699997],[-66.56127396099998,-45.18009790199994],[-66.56228523199997,-45.17935431999996],[-66.56395085499997,-45.17988969899994],[-66.56585442399995,-45.179265090999934],[-66.56582468099998,-45.17727229199994],[-66.56766876299997,-45.17768869799994],[-66.56936412899995,-45.176707169999986],[-66.56957233199995,-45.17557692599996],[-66.56832311499994,-45.17453591199995],[-66.56853131699995,-45.17313797899993],[-66.56719287099997,-45.17316772199996],[-66.56686569499993,-45.172305166999934],[-66.57210050899994,-45.17046108499994],[-66.57445022699994,-45.168141109999965],[-66.57807890499998,-45.16849802999997],[-66.58126143399994,-45.166683690999946],[-66.58203475899995,-45.16718932599997],[-66.58066656899996,-45.16909289499995],[-66.58185629899998,-45.171442612999954],[-66.58364089499997,-45.17319746499993],[-66.58518754499994,-45.17340566799993],[-66.58685316699996,-45.17251336999993],[-66.58569317999996,-45.17426822199997],[-66.58822135699995,-45.175130776999936],[-66.58941108799996,-45.17417899299994],[-66.58896493899994,-45.173078491999945],[-66.59000595299995,-45.172245680999936],[-66.59363463099999,-45.172007734999966],[-66.59521102399998,-45.170818003999955],[-66.59637101099997,-45.167278555999985],[-66.59937508099995,-45.16522627099994],[-66.59967251299997,-45.16269809299996],[-66.59851252599998,-45.16130015999994],[-66.59464590199997,-45.160110428999985],[-66.58575266599996,-45.159485820999976],[-66.58634753199993,-45.15844480699997],[-66.58438447599997,-45.15698738699996],[-66.58700188399996,-45.156898156999944],[-66.59060081799998,-45.158087887999955],[-66.59610332199998,-45.154340236999985],[-66.59714433599999,-45.15151462699998],[-66.59895867499995,-45.15097924799994],[-66.60038635199999,-45.14854029999998],[-66.60193300099996,-45.14854029999998],[-66.60243863699998,-45.147826461999955],[-66.60252786699994,-45.146220325999934],[-66.60086224399998,-45.14529828499997],[-66.60231966399994,-45.144524959999956],[-66.60217094699993,-45.14342445899996],[-66.60071352799997,-45.14223472899994],[-66.60068378399995,-45.14053936299996],[-66.59970225699993,-45.139409118999936],[-66.59625203799993,-45.139260401999934],[-66.59196900799998,-45.13783272599994],[-66.58426550299998,-45.13952809199998],[-66.58022041999993,-45.14348394599995],[-66.57950658099998,-45.14241318799998],[-66.58066656899996,-45.14253216099996],[-66.58072605499996,-45.141848065999966],[-66.57983375699996,-45.140033726999945],[-66.57641328199998,-45.14047987599997],[-66.57516406499997,-45.14196703899995],[-66.57135692699995,-45.143305485999974],[-66.56969130499994,-45.14279985099995],[-66.56689543799996,-45.143513688999974],[-66.56549750499994,-45.14187780999998],[-66.55993551499995,-45.14274036399996],[-66.55945962199996,-45.141074740999954],[-66.55553351199995,-45.14158037699997],[-66.54738385799993,-45.13667273899995],[-66.54604541099997,-45.13759477999997],[-66.54586695099994,-45.13985526799996],[-66.54893050699997,-45.14178857999997],[-66.54586695099994,-45.143543431999944],[-66.54211929999997,-45.14785620499998],[-66.54027521799998,-45.15291255999995],[-66.53825267599996,-45.15151462699998],[-66.53902600099997,-45.15124693699994],[-66.53846087899996,-45.15038438299996],[-66.53447528199996,-45.14996797699996],[-66.52314309899998,-45.15187154599994],[-66.51710521599995,-45.151544369999954],[-66.51665906799997,-45.152525897999965],[-66.51603445899997,-45.15184180199998],[-66.51457703899996,-45.152139234999936],[-66.50934222499995,-45.15445920999997],[-66.50731968299993,-45.15677918399996],[-66.51065092799996,-45.15817711699998],[-66.50755762899996,-45.15954530799996],[-66.50743865599998,-45.16296578299995],[-66.50633815499998,-45.16475037799995],[-66.50485099199994,-45.16495858099995],[-66.50250127499999,-45.16391756699994],[-66.49943771899996,-45.16472063499998],[-66.49417316099994,-45.16445294599998],[-66.49322137699994,-45.16495858099995],[-66.49339983599998,-45.16680266399993],[-66.49060396999994,-45.16671343399997],[-66.49423264799998,-45.16192476899994],[-66.49354855299998,-45.16082426799994],[-66.49390547199994,-45.159277617999976],[-66.49319163299998,-45.15883146899995],[-66.49140703799998,-45.16109195699994],[-66.48658862899998,-45.16266834999993],[-66.48560710099997,-45.164423202999956],[-66.47894461099997,-45.163620133999984],[-66.47718975799995,-45.16522627099994],[-66.47442363499994,-45.164274485999954],[-66.47362056699995,-45.165702162999935],[-66.47260929599997,-45.16561293299998],[-66.47278775499996,-45.16367962099997],[-66.47118161899994,-45.16177605199994],[-66.46832626599996,-45.16165707899995],[-66.46689858899998,-45.15987248299996],[-66.46695807599997,-45.158296089999965],[-66.46901036099996,-45.156838670999946],[-66.46909959099997,-45.15550022399998],[-66.46743396799997,-45.15428074999994],[-66.46886164499995,-45.15365614199993],[-66.46871292799995,-45.15237718099996],[-66.46392426299997,-45.151276680999956],[-66.46398374999995,-45.14961105799995],[-66.46231812699995,-45.14877824599995],[-66.46059301799994,-45.149224394999976],[-66.46086070699994,-45.14714236699996],[-66.45898688099999,-45.146963906999986],[-66.46321042499994,-45.14610135299995],[-66.46570885899996,-45.14384086499996],[-66.48870040099996,-45.14821312399994],[-66.49197215999993,-45.14812389499997],[-66.49613621599997,-45.146428528999934],[-66.49687979799995,-45.14523879799998],[-66.50178743599997,-45.14506033899994],[-66.50282844999998,-45.14434649999998],[-66.50726019699994,-45.147588515999985],[-66.50978837399998,-45.14690442099993],[-66.51317910599994,-45.147410055999956],[-66.51594522899995,-45.14648801499993],[-66.52058517799998,-45.14937311199998],[-66.52448154599995,-45.14919465199995],[-66.53144146899996,-45.14434649999998],[-66.53417784899995,-45.140212186999975],[-66.53557578299996,-45.134233790999986],[-66.53584347199995,-45.127690272999985],[-66.53507014699994,-45.11879703799997],[-66.53269068599997,-45.11311607499994],[-66.53069788699997,-45.11020123499998],[-66.52424359899999,-45.10579923199998],[-66.51865186599997,-45.097976753999944],[-66.51243552399995,-45.09524037399996],[-66.50678430399995,-45.096905996999965],[-66.50330434299997,-45.09625164499994],[-66.50071667899994,-45.09845264599994],[-66.49750440599996,-45.09726291599998],[-66.49363778199995,-45.098541875999956],[-66.49399470099996,-45.09767932099993],[-66.49295368699995,-45.095864981999966],[-66.48968192799998,-45.09321783199994],[-66.48397122199998,-45.09235527699997],[-66.48218662599999,-45.09315834499995],[-66.48156201799998,-45.09223630399998],[-66.48171073399993,-45.08682303099994],[-66.47168725499995,-45.07995233699995],[-66.46526270999993,-45.07668057799998],[-66.45134286299998,-45.07257600799994],[-66.44473985899998,-45.072516520999955],[-66.44102195099998,-45.07427137399998],[-66.43629277199994,-45.07281395399997],[-66.43379433799998,-45.072932926999954],[-66.43349690499997,-45.07192165599997],[-66.43111744399994,-45.070642695999936],[-66.42659646799996,-45.07108884499996],[-66.42261087099996,-45.06927450599994],[-66.42252164099995,-45.06725196399998],[-66.41684067799997,-45.06350431299995],[-66.41386635199996,-45.062225351999984],[-66.40839359199998,-45.06177920299996],[-66.40883974099995,-45.05910230999996],[-66.40574644099996,-45.05645515899994],[-66.39851882899995,-45.05312391399997],[-66.39673423299996,-45.053629548999936],[-66.39432502899996,-45.052410075999944],[-66.38888201199995,-45.05232084599993],[-66.38617537499994,-45.05395672499998],[-66.38653229399995,-45.055503374999944],[-66.38227900699997,-45.056068496999956],[-66.36731814599995,-45.06130331099996],[-66.36327306199996,-45.061600743999975],[-66.37406986699995,-45.05687156499994],[-66.37478370499997,-45.05496799599996],[-66.37460524499994,-45.051547520999975],[-66.37261244699994,-45.049078829999985],[-66.37058990499997,-45.04937626299994],[-66.37186886499995,-45.04875165399994],[-66.37183912199998,-45.04732397799995],[-66.36779403799994,-45.04607476099994],[-66.36975709399997,-45.044944516999976],[-66.36862684999994,-45.042981460999954],[-66.35919823499995,-45.03973944599994],[-66.34881783699996,-45.041315838999935],[-66.34699811899998,-45.04216421299998],[-66.34566505099997,-45.044200934999935],[-66.34209585899998,-45.04363581299998],[-66.34120356199998,-45.04259479899997],[-66.33787231599996,-45.04155378499996],[-66.33216160999996,-45.042118906999974],[-66.32826524199999,-45.04336812399998],[-66.32770011999997,-45.04568809799997],[-66.32909805399999,-45.04649116599995],[-66.32674833599998,-45.04839473499993],[-66.32579655199999,-45.050298303999966],[-66.32606424099998,-45.05202341299997],[-66.32059148099995,-45.05139880499996],[-66.32074019699996,-45.04884088399996],[-66.31993712899998,-45.04699680199997],[-66.31880688499996,-45.04592604399994],[-66.31526743699999,-45.04509323299993],[-66.31006236599995,-45.04542040899997],[-66.30759367499996,-45.04699680199997],[-66.30786136399996,-45.04851370799997],[-66.30955672999994,-45.05041727699995],[-66.30756393199994,-45.050922912999965],[-66.30301321199994,-45.050149587999954],[-66.30232911699994,-45.047056287999965],[-66.29394151699995,-45.04592604399994],[-66.29119442999996,-45.04782009499996],[-66.29134314599997,-45.04936674499993],[-66.28955854999998,-45.049247771999944],[-66.28872573899997,-45.04996160999997],[-66.28955854999998,-45.05079442199997],[-66.28595961499997,-45.051091853999935],[-66.28554320999996,-45.05263850399996],[-66.28759549499995,-45.05367951799997],[-66.28777395399999,-45.05469078899995],[-66.28940983399997,-45.055761546999975],[-66.29354414699998,-45.05632666899993],[-66.29544771599996,-45.05817075099998],[-66.29074828099994,-45.06019329299994],[-66.29116468599995,-45.058884588999945],[-66.28863650899996,-45.05882510299995],[-66.28747652199996,-45.063375821999955],[-66.28346118099995,-45.06551733699996],[-66.28313400599995,-45.064208632999964],[-66.28411553299998,-45.06352453799997],[-66.28360989799995,-45.06307838899994],[-66.27623356899994,-45.06533887699993],[-66.27840482699997,-45.06346505199997],[-66.28408578999995,-45.06284044299997],[-66.28646525099998,-45.060907130999965],[-66.28703037299994,-45.05933073799997],[-66.29027238899994,-45.05727845299998],[-66.29003444199998,-45.05629692499997],[-66.28822010299996,-45.05552359999996],[-66.28703037299994,-45.05382823399998],[-66.28409173899996,-45.053048960999945],[-66.27880933499995,-45.05940212199994],[-66.28005855199996,-45.05643969299996],[-66.27888071899997,-45.05501201599998],[-66.27738165899996,-45.05554739499996],[-66.27802411299996,-45.05312034499997],[-66.28195022399996,-45.05272773399997],[-66.28398466299996,-45.050514834999944],[-66.28369912699998,-45.04873023899995],[-66.28184314799995,-45.04794501699996],[-66.27863087599997,-45.049301309999976],[-66.27441922999998,-45.048944390999964],[-66.26945805299994,-45.04680287599996],[-66.26856575499994,-45.04533950699994],[-66.26877990699995,-45.042162926999936],[-66.26296212499994,-45.03984295199996],[-66.26032092299994,-45.036345144999984],[-66.26067784199995,-45.03488177599996],[-66.26231966999995,-45.03366825099994],[-66.26199844299998,-45.03149104399995],[-66.25989261999996,-45.029849215999945],[-66.25560958999995,-45.02942091299997],[-66.25450314099999,-45.02831446399995],[-66.25204039899995,-45.027957544999936],[-66.25411052999993,-45.027457857999934],[-66.25378930299996,-45.025423418999935],[-66.25268285299995,-45.02460250499996],[-66.24572292999994,-45.02460250499996],[-66.24707922299996,-45.02281790899997],[-66.24640107599998,-45.02092623699997],[-66.23733532999995,-45.02078346999997],[-66.23244553699993,-45.022782216999985],[-66.23205292599994,-45.023710206999965],[-66.23373044599998,-45.02724370599998],[-66.23298091599997,-45.02774339299998],[-66.23069663399997,-45.02902830199997],[-66.23126770399995,-45.028136003999975],[-66.23069663399997,-45.02792185299995],[-66.22569976499994,-45.028100311999935],[-66.22530715399995,-45.027029554999956],[-66.22748436099994,-45.02613725699996],[-66.22919757299996,-45.02381728299997],[-66.22741297699997,-45.021176080999965],[-66.22609237699999,-45.02074777799993],[-66.22634221999994,-45.01889179799997],[-66.23294522399993,-45.01410908199995],[-66.23265968899995,-45.011682030999964],[-66.22962587599994,-45.00875529399997],[-66.23019694699997,-45.00700639099995],[-66.22734159399994,-45.00472210799995],[-66.22270164499997,-45.00454364799998],[-66.22155950299998,-45.00525748699994],[-66.22130965999997,-45.00722054199997],[-66.21998905899994,-45.00768453699993],[-66.21927522099998,-45.00565009799993],[-66.21752631699997,-45.00407965299996],[-66.21095900499995,-45.00233074999994],[-66.20892456499996,-45.00275905299998],[-66.2088764145249,-45],[-66.06189695712219,-45],[-66.06233786999996,-45.00343719899996],[-66.05673423899998,-45.004293804999975],[-66.05216567399998,-45.00329443099997],[-66.05027400299997,-45.001474143999985],[-66.04631219999999,-45.001759678999974],[-66.04238608999998,-45.00043907799994],[-66.04113687299997,-45.00154552799995],[-66.04145809999994,-45.002830435999954],[-66.03974488799997,-45.00340150699998],[-66.03303480799997,-45.00297320399994],[-66.03071483299993,-45.001581218999945],[-66.02957269199999,-45.00183106299994],[-66.02967976799994,-45.00311597199993],[-66.02835916699996,-45.00229505799996],[-66.02086386499997,-45.00300889599998],[-66.02072109699998,-45.001438451999945],[-66.02180340643632,-45],[-66.01943126679174,-45],[-66.01640237499998,-45.00243782499996],[-66.01683067799996,-45.004936258999976],[-66.01529592599996,-45.00454364799998],[-66.01408240099994,-45.00579286499993],[-66.00876430599993,-45.006506703999946],[-66.00523080599999,-45.00547163799996],[-66.00023393799995,-45.00764884499995],[-65.99059712099995,-45.01410908199995],[-65.98355312299998,-45.01974106799997],[-65.98233959799995,-45.02170412299995],[-65.97391630599998,-45.027985899999976],[-65.97152494799997,-45.031091096999944],[-65.96963327599997,-45.035695353999984],[-65.96545732199996,-45.03676611099996],[-65.95806909599997,-45.04379741799994],[-65.94596953599995,-45.04269096899998],[-65.94154373899994,-45.045938932999945],[-65.93861700199994,-45.04700969099997],[-65.93790316399998,-45.048473058999946],[-65.93558318899994,-45.04858013499995],[-65.93444104799994,-45.049436740999965],[-65.93105031599998,-45.04858013499995],[-65.93087185599995,-45.04643861999995],[-65.92783804399994,-45.04586754899998],[-65.92630329099995,-45.04429710499994],[-65.92426885199995,-45.04379741799994],[-65.92398331699997,-45.04172728699996],[-65.92194887799997,-45.039121776999934],[-65.91912921599999,-45.03876485799998],[-65.91802276699997,-45.03476736399995],[-65.91388250499995,-45.032019085999934],[-65.91120561099996,-45.03184062699995],[-65.90981362599996,-45.033339686999966],[-65.91042038899997,-45.03398214199996],[-65.90635151099997,-45.03451751999995],[-65.90374600099994,-45.03276861699993],[-65.90171156199995,-45.03291138399993],[-65.89874913299997,-45.03533843399998],[-65.89582239599997,-45.03469597999998],[-65.89450179499994,-45.03515997499994],[-65.89310980999994,-45.03701595399997],[-65.89332396199995,-45.03876485799998],[-65.88825570999995,-45.03944300499995],[-65.88686372499996,-45.038836241999945],[-65.88607850299996,-45.03626642399996],[-65.88693510899998,-45.03062710199998],[-65.88597142699996,-45.02916373299996],[-65.88925508299997,-45.02787882399997],[-65.89450179499994,-45.02284626399995],[-65.89375226499993,-45.02152566299998],[-65.89050429999998,-45.01981245099995],[-65.89557255199998,-45.01320944699995],[-65.89510855699996,-45.011210699999936],[-65.89164644199997,-45.00799842699996],[-65.88739910399994,-45.006035371999985],[-65.87533523699994,-45.00250187299997],[-65.87297956999998,-45.002252028999976],[-65.86905345899999,-45.004572003999954],[-65.85434838999998,-45.001895109999964],[-65.84653186099996,-45.002073569999936],[-65.84210606399995,-45.00367970599996],[-65.84128514999998,-45.00510738199995],[-65.83882240699995,-45.006642134999936],[-65.83143418099996,-45.00849811399996],[-65.82765083799995,-45.01260268499993],[-65.82468840899998,-45.013780517999976],[-65.82318934899996,-45.01606479999998],[-65.82315365699998,-45.018349082999976],[-65.82672284799997,-45.01949122399998],[-65.82433148999996,-45.02373856199995],[-65.82429579799998,-45.027022217999956],[-65.82840036799996,-45.031733550999945],[-65.83075603499998,-45.03312553599994],[-65.83275478199994,-45.03323261099996],[-65.83354000399999,-45.03433906099997],[-65.83279047399998,-45.035052898999936],[-65.82722253499998,-45.03544550999993],[-65.82747237799998,-45.03669472699994],[-65.82900713099997,-45.03723010599998],[-65.82872159499993,-45.039121776999934],[-65.82326073199994,-45.03969284799996],[-65.82218997499996,-45.04047806999995],[-65.81887062699997,-45.04037099399994],[-65.81840663199995,-45.039478696999936],[-65.81333837999995,-45.03719441399994],[-65.81059010299998,-45.03433906099997],[-65.80841289599994,-45.03437475299995],[-65.80834151199997,-45.03284],[-65.80420124999995,-45.03141232399997],[-65.80352310299997,-45.03194770299996],[-65.80288064899997,-45.03116247999998],[-65.80295203299994,-45.02791451599995],[-65.80491508799997,-45.026379763999955],[-65.80802028499994,-45.02662960699996],[-65.81023318299998,-45.02869973799994],[-65.81383806699995,-45.02723636999997],[-65.81562266299994,-45.024666551999985],[-65.81605096599998,-45.021811198999956],[-65.81501589999993,-45.01888446199996],[-65.81294576899995,-45.01692140599994],[-65.80941226899995,-45.01542234599998],[-65.80752059799994,-45.015136810999934],[-65.80409417399994,-45.016457410999976],[-65.80320187599995,-45.01806354799993],[-65.80081051799993,-45.01938414799997],[-65.80032272799997,-45.02260593899996],[-65.79744357999994,-45.02515196199994],[-65.79499273599998,-45.02317700899994],[-65.79339849699994,-45.02334357199993],[-65.79301778299998,-45.024747453999964],[-65.79120939299997,-45.02574682699998],[-65.79104282999998,-45.02703173599997],[-65.78847301199994,-45.03012503499997],[-65.78733087099994,-45.02693655799993],[-65.78428516099996,-45.02667481699996],[-65.78430895599996,-45.025128166999934],[-65.78361891199995,-45.02465227499994],[-65.78076355899998,-45.026722405999976],[-65.77800338399999,-45.026460664999945],[-65.77662329699996,-45.02389084799995],[-65.77707539399995,-45.02053580799998],[-65.77545736099995,-45.019488844999955],[-65.77410106799994,-45.02020268299998],[-65.77388691699997,-45.02191589499995],[-65.77219749899996,-45.02403361499995],[-65.77060325999997,-45.020964110999955],[-65.76884245899998,-45.020559601999935],[-65.75661202999999,-45.02427156099998],[-65.74045548899994,-45.023962230999985],[-65.73569656699993,-45.02548508599995],[-65.73303157099997,-45.02772177999998],[-65.73298398199995,-45.030886462999945],[-65.73700527099999,-45.031576506999954],[-65.73802843899995,-45.03402735099996],[-65.73453063099998,-45.03402735099996],[-65.73748116299998,-45.036644758999955],[-65.73762393099997,-45.03750136399998],[-65.73662455699997,-45.03807243499995],[-65.73686250299994,-45.04019015499995],[-65.73131835899994,-45.040237744999956],[-65.72872474699994,-45.04147506399994],[-65.72270470999996,-45.04173680499997],[-65.72196707699999,-45.043878319999976],[-65.71923069699994,-45.04463974799995],[-65.71309168799996,-45.04497287199996],[-65.70759513299998,-45.04409247099994],[-65.70136094499998,-45.045091844999945],[-65.69902907299996,-45.04732853799993],[-65.69860076999998,-45.04885139299995],[-65.69898148399994,-45.05008871299998],[-65.70226513999995,-45.05206366599998],[-65.70007603599998,-45.053848261999974],[-65.69950496499996,-45.05587080299995],[-65.69776795899998,-45.056346695999935],[-65.69614992499999,-45.05927343299993],[-65.69322318799993,-45.059701735999965],[-65.69384184799998,-45.06022521699998],[-65.69274729599994,-45.06029660099995],[-65.69224760899993,-45.06177186699995],[-65.68993953199998,-45.062009812999975],[-65.68777422299996,-45.061058027999934],[-65.68829770399998,-45.060082448999935],[-65.68782181199998,-45.05848821099994],[-65.68515681599996,-45.05805990799996],[-65.68510922599995,-45.05708432899996],[-65.69067716499995,-45.053110628999946],[-65.69200966299996,-45.04949384799994],[-65.69745862899998,-45.04851826899994],[-65.69781554799994,-45.045924655999954],[-65.69346113499995,-45.04202233999996],[-65.68922569399996,-45.039833235999936],[-65.68634654599998,-45.04054707499995],[-65.68548993999997,-45.04009497699997],[-65.68603721599999,-45.03773931099994],[-65.68460953999994,-45.03685890999998],[-65.68439538799998,-45.034384270999965],[-65.68139726699997,-45.033408691999966],[-65.68173039199996,-45.03262346899993],[-65.68051686699994,-45.03262346899993],[-65.68199213199995,-45.029672937999976],[-65.68130208899998,-45.02886392099998],[-65.67882744899998,-45.02867356399997],[-65.67935093099999,-45.031386149999946],[-65.67882744899998,-45.03333730799994],[-65.68018374199994,-45.03440806499998],[-65.68280114899994,-45.03478877899994],[-65.68208731099998,-45.03685890999998],[-65.68058824999997,-45.03707306199993],[-65.68387190699997,-45.038167613999974],[-65.68215869499994,-45.04021394999995],[-65.67835155699998,-45.04095158299998],[-65.67682870199997,-45.04249823299995],[-65.67306915399996,-45.04354519499998],[-65.67273602899996,-45.044449390999944],[-65.66966652399998,-45.04399729299996],[-65.66919063199998,-45.04206992999997],[-65.66769157199997,-45.04237925999996],[-65.66731085799995,-45.04325965999993],[-65.66395581799998,-45.04316448199995],[-65.66043421599994,-45.044449390999944],[-65.65931586899995,-45.04335483899996],[-65.65974417199993,-45.04280756299994],[-65.65841167399998,-45.042403053999976],[-65.65838787899997,-45.04068984199995],[-65.65700779199994,-45.04045189599998],[-65.65729332699993,-45.03952390599994],[-65.65367654699998,-45.03928595999997],[-65.65220128099998,-45.04054707499995],[-65.65246302099996,-45.04145126999998],[-65.65067842599996,-45.04195095699998],[-65.65013114999994,-45.04349760599996],[-65.65036909599996,-45.04442559599994],[-65.65355757299994,-45.04466354199997],[-65.65303409199998,-45.046424342999956],[-65.64963146299993,-45.049422463999974],[-65.64910798099999,-45.048589652999965],[-65.64865588399994,-45.04973179399997],[-65.64558637899995,-45.05092152499998],[-65.64492012999995,-45.05056460499998],[-65.64589570899994,-45.04797099299998],[-65.64525325499994,-45.04728094899997],[-65.64618124399993,-45.04585327299998],[-65.64354004299997,-45.04454456899998],[-65.64284999899996,-45.04152265399995],[-65.64187441999997,-45.04064225299993],[-65.63663960599996,-45.04007118199996],[-65.63723447099994,-45.038548326999944],[-65.63590197299993,-45.03788207799994],[-65.63759138999995,-45.03704926699993],[-65.63635406999998,-45.03555020599998],[-65.63402219899996,-45.035264670999936],[-65.63178550499998,-45.03709685599995],[-65.62959640099996,-45.03723962399994],[-65.62831149199997,-45.03845314899996],[-65.62683622599997,-45.03814381899997],[-65.62666966399996,-45.03731100799996],[-65.62507542499998,-45.03769172099993],[-65.62521819299997,-45.03671614199993],[-65.62452814899996,-45.03643060699994],[-65.62167279599998,-45.037334801999975],[-65.62248181299998,-45.03604989299998],[-65.62188694699995,-45.03533605499996],[-65.61967404899997,-45.03576435799994],[-65.61772289099997,-45.03495534099994],[-65.61862708599995,-45.03233793399994],[-65.61696146299994,-45.03200480999993],[-65.61360642299996,-45.03436047599996],[-65.61132214099996,-45.03381319999994],[-65.61094142699994,-45.033051771999965],[-65.61213115699996,-45.031290970999976],[-65.61151249699998,-45.03150512299993],[-65.61210736299995,-45.029173250999975],[-65.60677736999997,-45.02979191099996],[-65.60825263599997,-45.026460664999945],[-65.60225639399994,-45.027150708999955],[-65.60178050199994,-45.02655584399997],[-65.60380304399996,-45.02550888099995],[-65.60399340099997,-45.024200176999955],[-65.60513554199997,-45.02367669599994],[-65.60389822199994,-45.02279629499998],[-65.60570661299994,-45.02044062899995],[-65.60706290499996,-45.01944125499995],[-65.60868093899995,-45.019488844999955],[-65.60860955499999,-45.01860844399994],[-65.61022758899998,-45.01684764299995],[-65.61315432599997,-45.016300366999985],[-65.61501030499994,-45.01756148099997],[-65.61669972199996,-45.01634795599995],[-65.61962645999995,-45.015848268999946],[-65.62003096799998,-45.01453956599994],[-65.61722320399997,-45.013207067999986],[-65.61876985399994,-45.013040504999935],[-65.62203685399999,-45.01065390599996],[-65.62545137999996,-45.01015421899996],[-65.62504687199998,-45.007548708999934],[-65.62307191899998,-45.00413418299996],[-65.62078763599993,-45.00240907399996],[-65.61450881487286,-45],[-65.61175758199994,-45.00008909899998],[-65.60937812099996,-45.00290875999997],[-65.60576133999996,-45.003432241999974],[-65.60639189699998,-45.00549047599998],[-65.60561857299996,-45.00656123299996],[-65.60421469099998,-45.00609723799994],[-65.60353654399995,-45.00346793399996],[-65.60164487299994,-45.00406279899994],[-65.60024099099996,-45.00358690699994],[-65.59873003299998,-45.00478853499993],[-65.59441131099999,-45.00521683799997],[-65.59301932699998,-45.00658502799996],[-65.58685652299994,-45.007631989999936],[-65.58704687899996,-45.00707281699994],[-65.58564299699998,-45.00745353099995],[-65.58431049899997,-45.00666830899996],[-65.58689221399999,-45.00457438299998],[-65.58586904599997,-45.003432241999974],[-65.58660667899994,-45.00248045699993],[-65.58352527699998,-45.00270650599998],[-65.58451387569177,-45],[-65.1453307937753,-45],[-65.14043451299995,-45.00416860699994],[-65.12561230999995,-45.021373067999946],[-65.11258673899994,-45.039527687999964],[-65.10270527099993,-45.05799485999995],[-65.09462043299993,-45.07772899199995],[-65.09102717199994,-45.09745626599994],[-65.08878138399996,-45.11717668099993],[-65.08967969899999,-45.13752604399997],[-65.09372211799996,-45.15723252099997],[-65.09686622099997,-45.167083186999946],[-65.10495105899997,-45.18677937599995],[-65.10989179299997,-45.19598975599996],[-65.12156989199997,-45.21440601299997],[-65.14447693099999,-45.239797899999985],[-65.15346008399996,-45.24741323899997],[-65.17232470499994,-45.26232363599996],[-65.20511321299995,-45.281986640999946],[-65.24104582399997,-45.297204902999965],[-65.25407139599997,-45.30164278799998],[-65.26709696799998,-45.305763368999976],[-65.29584305699996,-45.312102134999975],[-65.40559344654758,-46],[-67.59569251645668,-46]]],[[[-65.97473907499995,-45.051921843999935],[-65.97310638399995,-45.05107498199993],[-65.97499084499998,-45.05049896199995],[-65.97677612299998,-45.051013946999944],[-65.97473907499995,-45.051921843999935]]],[[[-65.84178161599993,-45.04882430999993],[-65.84313201899994,-45.04890441899994],[-65.84346771199995,-45.04926681499995],[-65.84078216599994,-45.04927062999997],[-65.84178161599993,-45.04882430999993]]],[[[-65.80326843299997,-45.04751586899994],[-65.80435943599997,-45.04723358199993],[-65.80622863799994,-45.047904967999955],[-65.80336761499996,-45.04798126199995],[-65.80326843299997,-45.04751586899994]]],[[[-65.85845947299998,-45.05049133299997],[-65.86001586899994,-45.049793242999954],[-65.86026000999993,-45.04838943499993],[-65.86186981199995,-45.04750442499994],[-65.86245727499994,-45.047927855999944],[-65.86158752399996,-45.04974365199996],[-65.86394500699998,-45.05112838699995],[-65.86199188199998,-45.05072784399994],[-65.85993194599996,-45.051605224999946],[-65.85845947299998,-45.05049133299997]]],[[[-65.84365844699994,-45.04821014399994],[-65.84334564199997,-45.04726409899996],[-65.84870910599994,-45.04587554899996],[-65.84623718299997,-45.047939300999985],[-65.84365844699994,-45.04821014399994]]],[[[-65.96180725099998,-45.04597854599996],[-65.96250915499996,-45.04428100599995],[-65.96414947499994,-45.04363632199994],[-65.96344757099996,-45.04598998999995],[-65.96180725099998,-45.04597854599996]]],[[[-65.91662597699997,-45.04826736399997],[-65.91584777799994,-45.048065185999974],[-65.91581726099997,-45.04711914099994],[-65.91862487799995,-45.04542922999997],[-65.91895294199998,-45.04788589499998],[-65.91662597699997,-45.04826736399997]]],[[[-65.91208648699995,-45.04610061599993],[-65.91215515099998,-45.04535674999994],[-65.91325378399995,-45.04547500599995],[-65.91291809099994,-45.046054839999954],[-65.91208648699995,-45.04610061599993]]],[[[-65.84347534199998,-45.041351317999954],[-65.84413146999998,-45.041744231999985],[-65.84367370599995,-45.042278289999956],[-65.84120178199998,-45.04224014299996],[-65.84347534199998,-45.041351317999954]]],[[[-66.24846649199998,-45.03243637099996],[-66.24784088099995,-45.03168487499994],[-66.24875640899995,-45.03044509899996],[-66.25064086899994,-45.03086471599994],[-66.24846649199998,-45.03243637099996]]],[[[-66.07056426999998,-45.00583267199994],[-66.06907653799993,-45.004848479999964],[-66.07092285199997,-45.00414657599998],[-66.07278442399996,-45.00495147699996],[-66.07056426999998,-45.00583267199994]]],[[[-65.75471496599994,-45.036041259999934],[-65.75956726099997,-45.034713744999976],[-65.76046752899998,-45.03618240399993],[-65.76301574699994,-45.035423278999986],[-65.76696014399994,-45.03755187999997],[-65.76586914099994,-45.03855133099995],[-65.76071166999998,-45.03923034699994],[-65.76005554199998,-45.038242339999954],[-65.75135803199998,-45.03688430799997],[-65.75218200699999,-45.035884856999985],[-65.75471496599994,-45.036041259999934]]],[[[-65.91529083299997,-45.041225432999966],[-65.91500091599994,-45.03997039799998],[-65.91651153599997,-45.03983688399995],[-65.91672515899995,-45.04071044899996],[-65.91529083299997,-45.041225432999966]]],[[[-65.87502288799993,-45.040443419999974],[-65.87905120799996,-45.03889465299994],[-65.88088989299996,-45.039798736999956],[-65.87645721399997,-45.041671752999946],[-65.87467193599997,-45.04165267899998],[-65.87502288799993,-45.040443419999974]]],[[[-65.74801635699998,-45.03651046799996],[-65.74732971199995,-45.035972594999976],[-65.74781036399997,-45.03510665899995],[-65.74978637699996,-45.03557586699998],[-65.74889373799994,-45.03662872299998],[-65.74801635699998,-45.03651046799996]]],[[[-65.86140441899994,-45.038993834999985],[-65.86512756299999,-45.038051604999964],[-65.86950683599997,-45.03124237099996],[-65.87283325199996,-45.030303954999965],[-65.87292480499997,-45.03221130399993],[-65.87452697799995,-45.03287506099997],[-65.87000274699994,-45.03452682499994],[-65.86670684799998,-45.03950118999995],[-65.861763,-45.03986358599997],[-65.86140441899994,-45.038993834999985]]],[[[-65.85848236099997,-45.03455352799995],[-65.85854339599996,-45.03356933599997],[-65.86064147899998,-45.03247833299997],[-65.86232757599998,-45.032695769999975],[-65.85978698699995,-45.03501129099993],[-65.85848236099997,-45.03455352799995]]],[[[-66.69851684599996,-45.247474669999974],[-66.69612884499998,-45.24540710399998],[-66.69674682599998,-45.244071959999985],[-66.69831085199996,-45.243927001999964],[-66.70063781699997,-45.24606323199998],[-66.69992065399998,-45.24716949499998],[-66.69851684599996,-45.247474669999974]]],[[[-66.40449523899997,-45.185596465999936],[-66.40641021699997,-45.184116363999976],[-66.40930175799997,-45.18379211399997],[-66.40760803199998,-45.186370849999946],[-66.40420532199994,-45.187328338999976],[-66.40206146199995,-45.18926620499997],[-66.40390777599998,-45.191455840999936],[-66.40861511199995,-45.19187927199994],[-66.40945434599996,-45.19273376499996],[-66.40821838399995,-45.193752288999974],[-66.40091705299994,-45.19379424999994],[-66.39474487299998,-45.19229507399996],[-66.39287567099996,-45.19062423699995],[-66.39768981899994,-45.18866348299997],[-66.40211486799996,-45.18555068999996],[-66.40449523899997,-45.185596465999936]]],[[[-66.50966644299996,-45.17412948599997],[-66.50869750999993,-45.17320251499996],[-66.51065063499993,-45.172252654999966],[-66.51166534399994,-45.17378616299993],[-66.50966644299996,-45.17412948599997]]],[[[-66.50248718299997,-45.18616485599995],[-66.50110626199995,-45.18570709199997],[-66.50097656199995,-45.184658050999985],[-66.50430297899999,-45.181243895999955],[-66.50768279999994,-45.18059539799998],[-66.50757598899997,-45.18220519999994],[-66.50576019299996,-45.18318557699996],[-66.50521087599998,-45.18536376999998],[-66.50248718299997,-45.18616485599995]]],[[[-66.48746490499997,-45.18309783899997],[-66.48637390099998,-45.18227004999994],[-66.48690795899995,-45.18110656699997],[-66.48578643799993,-45.17940139799998],[-66.48910522499995,-45.17900466899994],[-66.48891448999996,-45.18128204299995],[-66.48987579299995,-45.18217086799996],[-66.48746490499997,-45.18309783899997]]],[[[-66.51522064199997,-45.18223953199998],[-66.51487731899994,-45.18120193499993],[-66.51563262899998,-45.180213927999944],[-66.51750183099995,-45.17829894999994],[-66.51876068099995,-45.17849731399997],[-66.51862335199996,-45.180583953999985],[-66.51522064199997,-45.18223953199998]]],[[[-66.49806213399995,-45.17858505199996],[-66.50204467799995,-45.17595291099997],[-66.50433349599996,-45.17656707799995],[-66.50340270999993,-45.17885971099997],[-66.49844360399999,-45.18200683599997],[-66.49532318099995,-45.18273162799994],[-66.49272155799997,-45.18081664999994],[-66.49281310999999,-45.17839431799996],[-66.49806213399995,-45.17858505199996]]],[[[-66.49703216599994,-45.17052841199995],[-66.49584197999997,-45.16962432899993],[-66.49616241499996,-45.16872405999993],[-66.49970245399999,-45.16697311399997],[-66.50084686299994,-45.16727447499994],[-66.50023651099997,-45.16852569599996],[-66.49703216599994,-45.17052841199995]]],[[[-66.36227416999998,-45.15509414699994],[-66.36049652099996,-45.15119552599998],[-66.36222839399994,-45.14937591599994],[-66.36432647699996,-45.14999771099997],[-66.36328124999994,-45.15474700899995],[-66.36227416999998,-45.15509414699994]]],[[[-66.05103301999998,-45.128883361999954],[-66.05055236799996,-45.12837219199997],[-66.05110931399997,-45.12772369399994],[-66.05334472699997,-45.12731552099996],[-66.05602264399994,-45.12907028199993],[-66.06008911099997,-45.128940581999984],[-66.06282806399997,-45.13164520299995],[-66.06070709199997,-45.13224410999993],[-66.05827331499995,-45.13068389899996],[-66.05395507799994,-45.13061141999998],[-66.05103301999998,-45.128883361999954]]],[[[-65.93836975099998,-45.118202208999946],[-65.93891906699997,-45.11804580699993],[-65.94024658199999,-45.118846892999954],[-65.93736267099996,-45.11926650999993],[-65.93836975099998,-45.118202208999946]]],[[[-66.09631347699997,-45.11952590899995],[-66.09378051799996,-45.11814880399993],[-66.09371185299995,-45.11802291899994],[-66.09539794899996,-45.11713409399994],[-66.09745788599997,-45.11789703399995],[-66.09748077399996,-45.119125365999935],[-66.09631347699997,-45.11952590899995]]],[[[-66.03570556599993,-45.09350967399996],[-66.03667449999995,-45.09176635699998],[-66.03895568799999,-45.09088134799998],[-66.03746032699996,-45.09276580799997],[-66.03570556599993,-45.09350967399996]]],[[[-66.04499816899994,-45.09160232499994],[-66.04387664799998,-45.09103012099996],[-66.04229736299993,-45.09057617199994],[-66.04556274399994,-45.09024047899993],[-66.04602813699995,-45.09150695799997],[-66.04499816899994,-45.09160232499994]]],[[[-66.29492950399998,-45.07782745399993],[-66.29612731899994,-45.076236724999944],[-66.30044555699993,-45.07583618199993],[-66.29838561999998,-45.07769393899997],[-66.29492950399998,-45.07782745399993]]],[[[-66.40106201199995,-45.069725036999955],[-66.40139007599998,-45.06872558599997],[-66.40242004399994,-45.068824767999956],[-66.40229797399996,-45.06957626299993],[-66.40106201199995,-45.069725036999955]]],[[[-66.40806579599996,-45.08838272099996],[-66.40936279299996,-45.08592987099996],[-66.40998077399996,-45.08714675899995],[-66.40906524699994,-45.08901977499994],[-66.41053008999995,-45.09037780799997],[-66.40995788599997,-45.09138870199996],[-66.40750884999994,-45.089759826999966],[-66.40294647199994,-45.08868026699997],[-66.40595245399999,-45.08799362199994],[-66.40806579599996,-45.08838272099996]]],[[[-66.40718078599997,-45.08528900099998],[-66.40433502199994,-45.08433532699996],[-66.40309143099995,-45.082401275999985],[-66.40852355999994,-45.08369445799997],[-66.40937805199997,-45.08478546099997],[-66.40718078599997,-45.08528900099998]]],[[[-65.71522521999998,-45.058197020999955],[-65.71508789099994,-45.05741882299998],[-65.71713256799995,-45.05730819699994],[-65.71652984599996,-45.05812454199997],[-65.71522521999998,-45.058197020999955]]],[[[-66.33431243899997,-45.05717086799996],[-66.33554077099996,-45.05663299599996],[-66.33587646499996,-45.05458068799993],[-66.33731841999997,-45.05361175499996],[-66.34286498999995,-45.05210113499993],[-66.34431457499994,-45.053390502999946],[-66.34384918199999,-45.05459976199995],[-66.33942413299997,-45.05735778799993],[-66.33357238799994,-45.058715819999975],[-66.33431243899997,-45.05717086799996]]],[[[-66.33896636999998,-45.066089629999965],[-66.33802032499995,-45.06587219199997],[-66.33847808799999,-45.06357955899995],[-66.34155273399995,-45.06473541299994],[-66.34075927699996,-45.06589126599994],[-66.33896636999998,-45.066089629999965]]],[[[-65.57327270499997,-45.06588745099998],[-65.57253265399999,-45.06547164899996],[-65.57560729999994,-45.06375122099996],[-65.57822418199999,-45.06385421799996],[-65.57727050799997,-45.065181731999985],[-65.57327270499997,-45.06588745099998]]],[[[-65.80760955799997,-45.06505203199998],[-65.80743408199999,-45.06381225599995],[-65.80517578099995,-45.06270599399994],[-65.80638122599998,-45.061027526999965],[-65.81117248499999,-45.062461852999945],[-65.81214141799995,-45.06348037699996],[-65.81037139899996,-45.06739807099996],[-65.80809020999993,-45.06755065899995],[-65.80979919399994,-45.066154479999966],[-65.80760955799997,-45.06505203199998]]],[[[-65.61579132099996,-45.06153869599996],[-65.61991882299998,-45.059440612999936],[-65.62480926499995,-45.060184478999986],[-65.62061309799998,-45.06226730299994],[-65.61579132099996,-45.06153869599996]]],[[[-65.58100128199999,-45.05955123899997],[-65.58407592799995,-45.057838439999955],[-65.58471679699994,-45.05657577499994],[-65.58881378199999,-45.056060790999936],[-65.59101867699997,-45.05658340499997],[-65.59082031299994,-45.05815887499995],[-65.59287261999998,-45.060173034999934],[-65.59014129599996,-45.06144714399994],[-65.58569335899995,-45.06099319499998],[-65.58000945999999,-45.06341552699996],[-65.57770538299997,-45.06305313099995],[-65.57730102499994,-45.05945205699993],[-65.58100128199999,-45.05955123899997]]],[[[-66.31976318399995,-45.066326140999934],[-66.32336425799997,-45.066024779999964],[-66.32381439199997,-45.06656265299995],[-66.31781005899995,-45.06895828199998],[-66.31584930399998,-45.068737029999966],[-66.31887817399996,-45.06752014199998],[-66.31976318399995,-45.066326140999934]]],[[[-66.02788543699995,-45.10062026999998],[-66.02693939199997,-45.099697112999934],[-66.02977752699996,-45.099380492999956],[-66.02926635699998,-45.10034942599998],[-66.02788543699995,-45.10062026999998]]],[[[-65.96414184599996,-45.09860229499998],[-65.96407318099995,-45.09682846099997],[-65.96571350099998,-45.096038817999954],[-65.96647643999995,-45.09642410299995],[-65.96688842799995,-45.09736633299997],[-65.96624755899995,-45.09874725299994],[-65.96414184599996,-45.09860229499998]]],[[[-65.95083618199993,-45.10877227799995],[-65.95592498799994,-45.10634612999996],[-65.95588684099994,-45.10524749799998],[-65.95953369099993,-45.10237121599994],[-65.96189117399996,-45.10212707499994],[-65.96368408199999,-45.103725432999966],[-65.96274566699998,-45.10592269899996],[-65.96031188999996,-45.107837676999964],[-65.95328521699997,-45.10910034199998],[-65.95375823999996,-45.11218643199993],[-65.95755767799994,-45.11679458599997],[-65.95714569099994,-45.11782073999996],[-65.95392608599997,-45.11901092499994],[-65.95033264199998,-45.11805343599997],[-65.94733428999996,-45.119327544999976],[-65.94544219999995,-45.118816375999984],[-65.94443511999998,-45.11009597799995],[-65.94482421899994,-45.10813140899995],[-65.95083618199993,-45.10877227799995]]],[[[-66.41954803499993,-45.09645843499993],[-66.41611480699999,-45.09574890099998],[-66.41496276899994,-45.09457778899997],[-66.41997528099995,-45.09432983399995],[-66.42137908899997,-45.09563064599996],[-66.41954803499993,-45.09645843499993]]],[[[-65.99297332799995,-45.09107971199995],[-65.99872589099994,-45.08781433099995],[-66.00398254399994,-45.08678817699996],[-66.00545501699997,-45.082241057999966],[-66.01068115199996,-45.07937622099996],[-66.01313018799993,-45.08018112199994],[-66.01348876999998,-45.08274078399995],[-66.01975250199996,-45.08640670799997],[-66.01914977999996,-45.08930969199997],[-66.01566314699994,-45.09238433799993],[-66.01525878899997,-45.098247527999945],[-66.00783538799993,-45.10424804699994],[-66.00277709999995,-45.10484695399998],[-66.00193786599993,-45.10595321699998],[-65.99426269499997,-45.10554122899998],[-65.99401855499997,-45.10813903799993],[-65.99318695099998,-45.10904312099996],[-65.98721313499993,-45.109409331999984],[-65.98397064199997,-45.10715484599996],[-65.98033142099996,-45.10839080799997],[-65.97676849399994,-45.107574462999935],[-65.97247314499998,-45.109233855999946],[-65.97089385999993,-45.11070251499996],[-65.96756744399994,-45.11095809899996],[-65.96412658699995,-45.10888671899994],[-65.96501159699994,-45.10695266699997],[-65.97161865199996,-45.10554885899995],[-65.97299957299998,-45.10609054599996],[-65.98101043699995,-45.10533904999994],[-65.98593139599996,-45.103279113999974],[-65.98771667499994,-45.10144805899995],[-65.98810577399996,-45.099628447999976],[-65.98601531999998,-45.097911834999934],[-65.98620605499997,-45.096797942999956],[-65.98526763899997,-45.09541702299998],[-65.98232269299996,-45.094646453999985],[-65.98201751699997,-45.09376144399994],[-65.98602294899996,-45.092006682999966],[-65.98675537099996,-45.08945083599997],[-65.98877716099997,-45.08838272099996],[-65.99018859899996,-45.08881378199993],[-65.99153137199994,-45.09083557099996],[-65.99297332799995,-45.09107971199995]]],[[[-65.96598052999997,-45.05299377399996],[-65.96436309799998,-45.05216598499993],[-65.96287536599993,-45.049915313999975],[-65.96576690699999,-45.04892349199997],[-65.96940612799995,-45.05053710899995],[-65.96752166699997,-45.05283737199994],[-65.96598052999997,-45.05299377399996]]],[[[-65.62335967999996,-45.05379486099997],[-65.62589263899997,-45.05236816399997],[-65.62625884999994,-45.052593230999946],[-65.62557220499997,-45.055652617999954],[-65.62288665799997,-45.056236266999974],[-65.62197875999993,-45.05511474599996],[-65.62078857399996,-45.05498886099997],[-65.62154388399995,-45.05403137199994],[-65.62335967999996,-45.05379486099997]]],[[[-65.71040344199997,-45.05282592799995],[-65.71765899699994,-45.04835891699997],[-65.72070312499994,-45.04936981199995],[-65.72064971899994,-45.050083159999986],[-65.71952056899994,-45.05022048899997],[-65.72039794899996,-45.05243682899993],[-65.72241973899997,-45.05283737199994],[-65.72300720199996,-45.05390167199994],[-65.72160339399994,-45.055088042999955],[-65.71293640099998,-45.05811309799998],[-65.71038055399998,-45.05735015899995],[-65.70648193399995,-45.05779647799994],[-65.70491027799994,-45.05696487399996],[-65.70480346699998,-45.05568313599997],[-65.70777130099998,-45.05503463699995],[-65.71040344199997,-45.05282592799995]]],[[[-65.59758758499999,-45.04343032799994],[-65.60300445599995,-45.04105377199994],[-65.60703277599998,-45.04378890999993],[-65.60830688499993,-45.04349899299996],[-65.60923767099996,-45.04198455799997],[-65.61129760699998,-45.04321670499996],[-65.61639404299996,-45.04226303099995],[-65.61871337899998,-45.04340743999995],[-65.61839294399994,-45.04594802899993],[-65.62257385299995,-45.04459381099997],[-65.62401580799997,-45.04605865499997],[-65.62258911099997,-45.049587249999945],[-65.61547851599994,-45.05447006199995],[-65.61454772899998,-45.05587005599995],[-65.61509704599996,-45.05855941799996],[-65.61663055399998,-45.06002426099997],[-65.61429595899995,-45.06027984599996],[-65.61285400399998,-45.059425353999984],[-65.60929107699997,-45.06020355199996],[-65.60429382299998,-45.05854415899995],[-65.60245513899997,-45.05673599199997],[-65.59986114499998,-45.05754089399994],[-65.59767150899995,-45.05604171799996],[-65.59595489499998,-45.056388854999966],[-65.59468841599994,-45.05538940399998],[-65.59474182099996,-45.05413436899994],[-65.58951568599997,-45.05438232399996],[-65.58662414599996,-45.05226516699997],[-65.58804321299993,-45.05107498199993],[-65.58593749999994,-45.05068588299997],[-65.58509063699995,-45.04637145999993],[-65.59034728999995,-45.04250335699993],[-65.59298706099997,-45.042427062999934],[-65.59253692599998,-45.043647765999935],[-65.59533691399997,-45.04506301899994],[-65.59758758499999,-45.04343032799994]]]]}}]}