{"type":"FeatureCollection","name":"area_centolla_C3","crs":{"type":"name","properties":{"name":"urn:ogc:def:crs:OGC:1.3:CRS84"}},"features":[{"type":"Feature","properties":{"FID":0},"geometry":{"type":"MultiPolygon","coordinates":[[[[-57.55785385559274,-48],[-62,-48],[-62,-43.5],[-54.36348179334982,-43.5],[-54.53023719799995,-43.56290626499998],[-54.64672088599997,-43.61215591399997],[-54.74687957799995,-43.65289306599993],[-54.85230636599994,-43.694166182999936],[-54.97198486299993,-43.73908996599994],[-55.11525535599998,-43.79023933399998],[-55.30937385599998,-43.85650253299997],[-55.41372108499996,-43.891111373999934],[-55.55488777199997,-43.936203002999946],[-55.563467025999955,-43.98991966199998],[-55.57367515599998,-44.03980255099998],[-55.58988380399995,-44.10350799599996],[-55.60951232899998,-44.166641234999986],[-55.619430541999975,-44.22364425699993],[-55.63113021899994,-44.27679252599995],[-55.64830779999994,-44.34010696399997],[-55.672435759999985,-44.41324615499997],[-55.68099975599995,-44.45932769799998],[-55.69113349899993,-44.505207061999954],[-55.69489479099997,-44.56582450899998],[-55.70057487499997,-44.61916160599998],[-55.71054458599997,-44.68289184599996],[-55.720682143999966,-44.732192992999956],[-55.73288917499997,-44.781211852999945],[-55.74826049799998,-44.83337020899995],[-55.77248191799998,-44.90588378899997],[-55.79909706099994,-44.97787475599995],[-55.80644798299994,-45.020036696999966],[-55.81653213499993,-45.06905174299993],[-55.82190704299995,-45.10775566099994],[-55.82789039599999,-45.14283180199993],[-55.83571433999998,-45.181276320999984],[-55.845657348999964,-45.22302818299994],[-55.85509872399996,-45.25765228299997],[-55.86656951899994,-45.29555892899998],[-55.88926887499997,-45.36050033599997],[-55.90694236799993,-45.40449523899997],[-55.921693801999936,-45.43807029699997],[-55.937461852999945,-45.471399306999956],[-55.95423126199995,-45.50446319599996],[-55.96373939499995,-45.54602050799997],[-55.97661018399998,-45.594255446999966],[-55.991512298999965,-45.64216041599997],[-56.00716590899998,-45.68630790699996],[-56.00694465599997,-45.68905448899994],[-55.88037109399994,-45.70910453799996],[-55.74452781699995,-45.73207664499995],[-55.62366485599995,-45.75378417999997],[-55.48880577099993,-45.77942848199996],[-55.373662948999936,-45.80252647399993],[-55.23511314399997,-45.83180618299997],[-55.10197448699995,-45.86148643499996],[-54.96477127099996,-45.89367675799997],[-54.832992553999986,-45.92615318299994],[-54.715936660999944,-45.95629501299993],[-54.585533141999974,-45.991327285999944],[-54.455902099999946,-46.02770042399993],[-54.34082984899993,-46.06129455599995],[-54.21273231499998,-46.10016632099996],[-54.080957412999965,-46.14180183399998],[-53.97759056099994,-46.17602729799995],[-53.93150138899995,-46.97728729199997],[-53.930398940999964,-46.98030662499997],[-52.63983535799997,-47.43432617199994],[-52.55884551999998,-47.46067619299998],[-52.49750328099998,-47.48335456799998],[-52.45045089699994,-47.50252342199997],[-52.39621162399993,-47.52664184599996],[-52.35154342699997,-47.54825401299996],[-52.31198883099995,-47.56885528599997],[-52.27346992499997,-47.59032821699998],[-52.22135543799993,-47.62179946899994],[-52.18197441099994,-47.64765357999994],[-52.13389396699995,-47.681898116999946],[-51.48830223099998,-47.95658492999996],[-51.394515990999935,-47.97940826399997],[-51.32219362331434,-48],[-57.55785385559274,-48]]]]}}]}