{"type":"FeatureCollection","name":"area_centolla_S1","crs":{"type":"name","properties":{"name":"urn:ogc:def:crs:OGC:1.3:CRS84"}},"features":[{"type":"Feature","properties":{"FID":0},"geometry":{"type":"MultiPolygon","coordinates":[[[[-68.31268887086523,-52],[-68.33259787499998,-51.97708064899996],[-68.34158102799995,-51.968758528999956],[-68.34742007699998,-51.964874340999984],[-68.37616616599996,-51.93295570799995],[-68.38065774199998,-51.92962375299993],[-68.39997152099994,-51.91157133799993],[-68.41434456599995,-51.89490109399998],[-68.42871760999998,-51.88128244899997],[-68.45701454199997,-51.84652221699997],[-68.49609125599994,-51.784164327999974],[-68.50597272499994,-51.77190526299995],[-68.51809998099998,-51.75239530699997],[-68.53292218299998,-51.73287687499993],[-68.54280365099999,-51.71558204199994],[-68.55493090799996,-51.698280558999954],[-68.56840563699996,-51.674549972999955],[-68.57199889799995,-51.670360924999954],[-68.56526153299995,-51.642703436999966],[-68.56391405999995,-51.63292147699997],[-68.56301574499997,-51.584259679999946],[-68.56166827199996,-51.57446505299998],[-68.56166827199996,-51.56410842599996],[-68.56391405999995,-51.54450831799994],[-68.56615984899997,-51.53414483199998],[-68.57289721299998,-51.51453174599993],[-68.59849919899995,-51.45956991999998],[-68.60972813999996,-51.440766673999974],[-68.61646550499995,-51.43150251199995],[-68.62904191899997,-51.41830483899997],[-68.63892338699998,-51.40426055399996],[-68.64655906699994,-51.395269936999966],[-68.66003379599994,-51.38262387499998],[-68.66677115999994,-51.368849721999936],[-68.66811863299995,-51.36744396199998],[-68.67126273699995,-51.35816485799995],[-68.68473746599994,-51.331723110999974],[-68.68922904299995,-51.319622305999985],[-68.69012735799998,-51.31005195499995],[-68.69686472199999,-51.27992039999998],[-68.69911051099996,-51.26160647699999],[-68.70360208699998,-51.241875583999956],[-68.72156839299998,-51.204081273999975],[-68.72695828399998,-51.19420448799997],[-68.73504312199998,-51.18234953399997],[-68.74043301399996,-51.170491513999934],[-68.75390774299996,-51.147331304999966],[-68.76289089599999,-51.12811641199994],[-68.77411983699994,-51.110024461999956],[-68.77277236399993,-51.10719695199998],[-68.76738247199995,-51.08259027199995],[-68.76603499899994,-51.07268731999994],[-68.76603499899994,-51.055705872999965],[-68.76289089599999,-51.04098355199994],[-68.76199258099996,-51.01974114999996],[-68.76064510799995,-51.01719140399996],[-68.75974679199999,-51.00925795899997],[-68.75390774299996,-50.99111924799996],[-68.75211111199997,-50.98119662399995],[-68.74896700899995,-50.97098827299993],[-68.74806869399998,-50.950848521999944],[-68.74896700899995,-50.94091724599997],[-68.75300942799998,-50.92133219699997],[-68.75525521599997,-50.91139458199996],[-68.75795016199999,-50.904294978999985],[-68.75795016199999,-50.88611503599998],[-68.76513668399997,-50.84632153299998],[-68.77906057099995,-50.816738534999956],[-68.78085720199994,-50.80421697699995],[-68.78310298999997,-50.79482359299993],[-68.79208614299995,-50.77517674799998],[-68.80286592599998,-50.75609143299994],[-68.80286592599998,-50.744978465999964],[-68.77995888599997,-50.69935904199997],[-68.77591646699994,-50.694794642999966],[-68.76917910299994,-50.68423776099996],[-68.76199258099996,-50.67482014899997],[-68.74806869399998,-50.651410580999936],[-68.73414480699995,-50.63855888099994],[-68.71123776699994,-50.60884364999998],[-68.70135629899994,-50.589118317999976],[-68.69327146099994,-50.57024283099997],[-68.68922904299995,-50.550501234999956],[-68.68833072699994,-50.54105666199996],[-68.68249167799996,-50.529606145999935],[-68.67350852499999,-50.521302773999935],[-68.64476243599995,-50.50497807199997],[-68.63353349499994,-50.497816323999984],[-68.62365202699993,-50.489507328999935],[-68.61646550499995,-50.48578212999996],[-68.61556718899993,-50.484635855999954],[-68.60658403599996,-50.48148345699997],[-68.60164330199996,-50.47890406399995],[-68.57783794699998,-50.473171572999945],[-68.54999017399996,-50.464284830999986],[-68.51899829599995,-50.45224204999994],[-68.50597272499994,-50.44650630899997],[-68.49025220699997,-50.43818824199997],[-68.45252296499996,-50.42470411599999],[-68.44533644299997,-50.42298245999996],[-68.44039570899997,-50.420399858999986],[-68.42647182199994,-50.41724315399995],[-68.38694594899994,-50.405188332999955],[-68.35864901799994,-50.39858557699995],[-68.33708945099994,-50.39112047799995],[-68.32720798299994,-50.38911044199995],[-68.30519925899995,-50.38221823799995],[-68.26432591299994,-50.37130352299994],[-68.21132531099994,-50.35291513699997],[-68.18572332599996,-50.34199364299997],[-68.15293481799995,-50.335094556999934],[-68.13272272399996,-50.32934454799994],[-68.10801905399995,-50.32474403799995],[-68.05636592499997,-50.312665566999954],[-68.01863668299995,-50.30518687199998],[-67.98944143599994,-50.29684385499996],[-67.97641586499998,-50.29166469099994],[-67.96249197799995,-50.287348286999986],[-67.91982200199993,-50.265472459999955],[-67.90589811499996,-50.26115366799996],[-67.87894865599998,-50.25078696199995],[-67.85828740499994,-50.241282153999975],[-67.83448204999996,-50.23235165999995],[-67.79540533499994,-50.21448562399996],[-67.77070166499993,-50.20180241999998],[-67.72488758499998,-50.17556049299998],[-67.72084516599995,-50.17238740899995],[-67.71500611699997,-50.16979109299996],[-67.66784456499994,-50.14151090599995],[-67.64134426399994,-50.11985654399996],[-67.63325942599994,-50.11523567199998],[-67.60451333699996,-50.09501408199998],[-67.58519955799994,-50.078830627999935],[-67.57352145999994,-50.066689432999965],[-67.56633493699997,-50.06090682399997],[-67.54836863199995,-50.04355479299994],[-67.53354642999994,-50.026196452999955],[-67.52366496099995,-50.009121264999976],[-67.52186833099995,-50.00391067099997],[-67.51782591199998,-50.00072613899994],[-67.51063938999994,-49.99175040799997],[-67.50255455199994,-49.98335223199996],[-67.48368993099996,-49.95061423499993],[-67.47785088199998,-49.94481756699997],[-67.46707109899995,-49.92626351599995],[-67.46078289199994,-49.91727381399994],[-67.46078289199994,-49.91466358499997],[-67.45314721199998,-49.90306084799994],[-67.45000310799998,-49.899869602999956],[-67.43518090599997,-49.873461162999945],[-67.42889269899996,-49.86446156299996],[-67.42619775299994,-49.854008298999986],[-67.42305364999999,-49.847619073999965],[-67.42215533399997,-49.842681363999986],[-67.41407049699995,-49.83106122099997],[-67.41002807799998,-49.82321603699995],[-67.40329071299993,-49.80316141999998],[-67.39924829499995,-49.783389273999944],[-67.39834997899999,-49.772918380999954],[-67.39834997899999,-49.75633481199998],[-67.39610419099995,-49.75313381799998],[-67.39206177199998,-49.73741676399993],[-67.39026514199998,-49.724024122999936],[-67.38712103799998,-49.71354033399996],[-67.38532440799997,-49.68324104399994],[-67.38622272299995,-49.66400279399994],[-67.38532440799997,-49.64767342899995],[-67.37813788499994,-49.630171564999955],[-67.37229883599997,-49.597192545999974],[-67.36735810199997,-49.58376102999995],[-67.36331568299994,-49.563606783999944],[-67.36241736799997,-49.55338041599998],[-67.36241736799997,-49.53964447599998],[-67.36062073699998,-49.53642912099997],[-67.35837494899994,-49.526781778999975],[-67.35523084599998,-49.503971357999944],[-67.35029011199998,-49.49168439199997],[-67.34534937799998,-49.47237003399994],[-67.34130695899995,-49.45158391199993],[-67.34130695899995,-49.43518296899998],[-67.34355274699993,-49.42551554399995],[-67.34355274699993,-49.42112062699994],[-67.34130695899995,-49.41965556599996],[-67.33546790899999,-49.403536997999936],[-67.33142549099995,-49.39503597299995],[-67.32648475699995,-49.38008230499997],[-67.32064570699998,-49.37099058399997],[-67.31660328799995,-49.360430332999954],[-67.31166255399995,-49.35602955599995],[-67.30447603199997,-49.34693335999998],[-67.29863698299994,-49.337835472999984],[-67.28875551499993,-49.319047386999955],[-67.28156899199996,-49.29937088299994],[-67.27977236199996,-49.28967656499998],[-67.27662825799996,-49.279098758999965],[-67.27572994299999,-49.26940043199994],[-67.27662825799996,-49.24940995299994],[-67.28156899199996,-49.22970548599994],[-67.28381478099993,-49.20616740699995],[-67.28965382999996,-49.18202917499997],[-67.28875551499993,-49.17172266399996],[-67.28965382999996,-49.15080853899997],[-67.28471309599996,-49.13106452699998],[-67.28156899199996,-49.11426115499995],[-67.26270437099998,-49.10040143499998],[-67.23800070099998,-49.078276796999944],[-67.22317849899997,-49.06912904899997],[-67.21689029199996,-49.06647293499998],[-67.20296640499998,-49.05850373299995],[-67.18544925699996,-49.05141891899996],[-67.17826273499998,-49.04935232399998],[-67.14861832999998,-49.04433308999995],[-67.12032139899998,-49.03695093799996],[-67.09247362499997,-49.027204808999954],[-67.06776995499996,-49.01686590799994],[-67.04396459999998,-49.00416087199994],[-66.99904883499994,-48.975488697999936],[-66.97838758399996,-48.95774502599994],[-66.89349678999997,-48.923126596999964],[-66.85980996599994,-48.90714071499997],[-66.83690292699998,-48.89351905299998],[-66.81713998999999,-48.87900491499994],[-66.77716495999994,-48.84759248399996],[-66.77132591099996,-48.84166338699998],[-66.75740202399999,-48.83098923199998],[-66.74931718699997,-48.82327869699998],[-66.73629161499997,-48.81319388999998],[-66.73045256599994,-48.80755737299995],[-66.71518120599995,-48.796282427999984],[-66.70035900399995,-48.78114625799998],[-66.61861231299997,-48.71342250899994],[-66.60379010999998,-48.69617988899995],[-66.57998475499994,-48.66256944199995],[-66.55393361199998,-48.649476085999936],[-66.54315382899995,-48.64263046999997],[-66.51530605499994,-48.62089689099997],[-66.49419564599998,-48.61911014999998],[-66.43355936399996,-48.61106903099994],[-66.42277958099999,-48.62238579199993],[-66.39987254099998,-48.638760795999985],[-66.37786381699993,-48.65215455099997],[-66.34013457499998,-48.66911483699994],[-66.31318511599994,-48.67833644299998],[-66.28533734199993,-48.685771984999974],[-66.27051513999999,-48.68904327299998],[-66.22649769099996,-48.694990523999934],[-66.19685328699995,-48.69617988899995],[-66.15103920699994,-48.694990523999934],[-66.10702175799997,-48.68904327299998],[-66.07827566899994,-48.682203061999985],[-66.05042789499998,-48.67387458699994],[-66.02437675199997,-48.66375957699995],[-65.99967308199996,-48.65215455099997],[-65.97766435699998,-48.638760795999985],[-65.95700310599995,-48.624172415999965],[-65.93903679999994,-48.607792649999965],[-65.93095196299998,-48.59915389399998],[-65.91702807599995,-48.582169937999936],[-65.90490081899998,-48.56368963999995],[-65.89322272099997,-48.53446498999995],[-65.88918030199994,-48.514773514999945],[-65.88828198699997,-48.49417873899995],[-65.89007861699997,-48.47417285599994],[-65.89816345499997,-48.44459739499996],[-65.90804492299998,-48.42516973599993],[-65.92690954399995,-48.39795845899994],[-65.94307921899997,-48.38150497999993],[-65.95071489899993,-48.37492209099997],[-65.91792639099998,-48.362951005999946],[-65.88199377999996,-48.34768376799997],[-65.86941736599994,-48.34379138299994],[-65.84426453799995,-48.333010909999985],[-65.83842548799998,-48.329716418999965],[-65.82539991699997,-48.325223585999936],[-65.79575551199997,-48.312641536999934],[-65.77778920699996,-48.30664898699996],[-65.76476363499995,-48.30125508799995],[-65.75263637899997,-48.29586061499998],[-65.72074618599999,-48.27937394999998],[-65.70008493499995,-48.26528110299995],[-65.69020346699995,-48.25748337999994],[-65.64708433299995,-48.21937730399998],[-65.63136381499999,-48.20226529399997],[-65.61025340599997,-48.175535036999975],[-65.58644805099993,-48.14969247499994],[-65.58240563199996,-48.14277887199995],[-65.56354101099998,-48.12293463699996],[-65.55276122799995,-48.10819680599997],[-65.54467638999995,-48.10037500499993],[-65.53793902599995,-48.09014468899994],[-65.51682861699999,-48.06636634399996],[-65.46831959099995,-48.028117220999945],[-65.46023475399994,-48.020283167999935],[-65.442044388499,-48],[-64.5,-48],[-64.5,-52],[-68.31268887086523,-52]]]]}}]}