{
"type": "FeatureCollection",
"name": "subareas_langostino",
"crs": { "type": "name", "properties": { "name": "urn:ogc:def:crs:OGC:1.3:CRS84" } },
"features": [
{ "type": "Feature", "properties": { "fid": 1.0, "Id_area": "SUBAREA 1", "Resolucion": null, "Fuente": "CFP", "Link_res": null, "Especie": "Langostino", "Inicio": null, "Fin": null, "Notas": "Se consultara al CFP para definir que norma describe esta area." }, "geometry": { "type": "MultiPolygon", "coordinates": [ [ [ [ -61.0, -41.0 ], [ -61.0, -42.0 ], [ -62.0, -42.0 ], [ -62.0, -41.0 ], [ -61.0, -41.0 ] ] ] ] } },
{ "type": "Feature", "properties": { "fid": 2.0, "Id_area": "SUBAREA 10", "Resolucion": null, "Fuente": "CFP", "Link_res": null, "Especie": "Langostino", "Inicio": null, "Fin": null, "Notas": "Se consultara al CFP para definir que norma describe esta area." }, "geometry": { "type": "MultiPolygon", "coordinates": [ [ [ [ -63.5, -44.0 ], [ -63.5, -45.0 ], [ -64.5, -45.0 ], [ -64.5, -44.0 ], [ -63.5, -44.0 ] ] ] ] } },
{ "type": "Feature", "properties": { "fid": 3.0, "Id_area": "SUBAREA 11", "Resolucion": null, "Fuente": "CFP", "Link_res": null, "Especie": "Langostino", "Inicio": null, "Fin": null, "Notas": "Se consultara al CFP para definir que norma describe esta area." }, "geometry": { "type": "MultiPolygon", "coordinates": [ [ [ [ -63.5, -44.0 ], [ -62.5, -44.0 ], [ -62.5, -45.0 ], [ -63.5, -45.0 ], [ -63.5, -44.0 ] ] ] ] } },
{ "type": "Feature", "properties": { "fid": 4.0, "Id_area": "SUBAREA 12", "Resolucion": null, "Fuente": "CFP", "Link_res": null, "Especie": "Langostino", "Inicio": null, "Fin": null, "Notas": "Se consultara al CFP para definir que norma describe esta area." }, "geometry": { "type": "MultiPolygon", "coordinates": [ [ [ [ -62.5, -44.0 ], [ -61.5, -44.0 ], [ -61.5, -45.0 ], [ -62.5, -45.0 ], [ -62.5, -44.0 ] ] ] ] } },
{ "type": "Feature", "properties": { "fid": 5.0, "Id_area": "SUBAREA 13", "Resolucion": null, "Fuente": "CFP", "Link_res": null, "Especie": "Langostino", "Inicio": null, "Fin": null, "Notas": "Se consultara al CFP para definir que norma describe esta area." }, "geometry": { "type": "MultiPolygon", "coordinates": [ [ [ [ -63.0, -45.0 ], [ -63.0, -46.0 ], [ -64.0, -46.0 ], [ -64.0, -45.0 ], [ -63.0, -45.0 ] ] ] ] } },
{ "type": "Feature", "properties": { "fid": 6.0, "Id_area": "SUBAREA 14", "Resolucion": null, "Fuente": "CFP", "Link_res": null, "Especie": "Langostino", "Inicio": null, "Fin": null, "Notas": "Se consultara al CFP para definir que norma describe esta area." }, "geometry": { "type": "MultiPolygon", "coordinates": [ [ [ [ -62.0, -45.0 ], [ -62.0, -46.0 ], [ -63.0, -46.0 ], [ -63.0, -45.0 ], [ -62.0, -45.0 ] ] ] ] } },
{ "type": "Feature", "properties": { "fid": 7.0, "Id_area": "SUBAREA 15", "Resolucion": null, "Fuente": "CFP", "Link_res": null, "Especie": "Langostino", "Inicio": null, "Fin": null, "Notas": "Se consultara al CFP para definir que norma describe esta area." }, "geometry": { "type": "MultiPolygon", "coordinates": [ [ [ [ -63.0, -46.0 ], [ -63.0, -47.0 ], [ -64.0, -47.0 ], [ -64.0, -46.0 ], [ -63.0, -46.0 ] ] ] ] } },
{ "type": "Feature", "properties": { "fid": 8.0, "Id_area": "SUBAREA 16", "Resolucion": null, "Fuente": "CFP", "Link_res": null, "Especie": "Langostino", "Inicio": null, "Fin": null, "Notas": "Se consultara al CFP para definir que norma describe esta area." }, "geometry": { "type": "MultiPolygon", "coordinates": [ [ [ [ -62.0, -46.0 ], [ -62.0, -47.0 ], [ -63.0, -47.0 ], [ -63.0, -46.0 ], [ -62.0, -46.0 ] ] ] ] } },
{ "type": "Feature", "properties": { "fid": 9.0, "Id_area": "SUBAREA 2", "Resolucion": null, "Fuente": "CFP", "Link_res": null, "Especie": "Langostino", "Inicio": null, "Fin": null, "Notas": "Se consultara al CFP para definir que norma describe esta area." }, "geometry": { "type": "MultiPolygon", "coordinates": [ [ [ [ -60.0, -41.0 ], [ -60.0, -42.0 ], [ -61.0, -42.0 ], [ -61.0, -41.0 ], [ -60.0, -41.0 ] ] ] ] } },
{ "type": "Feature", "properties": { "fid": 10.0, "Id_area": "SUBAREA 4", "Resolucion": null, "Fuente": "CFP", "Link_res": null, "Especie": "Langostino", "Inicio": null, "Fin": null, "Notas": "Se consultara al CFP para definir que norma describe esta area." }, "geometry": { "type": "MultiPolygon", "coordinates": [ [ [ [ -62.0, -42.0 ], [ -61.0, -42.0 ], [ -61.0, -43.0 ], [ -62.0, -43.0 ], [ -62.0, -42.0 ] ] ] ] } },
{ "type": "Feature", "properties": { "fid": 11.0, "Id_area": "SUBAREA 5", "Resolucion": null, "Fuente": "CFP", "Link_res": null, "Especie": "Langostino", "Inicio": null, "Fin": null, "Notas": "Se consultara al CFP para definir que norma describe esta area." }, "geometry": { "type": "MultiPolygon", "coordinates": [ [ [ [ -60.0, -42.0 ], [ -60.0, -43.0 ], [ -61.0, -43.0 ], [ -61.0, -42.0 ], [ -60.0, -42.0 ] ] ] ] } },
{ "type": "Feature", "properties": { "fid": 13.0, "Id_area": "SUBAREA 7", "Resolucion": null, "Fuente": "CFP", "Link_res": null, "Especie": "Langostino", "Inicio": null, "Fin": null, "Notas": "Se consultara al CFP para definir que norma describe esta area." }, "geometry": { "type": "MultiPolygon", "coordinates": [ [ [ [ -62.0, -43.0 ], [ -62.0, -44.0 ], [ -63.0, -44.0 ], [ -63.0, -43.0 ], [ -62.0, -43.0 ] ] ] ] } },
{ "type": "Feature", "properties": { "fid": 14.0, "Id_area": "SUBAREA 8", "Resolucion": null, "Fuente": "CFP", "Link_res": null, "Especie": "Langostino", "Inicio": null, "Fin": null, "Notas": "Se consultara al CFP para definir que norma describe esta area." }, "geometry": { "type": "MultiPolygon", "coordinates": [ [ [ [ -61.0, -43.0 ], [ -61.0, -44.0 ], [ -62.0, -44.0 ], [ -62.0, -43.0 ], [ -61.0, -43.0 ] ] ] ] } },
{ "type": "Feature", "properties": { "fid": 15.0, "Id_area": "SUBAREA 9", "Resolucion": null, "Fuente": "CFP", "Link_res": null, "Especie": "Langostino", "Inicio": null, "Fin": null, "Notas": "Se consultara al CFP para definir que norma describe esta area." }, "geometry": { "type": "MultiPolygon", "coordinates": [ [ [ [ -60.0, -43.0 ], [ -60.0, -44.0 ], [ -61.0, -44.0 ], [ -61.0, -43.0 ], [ -60.0, -43.0 ] ] ] ] } },
{ "type": "Feature", "properties": { "fid": 16.0, "Id_area": "SUBAREA 13", "Resolucion": null, "Fuente": "CFP", "Link_res": null, "Especie": "Langostino", "Inicio": null, "Fin": null, "Notas": "Se consultara al CFP para definir que norma describe esta area." }, "geometry": { "type": "MultiPolygon", "coordinates": [ [ [ [ -63.0, -45.0 ], [ -63.0, -46.0 ], [ -64.0, -46.0 ], [ -64.0, -45.0 ], [ -63.0, -45.0 ] ] ] ] } },
{ "type": "Feature", "properties": { "fid": 18.0, "Id_area": "SUBAREA 6", "Resolucion": null, "Fuente": "CFP", "Link_res": null, "Especie": "Langostino", "Inicio": null, "Fin": null, "Notas": "Se consultara al CFP para definir que norma describe esta area." }, "geometry": { "type": "MultiPolygon", "coordinates": [ [ [ [ -63.0, -44.0 ], [ -64.0, -44.0 ], [ -64.0, -43.5 ], [ -63.5, -43.5 ], [ -63.5, -43.0 ], [ -63.0, -43.0 ], [ -63.0, -44.0 ] ] ] ] } }
]
}
